{
  "type": "FeatureCollection",
  "generator": "overpass-turbo",
  "copyright": "The data included in this document is from www.openstreetmap.org. The data is made available under ODbL.",
  "timestamp": "2026-07-31T14:16:50Z",
  "features": [
    {
      "type": "Feature",
      "properties": {
        "@id": "way/152191050",
        "man_made": "pier",
        "source": "Bing"
      },
      "geometry": {
        "type": "Polygon",
        "coordinates": [
          [
            [
              -8.7345432,
              40.6470086
            ],
            [
              -8.7343819,
              40.6467095
            ],
            [
              -8.7343536,
              40.6467183
            ],
            [
              -8.7344282,
              40.6468567
            ],
            [
              -8.7342629,
              40.646908
            ],
            [
              -8.7342745,
              40.6469294
            ],
            [
              -8.7344398,
              40.6468781
            ],
            [
              -8.7345149,
              40.6470174
            ],
            [
              -8.7345432,
              40.6470086
            ]
          ]
        ]
      },
      "id": "way/152191050"
    },
    {
      "type": "Feature",
      "properties": {
        "@id": "way/152191143",
        "area": "yes",
        "layer": "1",
        "man_made": "pier",
        "source": "Bing"
      },
      "geometry": {
        "type": "Polygon",
        "coordinates": [
          [
            [
              -8.7304001,
              40.6496969
            ],
            [
              -8.7301881,
              40.6497986
            ],
            [
              -8.7300066,
              40.6498789
            ],
            [
              -8.7300272,
              40.6499036
            ],
            [
              -8.7300473,
              40.6499277
            ],
            [
              -8.7300762,
              40.6499138
            ],
            [
              -8.7300924,
              40.6499333
            ],
            [
              -8.7302152,
              40.6498744
            ],
            [
              -8.7303297,
              40.6498195
            ],
            [
              -8.7303158,
              40.6498028
            ],
            [
              -8.7304431,
              40.6497485
            ],
            [
              -8.7304224,
              40.6497236
            ],
            [
              -8.7304001,
              40.6496969
            ]
          ]
        ]
      },
      "id": "way/152191143"
    },
    {
      "type": "Feature",
      "properties": {
        "@id": "way/152191150",
        "area": "yes",
        "layer": "1",
        "man_made": "pier",
        "source": "Bing"
      },
      "geometry": {
        "type": "Polygon",
        "coordinates": [
          [
            [
              -8.7301,
              40.6496871
            ],
            [
              -8.7300839,
              40.6496676
            ],
            [
              -8.7299038,
              40.6497462
            ],
            [
              -8.7298949,
              40.6497354
            ],
            [
              -8.7297712,
              40.6497942
            ],
            [
              -8.7297805,
              40.6498055
            ],
            [
              -8.7296902,
              40.6498484
            ],
            [
              -8.7297081,
              40.64987
            ],
            [
              -8.7297984,
              40.6498271
            ],
            [
              -8.7298059,
              40.6498361
            ],
            [
              -8.7299274,
              40.6497784
            ],
            [
              -8.7299178,
              40.6497668
            ],
            [
              -8.7301,
              40.6496871
            ]
          ]
        ]
      },
      "id": "way/152191150"
    },
    {
      "type": "Feature",
      "properties": {
        "@id": "way/152191161",
        "layer": "1",
        "man_made": "pier",
        "source": "Bing"
      },
      "geometry": {
        "type": "Polygon",
        "coordinates": [
          [
            [
              -8.7162301,
              40.6580137
            ],
            [
              -8.7162297,
              40.6581104
            ],
            [
              -8.7163268,
              40.658118
            ],
            [
              -8.7163296,
              40.6580236
            ],
            [
              -8.7162301,
              40.6580137
            ]
          ]
        ]
      },
      "id": "way/152191161"
    },
    {
      "type": "Feature",
      "properties": {
        "@id": "way/152191172",
        "area": "yes",
        "layer": "1",
        "man_made": "pier",
        "source": "Bing"
      },
      "geometry": {
        "type": "Polygon",
        "coordinates": [
          [
            [
              -8.7135491,
              40.6576755
            ],
            [
              -8.7133389,
              40.6587667
            ],
            [
              -8.7133034,
              40.6587856
            ],
            [
              -8.7132823,
              40.6588305
            ],
            [
              -8.7131434,
              40.658814
            ],
            [
              -8.7131278,
              40.6587903
            ],
            [
              -8.7130867,
              40.6587866
            ],
            [
              -8.712799,
              40.6586944
            ],
            [
              -8.712794,
              40.6586784
            ],
            [
              -8.7127485,
              40.6586765
            ],
            [
              -8.7127423,
              40.6586907
            ],
            [
              -8.7124452,
              40.6586585
            ],
            [
              -8.7124409,
              40.6586458
            ],
            [
              -8.7123936,
              40.6586439
            ],
            [
              -8.7123892,
              40.6586784
            ],
            [
              -8.7124378,
              40.6586826
            ],
            [
              -8.7124403,
              40.6586718
            ],
            [
              -8.7127417,
              40.6587053
            ],
            [
              -8.7127436,
              40.6587143
            ],
            [
              -8.7127928,
              40.6587209
            ],
            [
              -8.7127952,
              40.6587095
            ],
            [
              -8.7130718,
              40.6588026
            ],
            [
              -8.7130637,
              40.6588395
            ],
            [
              -8.7131359,
              40.6588475
            ],
            [
              -8.7131384,
              40.6588277
            ],
            [
              -8.7132816,
              40.6588466
            ],
            [
              -8.7132798,
              40.6588588
            ],
            [
              -8.7133956,
              40.6588678
            ],
            [
              -8.7133975,
              40.6588612
            ],
            [
              -8.7135382,
              40.6588749
            ],
            [
              -8.7135345,
              40.658891
            ],
            [
              -8.7136067,
              40.6588966
            ],
            [
              -8.713613,
              40.6588612
            ],
            [
              -8.7139325,
              40.6588314
            ],
            [
              -8.71393,
              40.6588428
            ],
            [
              -8.7139798,
              40.6588466
            ],
            [
              -8.713981,
              40.6588381
            ],
            [
              -8.7142949,
              40.6588697
            ],
            [
              -8.7142949,
              40.6588834
            ],
            [
              -8.7143441,
              40.6588862
            ],
            [
              -8.7143497,
              40.6588508
            ],
            [
              -8.714298,
              40.6588447
            ],
            [
              -8.714298,
              40.658856
            ],
            [
              -8.7139829,
              40.6588234
            ],
            [
              -8.7139848,
              40.6588092
            ],
            [
              -8.7139362,
              40.6588059
            ],
            [
              -8.7139362,
              40.6588159
            ],
            [
              -8.7136062,
              40.6588443
            ],
            [
              -8.7136037,
              40.6588301
            ],
            [
              -8.7135639,
              40.658833
            ],
            [
              -8.713534,
              40.6588566
            ],
            [
              -8.7134032,
              40.6588462
            ],
            [
              -8.7133932,
              40.6587819
            ],
            [
              -8.7133745,
              40.6587645
            ],
            [
              -8.7136015,
              40.6576815
            ],
            [
              -8.7135491,
              40.6576755
            ]
          ]
        ]
      },
      "id": "way/152191172"
    },
    {
      "type": "Feature",
      "properties": {
        "@id": "way/155151399",
        "man_made": "pier"
      },
      "geometry": {
        "type": "LineString",
        "coordinates": [
          [
            -8.6998312,
            40.6458861
          ],
          [
            -8.6987238,
            40.6453394
          ]
        ]
      },
      "id": "way/155151399"
    },
    {
      "type": "Feature",
      "properties": {
        "@id": "way/155151401",
        "man_made": "pier"
      },
      "geometry": {
        "type": "LineString",
        "coordinates": [
          [
            -8.7344785,
            40.6302872
          ],
          [
            -8.7342675,
            40.6301975
          ]
        ]
      },
      "id": "way/155151401"
    },
    {
      "type": "Feature",
      "properties": {
        "@id": "way/155151406",
        "man_made": "pier"
      },
      "geometry": {
        "type": "LineString",
        "coordinates": [
          [
            -8.7322619,
            40.6284524
          ],
          [
            -8.7328976,
            40.6293473
          ]
        ]
      },
      "id": "way/155151406"
    },
    {
      "type": "Feature",
      "properties": {
        "@id": "way/155151412",
        "man_made": "pier"
      },
      "geometry": {
        "type": "LineString",
        "coordinates": [
          [
            -8.7320135,
            40.6286304
          ],
          [
            -8.732651,
            40.6295266
          ]
        ]
      },
      "id": "way/155151412"
    },
    {
      "type": "Feature",
      "properties": {
        "@id": "way/155151420",
        "man_made": "pier"
      },
      "geometry": {
        "type": "LineString",
        "coordinates": [
          [
            -8.7343011,
            40.627919
          ],
          [
            -8.7358357,
            40.6284099
          ]
        ]
      },
      "id": "way/155151420"
    },
    {
      "type": "Feature",
      "properties": {
        "@id": "way/155151422",
        "man_made": "pier"
      },
      "geometry": {
        "type": "LineString",
        "coordinates": [
          [
            -8.7344595,
            40.6277297
          ],
          [
            -8.7358891,
            40.6280209
          ]
        ]
      },
      "id": "way/155151422"
    },
    {
      "type": "Feature",
      "properties": {
        "@id": "way/155151426",
        "man_made": "pier"
      },
      "geometry": {
        "type": "LineString",
        "coordinates": [
          [
            -8.7313172,
            40.6318799
          ],
          [
            -8.7309252,
            40.6313148
          ]
        ]
      },
      "id": "way/155151426"
    },
    {
      "type": "Feature",
      "properties": {
        "@id": "way/155151432",
        "man_made": "pier"
      },
      "geometry": {
        "type": "LineString",
        "coordinates": [
          [
            -8.73344,
            40.6294482
          ],
          [
            -8.7327729,
            40.6300681
          ],
          [
            -8.7323207,
            40.630187
          ]
        ]
      },
      "id": "way/155151432"
    },
    {
      "type": "Feature",
      "properties": {
        "@id": "way/155181349",
        "man_made": "pier"
      },
      "geometry": {
        "type": "LineString",
        "coordinates": [
          [
            -8.7310833,
            40.644026
          ],
          [
            -8.7313808,
            40.6435004
          ]
        ]
      },
      "id": "way/155181349"
    },
    {
      "type": "Feature",
      "properties": {
        "@id": "way/155181352",
        "man_made": "pier"
      },
      "geometry": {
        "type": "LineString",
        "coordinates": [
          [
            -8.7314024,
            40.6441347
          ],
          [
            -8.7316155,
            40.64376
          ]
        ]
      },
      "id": "way/155181352"
    },
    {
      "type": "Feature",
      "properties": {
        "@id": "way/155181355",
        "man_made": "pier"
      },
      "geometry": {
        "type": "LineString",
        "coordinates": [
          [
            -8.731727,
            40.6442452
          ],
          [
            -8.7318469,
            40.6439356
          ],
          [
            -8.7322494,
            40.6440323
          ]
        ]
      },
      "id": "way/155181355"
    },
    {
      "type": "Feature",
      "properties": {
        "@id": "way/961107833",
        "floating": "yes",
        "foot": "yes",
        "man_made": "pier",
        "motor_vehicle": "no"
      },
      "geometry": {
        "type": "LineString",
        "coordinates": [
          [
            -8.7330906,
            40.6446627
          ],
          [
            -8.7331166,
            40.6446034
          ],
          [
            -8.7331406,
            40.6445489
          ]
        ]
      },
      "id": "way/961107833"
    },
    {
      "type": "Feature",
      "properties": {
        "@id": "way/961107834",
        "floating": "yes",
        "foot": "yes",
        "man_made": "pier",
        "motor_vehicle": "no"
      },
      "geometry": {
        "type": "LineString",
        "coordinates": [
          [
            -8.7331166,
            40.6446034
          ],
          [
            -8.733018,
            40.6445955
          ]
        ]
      },
      "id": "way/961107834"
    },
    {
      "type": "Feature",
      "properties": {
        "@id": "way/1228201368",
        "highway": "footway",
        "man_made": "pier"
      },
      "geometry": {
        "type": "LineString",
        "coordinates": [
          [
            -8.7300841,
            40.6415202
          ],
          [
            -8.730216,
            40.6414762
          ]
        ]
      },
      "id": "way/1228201368"
    }
  ]
}