{
  "type": "FeatureCollection",
  "generator": "overpass-turbo",
  "copyright": "The data included in this document is from www.openstreetmap.org. The data is made available under ODbL.",
  "timestamp": "2026-07-31T14:22:51Z",
  "features": [
    {
      "type": "Feature",
      "properties": {
        "@id": "relation/4508724",
        "harbour": "yes",
        "name": "Port de Barcelona",
        "name:ca": "Port de Barcelona",
        "note": "Límits aproximats de l'Autoritat Portuària de Barcelona",
        "type": "multipolygon",
        "wikidata": "Q1349796",
        "wikipedia": "ca:Port de Barcelona"
      },
      "geometry": {
        "type": "Polygon",
        "coordinates": [
          [
            [
              2.1325124,
              41.3221115
            ],
            [
              2.1320918,
              41.3221069
            ],
            [
              2.1318432,
              41.3221323
            ],
            [
              2.1315148,
              41.3222083
            ],
            [
              2.1310114,
              41.3223559
            ],
            [
              2.1305448,
              41.3223951
            ],
            [
              2.1289701,
              41.3224089
            ],
            [
              2.1273739,
              41.3224642
            ],
            [
              2.1253787,
              41.3226855
            ],
            [
              2.1240588,
              41.3228838
            ],
            [
              2.1229292,
              41.3231097
            ],
            [
              2.1214988,
              41.3234509
            ],
            [
              2.1198042,
              41.3238968
            ],
            [
              2.1162899,
              41.3254028
            ],
            [
              2.1157033,
              41.3256866
            ],
            [
              2.1146166,
              41.3254105
            ],
            [
              2.1151287,
              41.3245393
            ],
            [
              2.1152217,
              41.3243081
            ],
            [
              2.1154294,
              41.3236197
            ],
            [
              2.1157517,
              41.3225495
            ],
            [
              2.1161312,
              41.3211404
            ],
            [
              2.116722,
              41.3195216
            ],
            [
              2.1171767,
              41.3182873
            ],
            [
              2.1175204,
              41.3174402
            ],
            [
              2.1178499,
              41.3167383
            ],
            [
              2.1184299,
              41.3157756
            ],
            [
              2.1187235,
              41.3153292
            ],
            [
              2.1192928,
              41.3146461
            ],
            [
              2.1196831,
              41.314205
            ],
            [
              2.1209542,
              41.313019
            ],
            [
              2.1213802,
              41.3126882
            ],
            [
              2.1228733,
              41.3115371
            ],
            [
              2.1242375,
              41.3105017
            ],
            [
              2.1264897,
              41.3087858
            ],
            [
              2.1280364,
              41.307597
            ],
            [
              2.1307003,
              41.3056013
            ],
            [
              2.1325331,
              41.3043542
            ],
            [
              2.1313724,
              41.3036814
            ],
            [
              2.131767,
              41.3034401
            ],
            [
              2.1338947,
              41.3019255
            ],
            [
              2.1369813,
              41.2996535
            ],
            [
              2.1447186,
              41.2935281
            ],
            [
              2.1557349,
              41.2944339
            ],
            [
              2.1770607,
              41.3164809
            ],
            [
              2.1729867,
              41.3265339
            ],
            [
              2.1867051,
              41.3573075
            ],
            [
              2.1939384,
              41.3708482
            ],
            [
              2.1905089,
              41.3746774
            ],
            [
              2.1900197,
              41.374482
            ],
            [
              2.1897614,
              41.3743889
            ],
            [
              2.189565,
              41.3752573
            ],
            [
              2.1889032,
              41.3766017
            ],
            [
              2.1884693,
              41.3776233
            ],
            [
              2.1883639,
              41.3781483
            ],
            [
              2.1880874,
              41.3786722
            ],
            [
              2.1876356,
              41.3799257
            ],
            [
              2.1873811,
              41.3806343
            ],
            [
              2.1868935,
              41.3818195
            ],
            [
              2.1868697,
              41.3818962
            ],
            [
              2.1862397,
              41.3820659
            ],
            [
              2.185536,
              41.3823977
            ],
            [
              2.1851592,
              41.3825751
            ],
            [
              2.1843356,
              41.3817037
            ],
            [
              2.1840576,
              41.381423
            ],
            [
              2.1839394,
              41.3812787
            ],
            [
              2.1827658,
              41.3811815
            ],
            [
              2.1822233,
              41.3813508
            ],
            [
              2.181768,
              41.3808592
            ],
            [
              2.1814958,
              41.3805652
            ],
            [
              2.1812555,
              41.380262
            ],
            [
              2.1806998,
              41.3795954
            ],
            [
              2.1806459,
              41.3795288
            ],
            [
              2.1804569,
              41.3792951
            ],
            [
              2.1803458,
              41.3791576
            ],
            [
              2.1802297,
              41.3790088
            ],
            [
              2.1798901,
              41.3785737
            ],
            [
              2.179616,
              41.3782297
            ],
            [
              2.1794827,
              41.3780766
            ],
            [
              2.1792952,
              41.3778612
            ],
            [
              2.1788574,
              41.3773016
            ],
            [
              2.1784962,
              41.3768571
            ],
            [
              2.1780401,
              41.3762933
            ],
            [
              2.1780065,
              41.3762518
            ],
            [
              2.1773257,
              41.3752906
            ],
            [
              2.177075,
              41.3749699
            ],
            [
              2.1766892,
              41.3745049
            ],
            [
              2.1764722,
              41.3742836
            ],
            [
              2.1762553,
              41.3740886
            ],
            [
              2.17618,
              41.3741335
            ],
            [
              2.1756106,
              41.3735033
            ],
            [
              2.1754317,
              41.3732971
            ],
            [
              2.1746982,
              41.3724936
            ],
            [
              2.1736156,
              41.3710256
            ],
            [
              2.1735304,
              41.3705044
            ],
            [
              2.1734566,
              41.3701183
            ],
            [
              2.1733882,
              41.3696508
            ],
            [
              2.1733167,
              41.3692156
            ],
            [
              2.1730122,
              41.368601
            ],
            [
              2.1723691,
              41.3678146
            ],
            [
              2.1745432,
              41.3668487
            ],
            [
              2.1745795,
              41.3668359
            ],
            [
              2.1740681,
              41.3661699
            ],
            [
              2.1741262,
              41.3661446
            ],
            [
              2.174157,
              41.3661312
            ],
            [
              2.1738166,
              41.3656887
            ],
            [
              2.173483,
              41.3652365
            ],
            [
              2.1718237,
              41.3630684
            ],
            [
              2.1714078,
              41.3625109
            ],
            [
              2.1710757,
              41.3621247
            ],
            [
              2.1708509,
              41.3618903
            ],
            [
              2.1702678,
              41.3615809
            ],
            [
              2.1700252,
              41.3614483
            ],
            [
              2.1692736,
              41.361055
            ],
            [
              2.1664042,
              41.3595439
            ],
            [
              2.1662505,
              41.3594607
            ],
            [
              2.1645899,
              41.3586036
            ],
            [
              2.1642358,
              41.3583961
            ],
            [
              2.1642039,
              41.3583759
            ],
            [
              2.1644225,
              41.3580666
            ],
            [
              2.1637879,
              41.3572801
            ],
            [
              2.1630446,
              41.3565489
            ],
            [
              2.1618758,
              41.3548652
            ],
            [
              2.1611911,
              41.3539537
            ],
            [
              2.1607301,
              41.353223
            ],
            [
              2.1605783,
              41.3520171
            ],
            [
              2.1603164,
              41.3516429
            ],
            [
              2.1599686,
              41.3517557
            ],
            [
              2.1591434,
              41.3520767
            ],
            [
              2.159066,
              41.3520611
            ],
            [
              2.1590311,
              41.3520143
            ],
            [
              2.1570187,
              41.3520242
            ],
            [
              2.156979,
              41.352064
            ],
            [
              2.1569374,
              41.3520938
            ],
            [
              2.1567936,
              41.3521066
            ],
            [
              2.1555623,
              41.3516977
            ],
            [
              2.1553902,
              41.3516381
            ],
            [
              2.1543273,
              41.3513158
            ],
            [
              2.1540776,
              41.3511993
            ],
            [
              2.1540057,
              41.3511482
            ],
            [
              2.1525872,
              41.3506612
            ],
            [
              2.1514429,
              41.3502665
            ],
            [
              2.15045,
              41.3499243
            ],
            [
              2.1500584,
              41.349744
            ],
            [
              2.1495913,
              41.34946
            ],
            [
              2.1492376,
              41.3491718
            ],
            [
              2.1489168,
              41.3488163
            ],
            [
              2.1487006,
              41.3485245
            ],
            [
              2.148568,
              41.3483455
            ],
            [
              2.1483486,
              41.3473004
            ],
            [
              2.1478011,
              41.3466561
            ],
            [
              2.1474311,
              41.34631
            ],
            [
              2.1471546,
              41.3459771
            ],
            [
              2.1468734,
              41.3455667
            ],
            [
              2.1467537,
              41.3453709
            ],
            [
              2.1462047,
              41.3444908
            ],
            [
              2.1453701,
              41.3431127
            ],
            [
              2.1449758,
              41.3424919
            ],
            [
              2.1442901,
              41.341366
            ],
            [
              2.1437626,
              41.3405188
            ],
            [
              2.1432869,
              41.339741
            ],
            [
              2.1427627,
              41.3389019
            ],
            [
              2.142418,
              41.3383315
            ],
            [
              2.1419446,
              41.3375662
            ],
            [
              2.1414764,
              41.3368026
            ],
            [
              2.1412068,
              41.3363708
            ],
            [
              2.1409433,
              41.3359205
            ],
            [
              2.1407329,
              41.3355952
            ],
            [
              2.1406186,
              41.3354184
            ],
            [
              2.1405023,
              41.3352345
            ],
            [
              2.1402753,
              41.3348603
            ],
            [
              2.1401212,
              41.3346096
            ],
            [
              2.1399784,
              41.3343661
            ],
            [
              2.1398167,
              41.3341026
            ],
            [
              2.1397921,
              41.3340671
            ],
            [
              2.1396181,
              41.3337845
            ],
            [
              2.1394393,
              41.3334927
            ],
            [
              2.139445,
              41.3334422
            ],
            [
              2.139479,
              41.3332952
            ],
            [
              2.1395358,
              41.3331475
            ],
            [
              2.1396181,
              41.3330013
            ],
            [
              2.1397391,
              41.3328543
            ],
            [
              2.1397883,
              41.3328131
            ],
            [
              2.1396801,
              41.3325255
            ],
            [
              2.1397549,
              41.3325032
            ],
            [
              2.1403491,
              41.3322684
            ],
            [
              2.1409288,
              41.3320646
            ],
            [
              2.1415785,
              41.3318346
            ],
            [
              2.1419416,
              41.3317074
            ],
            [
              2.1420466,
              41.3316464
            ],
            [
              2.1421194,
              41.3315867
            ],
            [
              2.1422149,
              41.3314639
            ],
            [
              2.1422471,
              41.3313836
            ],
            [
              2.1422575,
              41.3312729
            ],
            [
              2.1422509,
              41.3312089
            ],
            [
              2.1421951,
              41.3310719
            ],
            [
              2.1421213,
              41.3309583
            ],
            [
              2.1419104,
              41.3306167
            ],
            [
              2.1416607,
              41.3302169
            ],
            [
              2.1414924,
              41.3299399
            ],
            [
              2.1413714,
              41.3297461
            ],
            [
              2.1411529,
              41.3293931
            ],
            [
              2.140908,
              41.3289905
            ],
            [
              2.1406678,
              41.3285985
            ],
            [
              2.1404238,
              41.3282093
            ],
            [
              2.1401722,
              41.3278052
            ],
            [
              2.1400096,
              41.3275333
            ],
            [
              2.1399386,
              41.3274196
            ],
            [
              2.139776,
              41.3274196
            ],
            [
              2.1396379,
              41.3274289
            ],
            [
              2.1395055,
              41.327436
            ],
            [
              2.1391603,
              41.3274992
            ],
            [
              2.1390166,
              41.3275361
            ],
            [
              2.1385241,
              41.3277027
            ],
            [
              2.1372963,
              41.328143
            ],
            [
              2.1367729,
              41.3283308
            ],
            [
              2.1367085,
              41.3282456
            ],
            [
              2.1364414,
              41.3278295
            ],
            [
              2.13605,
              41.3271979
            ],
            [
              2.1356372,
              41.3265225
            ],
            [
              2.1352013,
              41.3258194
            ],
            [
              2.134856,
              41.3252535
            ],
            [
              2.134394,
              41.3245101
            ],
            [
              2.1340287,
              41.3238992
            ],
            [
              2.1338261,
              41.3235753
            ],
            [
              2.1337156,
              41.3233229
            ],
            [
              2.1336282,
              41.3229598
            ],
            [
              2.1335883,
              41.3228158
            ],
            [
              2.1334793,
              41.3226475
            ],
            [
              2.133401,
              41.3225599
            ],
            [
              2.1332706,
              41.3224273
            ],
            [
              2.1330802,
              41.3223236
            ],
            [
              2.1329022,
              41.3222222
            ],
            [
              2.1325124,
              41.3221115
            ]
          ],
          [
            [
              2.1313227,
              41.3198405
            ],
            [
              2.1297587,
              41.3188384
            ],
            [
              2.1246293,
              41.3151916
            ],
            [
              2.124648,
              41.3147363
            ],
            [
              2.1261968,
              41.3135493
            ],
            [
              2.1314863,
              41.3092987
            ],
            [
              2.1323921,
              41.3085708
            ],
            [
              2.134436,
              41.3068733
            ],
            [
              2.1345237,
              41.3066428
            ],
            [
              2.134528,
              41.3064824
            ],
            [
              2.1344834,
              41.3063072
            ],
            [
              2.1343842,
              41.3061021
            ],
            [
              2.1338921,
              41.305757
            ],
            [
              2.1333258,
              41.3055085
            ],
            [
              2.1326805,
              41.3054229
            ],
            [
              2.1322851,
              41.3054355
            ],
            [
              2.1319166,
              41.3054654
            ],
            [
              2.1315625,
              41.305554
            ],
            [
              2.1310727,
              41.3057519
            ],
            [
              2.1309506,
              41.3058078
            ],
            [
              2.1306923,
              41.3059812
            ],
            [
              2.1297748,
              41.3066919
            ],
            [
              2.1289835,
              41.3073038
            ],
            [
              2.1280203,
              41.3080623
            ],
            [
              2.1267904,
              41.3090198
            ],
            [
              2.1258255,
              41.3097594
            ],
            [
              2.1247585,
              41.3105905
            ],
            [
              2.1236933,
              41.3114121
            ],
            [
              2.1227802,
              41.3121154
            ],
            [
              2.1218153,
              41.3128872
            ],
            [
              2.1210097,
              41.3135865
            ],
            [
              2.1212084,
              41.3136981
            ],
            [
              2.1204028,
              41.3145197
            ],
            [
              2.1198979,
              41.3150992
            ],
            [
              2.1194253,
              41.3157016
            ],
            [
              2.1190386,
              41.3162301
            ],
            [
              2.1185642,
              41.3169306
            ],
            [
              2.1178803,
              41.3174496
            ],
            [
              2.1177335,
              41.317849
            ],
            [
              2.1176207,
              41.318294
            ],
            [
              2.1173879,
              41.3188609
            ],
            [
              2.1172391,
              41.3192311
            ],
            [
              2.1171076,
              41.3195947
            ],
            [
              2.1169556,
              41.3200735
            ],
            [
              2.1167488,
              41.3207753
            ],
            [
              2.1180575,
              41.3216998
            ],
            [
              2.118856,
              41.3222644
            ],
            [
              2.1189294,
              41.3223142
            ],
            [
              2.1195445,
              41.3221511
            ],
            [
              2.1197815,
              41.3220883
            ],
            [
              2.1208127,
              41.3218382
            ],
            [
              2.121758,
              41.3216204
            ],
            [
              2.1227068,
              41.3214147
            ],
            [
              2.1237956,
              41.3211524
            ],
            [
              2.1238891,
              41.3211095
            ],
            [
              2.1262457,
              41.3205924
            ],
            [
              2.1278461,
              41.3202821
            ],
            [
              2.1274194,
              41.3197318
            ],
            [
              2.1278547,
              41.3196815
            ],
            [
              2.1277925,
              41.3194414
            ],
            [
              2.1280245,
              41.3192763
            ],
            [
              2.12914,
              41.3201045
            ],
            [
              2.1303586,
              41.3200792
            ],
            [
              2.1310289,
              41.320048
            ],
            [
              2.1312731,
              41.3200382
            ],
            [
              2.1313823,
              41.3199836
            ],
            [
              2.1314186,
              41.3199445
            ],
            [
              2.1313227,
              41.3198405
            ]
          ],
          [
            [
              2.1369866,
              41.3277117
            ],
            [
              2.1376491,
              41.3277456
            ],
            [
              2.1384473,
              41.3275922
            ],
            [
              2.1396243,
              41.3271691
            ],
            [
              2.1383456,
              41.3250946
            ],
            [
              2.1354527,
              41.3260861
            ],
            [
              2.1361165,
              41.3271685
            ],
            [
              2.1362628,
              41.327338
            ],
            [
              2.1364084,
              41.3274459
            ],
            [
              2.1367583,
              41.3276334
            ],
            [
              2.1369866,
              41.3277117
            ]
          ],
          [
            [
              2.1314564,
              41.3171112
            ],
            [
              2.1314856,
              41.3171216
            ],
            [
              2.131646,
              41.3170046
            ],
            [
              2.1318509,
              41.3168374
            ],
            [
              2.1322069,
              41.316551
            ],
            [
              2.1325653,
              41.3162576
            ],
            [
              2.1328638,
              41.3160391
            ],
            [
              2.1328562,
              41.3159953
            ],
            [
              2.132319,
              41.3156126
            ],
            [
              2.1306737,
              41.3144299
            ],
            [
              2.1293845,
              41.3135261
            ],
            [
              2.12804,
              41.3125762
            ],
            [
              2.1265482,
              41.3136898
            ],
            [
              2.1314564,
              41.3171112
            ]
          ],
          [
            [
              2.1331396,
              41.3162865
            ],
            [
              2.1323474,
              41.3169167
            ],
            [
              2.1324529,
              41.3169915
            ],
            [
              2.1325513,
              41.3169131
            ],
            [
              2.1330655,
              41.3172777
            ],
            [
              2.132967,
              41.317356
            ],
            [
              2.1337289,
              41.3178962
            ],
            [
              2.1342929,
              41.3174475
            ],
            [
              2.1343429,
              41.317483
            ],
            [
              2.134571,
              41.3173015
            ],
            [
              2.1344554,
              41.3172195
            ],
            [
              2.1343963,
              41.3172664
            ],
            [
              2.1332033,
              41.3164205
            ],
            [
              2.1332623,
              41.3163736
            ],
            [
              2.1331396,
              41.3162865
            ]
          ],
          [
            [
              2.1336356,
              41.3185365
            ],
            [
              2.1333154,
              41.3187912
            ],
            [
              2.1340676,
              41.3193246
            ],
            [
              2.1343878,
              41.3190698
            ],
            [
              2.1336356,
              41.3185365
            ]
          ],
          [
            [
              2.1290683,
              41.3129843
            ],
            [
              2.1295229,
              41.3133271
            ],
            [
              2.1295934,
              41.3133496
            ],
            [
              2.1296513,
              41.3133516
            ],
            [
              2.1297111,
              41.3133342
            ],
            [
              2.1297877,
              41.3132831
            ],
            [
              2.1303285,
              41.312847
            ],
            [
              2.1309438,
              41.3123652
            ],
            [
              2.1311357,
              41.3123134
            ],
            [
              2.1312185,
              41.3123134
            ],
            [
              2.1313444,
              41.312333
            ],
            [
              2.1314825,
              41.3123837
            ],
            [
              2.1316314,
              41.3125047
            ],
            [
              2.1322653,
              41.3129486
            ],
            [
              2.1328638,
              41.3133763
            ],
            [
              2.1329498,
              41.3133901
            ],
            [
              2.1330327,
              41.3133647
            ],
            [
              2.1334977,
              41.3129889
            ],
            [
              2.1340901,
              41.3125359
            ],
            [
              2.1344017,
              41.3122834
            ],
            [
              2.1343541,
              41.3122511
            ],
            [
              2.1343894,
              41.3122165
            ],
            [
              2.1339305,
              41.311888
            ],
            [
              2.1332491,
              41.3114073
            ],
            [
              2.1324878,
              41.3108551
            ],
            [
              2.1321516,
              41.310625
            ],
            [
              2.1317605,
              41.310348
            ],
            [
              2.131688,
              41.3102897
            ],
            [
              2.1313392,
              41.3100427
            ],
            [
              2.1313275,
              41.3100204
            ],
            [
              2.1312201,
              41.3101022
            ],
            [
              2.1311403,
              41.3100481
            ],
            [
              2.1302777,
              41.3107098
            ],
            [
              2.1294996,
              41.3113289
            ],
            [
              2.1288258,
              41.311854
            ],
            [
              2.1286555,
              41.3119912
            ],
            [
              2.1282802,
              41.3122938
            ],
            [
              2.1283761,
              41.3123652
            ],
            [
              2.1282817,
              41.312439
            ],
            [
              2.1283378,
              41.3124771
            ],
            [
              2.1290683,
              41.3129843
            ]
          ],
          [
            [
              2.1426596,
              41.3174759
            ],
            [
              2.142985,
              41.3172169
            ],
            [
              2.1416376,
              41.3162669
            ],
            [
              2.1418092,
              41.3161344
            ],
            [
              2.1416294,
              41.3160033
            ],
            [
              2.1415596,
              41.316056
            ],
            [
              2.1408297,
              41.3155282
            ],
            [
              2.1402907,
              41.3159425
            ],
            [
              2.1412073,
              41.3166044
            ],
            [
              2.1413159,
              41.3165181
            ],
            [
              2.1426596,
              41.3174759
            ]
          ],
          [
            [
              2.1745443,
              41.3716511
            ],
            [
              2.1747692,
              41.3715499
            ],
            [
              2.1747427,
              41.3715168
            ],
            [
              2.1748262,
              41.3714792
            ],
            [
              2.1744287,
              41.3709668
            ],
            [
              2.1743452,
              41.3710048
            ],
            [
              2.1743206,
              41.3709748
            ],
            [
              2.1740829,
              41.3710798
            ],
            [
              2.1741458,
              41.3711563
            ],
            [
              2.1743642,
              41.3710599
            ],
            [
              2.1747128,
              41.3714845
            ],
            [
              2.1744909,
              41.3715843
            ],
            [
              2.1745443,
              41.3716511
            ]
          ],
          [
            [
              2.1744909,
              41.3715843
            ],
            [
              2.1747128,
              41.3714845
            ],
            [
              2.1743642,
              41.3710599
            ],
            [
              2.1741458,
              41.3711563
            ],
            [
              2.1744909,
              41.3715843
            ]
          ]
        ]
      },
      "id": "relation/4508724"
    },
    {
      "type": "Feature",
      "properties": {
        "@id": "relation/7333418",
        "harbour": "yes",
        "landuse": "harbour",
        "name": "Port Vell",
        "name:ca": "Port Vell",
        "seamark:harbour:category": "marina",
        "seamark:type": "harbour",
        "type": "multipolygon",
        "wikidata": "Q1114612",
        "wikipedia": "ca:Port Vell de Barcelona",
        "@relations": [
          {
            "role": "outer",
            "rel": 4508724,
            "reltags": {
              "harbour": "yes",
              "name": "Port de Barcelona",
              "name:ca": "Port de Barcelona",
              "note": "Límits aproximats de l'Autoritat Portuària de Barcelona",
              "type": "multipolygon",
              "wikidata": "Q1349796",
              "wikipedia": "ca:Port de Barcelona"
            }
          }
        ]
      },
      "geometry": {
        "type": "Polygon",
        "coordinates": [
          [
            [
              2.1845976,
              41.3579036
            ],
            [
              2.1853612,
              41.3577346
            ],
            [
              2.1868522,
              41.3615806
            ],
            [
              2.1870926,
              41.3615364
            ],
            [
              2.1877605,
              41.3634052
            ],
            [
              2.1879423,
              41.3636642
            ],
            [
              2.1918919,
              41.369846
            ],
            [
              2.1918626,
              41.3699308
            ],
            [
              2.1917647,
              41.3699752
            ],
            [
              2.1916517,
              41.3700077
            ],
            [
              2.1915263,
              41.3699889
            ],
            [
              2.1911299,
              41.3693096
            ],
            [
              2.1901772,
              41.3695587
            ],
            [
              2.1899838,
              41.369591
            ],
            [
              2.1898362,
              41.369606
            ],
            [
              2.189786,
              41.3693763
            ],
            [
              2.1892131,
              41.3694385
            ],
            [
              2.1889697,
              41.3697913
            ],
            [
              2.1888474,
              41.3699687
            ],
            [
              2.1888788,
              41.3701786
            ],
            [
              2.1888883,
              41.3702087
            ],
            [
              2.1889017,
              41.3703117
            ],
            [
              2.1889099,
              41.3703577
            ],
            [
              2.1890252,
              41.371075
            ],
            [
              2.1890797,
              41.3710722
            ],
            [
              2.1890892,
              41.3711183
            ],
            [
              2.1890579,
              41.3711221
            ],
            [
              2.1890607,
              41.371146
            ],
            [
              2.1890367,
              41.3711489
            ],
            [
              2.1892337,
              41.3723565
            ],
            [
              2.1892893,
              41.3723525
            ],
            [
              2.1893034,
              41.3724398
            ],
            [
              2.1892482,
              41.3724457
            ],
            [
              2.1893158,
              41.3728581
            ],
            [
              2.1893695,
              41.3728541
            ],
            [
              2.1893781,
              41.3728996
            ],
            [
              2.1893483,
              41.3729025
            ],
            [
              2.189353,
              41.3729237
            ],
            [
              2.1893263,
              41.3729253
            ],
            [
              2.1894259,
              41.3735451
            ],
            [
              2.1894577,
              41.3736312
            ],
            [
              2.1897614,
              41.3743889
            ],
            [
              2.189565,
              41.3752573
            ],
            [
              2.1889032,
              41.3766017
            ],
            [
              2.1884693,
              41.3776233
            ],
            [
              2.1883639,
              41.3781483
            ],
            [
              2.1880874,
              41.3786722
            ],
            [
              2.1874366,
              41.3804957
            ],
            [
              2.1873811,
              41.3806343
            ],
            [
              2.1868935,
              41.3818195
            ],
            [
              2.1868697,
              41.3818962
            ],
            [
              2.1862397,
              41.3820659
            ],
            [
              2.185536,
              41.3823977
            ],
            [
              2.1851592,
              41.3825751
            ],
            [
              2.1843356,
              41.3817037
            ],
            [
              2.1840576,
              41.381423
            ],
            [
              2.1839394,
              41.3812787
            ],
            [
              2.1827658,
              41.3811815
            ],
            [
              2.1822233,
              41.3813508
            ],
            [
              2.181768,
              41.3808592
            ],
            [
              2.1814958,
              41.3805652
            ],
            [
              2.1812555,
              41.380262
            ],
            [
              2.1806998,
              41.3795954
            ],
            [
              2.1806459,
              41.3795288
            ],
            [
              2.1804569,
              41.3792951
            ],
            [
              2.1803458,
              41.3791576
            ],
            [
              2.1802297,
              41.3790088
            ],
            [
              2.1798901,
              41.3785737
            ],
            [
              2.179616,
              41.3782297
            ],
            [
              2.1794827,
              41.3780766
            ],
            [
              2.1792952,
              41.3778612
            ],
            [
              2.1788574,
              41.3773016
            ],
            [
              2.1784962,
              41.3768571
            ],
            [
              2.1780401,
              41.3762933
            ],
            [
              2.1780065,
              41.3762518
            ],
            [
              2.1773257,
              41.3752906
            ],
            [
              2.177075,
              41.3749699
            ],
            [
              2.1766892,
              41.3745049
            ],
            [
              2.1762553,
              41.3740886
            ],
            [
              2.17618,
              41.3741335
            ],
            [
              2.1756106,
              41.3735033
            ],
            [
              2.1754317,
              41.3732971
            ],
            [
              2.1776078,
              41.372354
            ],
            [
              2.1820578,
              41.3703449
            ],
            [
              2.1823389,
              41.3646532
            ],
            [
              2.1825605,
              41.3645426
            ],
            [
              2.1827354,
              41.3643686
            ],
            [
              2.1828473,
              41.3641961
            ],
            [
              2.1829633,
              41.3639472
            ],
            [
              2.1829673,
              41.363738
            ],
            [
              2.182888,
              41.3635151
            ],
            [
              2.1825117,
              41.3628541
            ],
            [
              2.1803185,
              41.3591161
            ],
            [
              2.1804936,
              41.3590677
            ],
            [
              2.1845976,
              41.3579036
            ]
          ]
        ]
      },
      "id": "relation/7333418"
    },
    {
      "type": "Feature",
      "properties": {
        "@id": "way/35816698",
        "area": "yes",
        "est_width": "2",
        "man_made": "pier",
        "name": "4-5",
        "ref": "4-5",
        "width": "4"
      },
      "geometry": {
        "type": "Polygon",
        "coordinates": [
          [
            [
              2.2016757,
              41.3869861
            ],
            [
              2.2017132,
              41.3870143
            ],
            [
              2.2004217,
              41.3879889
            ],
            [
              2.2003892,
              41.3879664
            ],
            [
              2.2016757,
              41.3869861
            ]
          ]
        ]
      },
      "id": "way/35816698"
    },
    {
      "type": "Feature",
      "properties": {
        "@id": "way/35816699",
        "area": "yes",
        "est_width": "2",
        "man_made": "pier",
        "name": "6-7",
        "ref": "6-7",
        "width": "4"
      },
      "geometry": {
        "type": "Polygon",
        "coordinates": [
          [
            [
              2.2013874,
              41.3867691
            ],
            [
              2.2014112,
              41.386787
            ],
            [
              2.2001207,
              41.3877653
            ],
            [
              2.2000957,
              41.3877407
            ],
            [
              2.2013874,
              41.3867691
            ]
          ]
        ]
      },
      "id": "way/35816699"
    },
    {
      "type": "Feature",
      "properties": {
        "@id": "way/35816700",
        "area": "yes",
        "est_width": "2",
        "man_made": "pier",
        "name": "8-9",
        "ref": "8-9",
        "width": "4"
      },
      "geometry": {
        "type": "Polygon",
        "coordinates": [
          [
            [
              2.2010251,
              41.3864965
            ],
            [
              2.2010563,
              41.38652
            ],
            [
              2.199766,
              41.3874881
            ],
            [
              2.199735,
              41.3874775
            ],
            [
              2.2010251,
              41.3864965
            ]
          ]
        ]
      },
      "id": "way/35816700"
    },
    {
      "type": "Feature",
      "properties": {
        "@id": "way/35816701",
        "area": "yes",
        "est_width": "2",
        "man_made": "pier",
        "name": "10-11",
        "ref": "10-11",
        "width": "4"
      },
      "geometry": {
        "type": "Polygon",
        "coordinates": [
          [
            [
              2.2006606,
              41.3862223
            ],
            [
              2.2006902,
              41.3862446
            ],
            [
              2.1994024,
              41.3872197
            ],
            [
              2.1993797,
              41.3872015
            ],
            [
              2.2006606,
              41.3862223
            ]
          ]
        ]
      },
      "id": "way/35816701"
    },
    {
      "type": "Feature",
      "properties": {
        "@id": "way/35816702",
        "area": "yes",
        "est_width": "2",
        "man_made": "pier",
        "name": "12-13",
        "ref": "12-13",
        "width": "4"
      },
      "geometry": {
        "type": "Polygon",
        "coordinates": [
          [
            [
              2.2003008,
              41.3859516
            ],
            [
              2.2003279,
              41.385972
            ],
            [
              2.1990314,
              41.3869458
            ],
            [
              2.199016,
              41.3869285
            ],
            [
              2.2003008,
              41.3859516
            ]
          ]
        ]
      },
      "id": "way/35816702"
    },
    {
      "type": "Feature",
      "properties": {
        "@id": "way/231284638",
        "area": "yes",
        "foot": "yes",
        "man_made": "pier",
        "name": "Rambla de Mar",
        "surface": "wood",
        "wikidata": "Q11944535",
        "wikimedia_commons": "Category:Rambla de Mar (Barcelona)",
        "wikipedia": "ca:Rambla de Mar"
      },
      "geometry": {
        "type": "Polygon",
        "coordinates": [
          [
            [
              2.1825708,
              41.37447
            ],
            [
              2.1822771,
              41.3746045
            ],
            [
              2.1820908,
              41.3746887
            ],
            [
              2.1820292,
              41.3746749
            ],
            [
              2.1811182,
              41.3750607
            ],
            [
              2.1811122,
              41.375061
            ],
            [
              2.1811047,
              41.3750604
            ],
            [
              2.1810981,
              41.3750561
            ],
            [
              2.1810931,
              41.3750485
            ],
            [
              2.1810943,
              41.3750372
            ],
            [
              2.1811487,
              41.3748829
            ],
            [
              2.1812531,
              41.3748189
            ],
            [
              2.1813328,
              41.3747759
            ],
            [
              2.181416,
              41.3747355
            ],
            [
              2.1815112,
              41.3746945
            ],
            [
              2.1815943,
              41.3746655
            ],
            [
              2.1816559,
              41.3746467
            ],
            [
              2.1817215,
              41.3746339
            ],
            [
              2.1818455,
              41.3746165
            ],
            [
              2.181894,
              41.3746048
            ],
            [
              2.1819441,
              41.3745855
            ],
            [
              2.1820097,
              41.3745557
            ],
            [
              2.1820714,
              41.3745172
            ],
            [
              2.1821285,
              41.3744644
            ],
            [
              2.1822208,
              41.3743804
            ],
            [
              2.1822959,
              41.3743236
            ],
            [
              2.1823678,
              41.3742795
            ],
            [
              2.1824187,
              41.3742528
            ],
            [
              2.1824734,
              41.374229
            ],
            [
              2.182569,
              41.3741996
            ],
            [
              2.1826247,
              41.3741862
            ],
            [
              2.1826783,
              41.3741757
            ],
            [
              2.1825708,
              41.37447
            ]
          ]
        ]
      },
      "id": "way/231284638"
    },
    {
      "type": "Feature",
      "properties": {
        "@id": "way/231284639",
        "area": "yes",
        "foot": "yes",
        "man_made": "pier",
        "name": "Rambla de Mar",
        "surface": "wood",
        "wikidata": "Q11944535",
        "wikimedia_commons": "Category:Rambla de Mar (Barcelona)",
        "wikipedia": "ca:Rambla de Mar"
      },
      "geometry": {
        "type": "Polygon",
        "coordinates": [
          [
            [
              2.1804409,
              41.3753422
            ],
            [
              2.1802858,
              41.3754075
            ],
            [
              2.1802949,
              41.3754241
            ],
            [
              2.1803026,
              41.3754436
            ],
            [
              2.1803068,
              41.3754681
            ],
            [
              2.1803007,
              41.3754925
            ],
            [
              2.1802846,
              41.375522
            ],
            [
              2.1802621,
              41.3755506
            ],
            [
              2.1802256,
              41.3755798
            ],
            [
              2.180194,
              41.3755992
            ],
            [
              2.1801526,
              41.3756162
            ],
            [
              2.1800787,
              41.3756389
            ],
            [
              2.1800201,
              41.3756499
            ],
            [
              2.1799553,
              41.3756562
            ],
            [
              2.1799098,
              41.375662
            ],
            [
              2.1798742,
              41.3756767
            ],
            [
              2.1798331,
              41.3757036
            ],
            [
              2.179797,
              41.375738
            ],
            [
              2.1797609,
              41.3757621
            ],
            [
              2.1797136,
              41.3757859
            ],
            [
              2.1796621,
              41.3758033
            ],
            [
              2.1796125,
              41.3758105
            ],
            [
              2.1795604,
              41.3758116
            ],
            [
              2.1795618,
              41.3759109
            ],
            [
              2.1795709,
              41.3759398
            ],
            [
              2.179587,
              41.3759649
            ],
            [
              2.1796063,
              41.3759879
            ],
            [
              2.1796295,
              41.3760064
            ],
            [
              2.1795254,
              41.376074
            ],
            [
              2.1793569,
              41.3758665
            ],
            [
              2.1791928,
              41.3756596
            ],
            [
              2.1792821,
              41.3755962
            ],
            [
              2.1793426,
              41.3756084
            ],
            [
              2.1793795,
              41.3756199
            ],
            [
              2.1794156,
              41.375636
            ],
            [
              2.1794598,
              41.3756626
            ],
            [
              2.1794962,
              41.3756935
            ],
            [
              2.1795296,
              41.3757306
            ],
            [
              2.1799277,
              41.37556
            ],
            [
              2.1799151,
              41.3755411
            ],
            [
              2.1799082,
              41.3755211
            ],
            [
              2.179902,
              41.3755017
            ],
            [
              2.1799031,
              41.3754812
            ],
            [
              2.1799066,
              41.3754477
            ],
            [
              2.179927,
              41.3754131
            ],
            [
              2.1799801,
              41.3753566
            ],
            [
              2.1800422,
              41.375317
            ],
            [
              2.1801463,
              41.3752763
            ],
            [
              2.1802276,
              41.3752558
            ],
            [
              2.1803064,
              41.37524
            ],
            [
              2.1803761,
              41.3752339
            ],
            [
              2.1804514,
              41.3752221
            ],
            [
              2.1805118,
              41.3752068
            ],
            [
              2.1805705,
              41.3751843
            ],
            [
              2.180615,
              41.3751623
            ],
            [
              2.1806691,
              41.3751263
            ],
            [
              2.1807386,
              41.375062
            ],
            [
              2.180849,
              41.3749979
            ],
            [
              2.1809037,
              41.37498
            ],
            [
              2.1809519,
              41.3749667
            ],
            [
              2.1809124,
              41.3750727
            ],
            [
              2.1808788,
              41.3751622
            ],
            [
              2.1804841,
              41.3753241
            ],
            [
              2.180506,
              41.375334
            ],
            [
              2.1805035,
              41.3753622
            ],
            [
              2.1805162,
              41.3753778
            ],
            [
              2.180545,
              41.3753876
            ],
            [
              2.1805387,
              41.3754074
            ],
            [
              2.1805077,
              41.3754201
            ],
            [
              2.1804848,
              41.3754145
            ],
            [
              2.1804848,
              41.375386
            ],
            [
              2.1804732,
              41.3753707
            ],
            [
              2.1804437,
              41.3753606
            ],
            [
              2.1804409,
              41.3753422
            ]
          ]
        ]
      },
      "id": "way/231284639"
    },
    {
      "type": "Feature",
      "properties": {
        "@id": "way/502813022",
        "area": "yes",
        "man_made": "pier"
      },
      "geometry": {
        "type": "Polygon",
        "coordinates": [
          [
            [
              2.186462,
              41.3796466
            ],
            [
              2.1863622,
              41.37992
            ],
            [
              2.1859264,
              41.380106
            ],
            [
              2.186031,
              41.3798328
            ],
            [
              2.1859098,
              41.3798067
            ],
            [
              2.1858909,
              41.3798027
            ],
            [
              2.1858994,
              41.3797806
            ],
            [
              2.1859072,
              41.37976
            ],
            [
              2.1859456,
              41.3797683
            ],
            [
              2.1860279,
              41.3795531
            ],
            [
              2.186462,
              41.3796466
            ]
          ]
        ]
      },
      "id": "way/502813022"
    },
    {
      "type": "Feature",
      "properties": {
        "@id": "way/1080068909",
        "area": "yes",
        "man_made": "quay"
      },
      "geometry": {
        "type": "Polygon",
        "coordinates": [
          [
            [
              2.1859223,
              41.3724059
            ],
            [
              2.185808,
              41.3717407
            ],
            [
              2.1847778,
              41.3718367
            ],
            [
              2.184705,
              41.3714061
            ],
            [
              2.1847415,
              41.3713752
            ],
            [
              2.1859995,
              41.3712596
            ],
            [
              2.1859675,
              41.3710804
            ],
            [
              2.1847126,
              41.3711997
            ],
            [
              2.1846658,
              41.371174
            ],
            [
              2.1845602,
              41.3705333
            ],
            [
              2.184563,
              41.3705027
            ],
            [
              2.1845796,
              41.3704755
            ],
            [
              2.184604,
              41.3704562
            ],
            [
              2.1846355,
              41.3704453
            ],
            [
              2.1849647,
              41.3704165
            ],
            [
              2.1846249,
              41.3686044
            ],
            [
              2.184636,
              41.3685783
            ],
            [
              2.1846577,
              41.3685557
            ],
            [
              2.1846847,
              41.368541
            ],
            [
              2.1847126,
              41.3685333
            ],
            [
              2.1851925,
              41.3684818
            ],
            [
              2.1851451,
              41.3682181
            ],
            [
              2.1851603,
              41.3682168
            ],
            [
              2.1851454,
              41.3681445
            ],
            [
              2.1851488,
              41.368144
            ],
            [
              2.185146,
              41.3681263
            ],
            [
              2.1851504,
              41.3681261
            ],
            [
              2.1851472,
              41.3681047
            ],
            [
              2.18524,
              41.3680952
            ],
            [
              2.1852482,
              41.3681408
            ],
            [
              2.185596,
              41.3700744
            ],
            [
              2.1860502,
              41.3700263
            ],
            [
              2.1856795,
              41.3680438
            ],
            [
              2.1858199,
              41.3680313
            ],
            [
              2.1858202,
              41.3680351
            ],
            [
              2.1859537,
              41.3680271
            ],
            [
              2.185994,
              41.3683068
            ],
            [
              2.1859924,
              41.3684093
            ],
            [
              2.1858735,
              41.3684784
            ],
            [
              2.1861771,
              41.3701236
            ],
            [
              2.1871992,
              41.3700043
            ],
            [
              2.1868765,
              41.3682989
            ],
            [
              2.186973,
              41.3682908
            ],
            [
              2.1869777,
              41.3683042
            ],
            [
              2.1870476,
              41.3683343
            ],
            [
              2.1870816,
              41.3683303
            ],
            [
              2.1871276,
              41.3685831
            ],
            [
              2.1871649,
              41.3685795
            ],
            [
              2.1871818,
              41.3686759
            ],
            [
              2.1871413,
              41.3686799
            ],
            [
              2.1871553,
              41.3687533
            ],
            [
              2.1872301,
              41.3691448
            ],
            [
              2.1872443,
              41.3692185
            ],
            [
              2.187263,
              41.369319
            ],
            [
              2.1872756,
              41.3693904
            ],
            [
              2.1873512,
              41.3697874
            ],
            [
              2.1873643,
              41.3698569
            ],
            [
              2.1873843,
              41.3699626
            ],
            [
              2.1874032,
              41.3700629
            ],
            [
              2.1874236,
              41.3700607
            ],
            [
              2.1874776,
              41.3703761
            ],
            [
              2.187519,
              41.3705959
            ],
            [
              2.1872723,
              41.3706226
            ],
            [
              2.1873212,
              41.3709362
            ],
            [
              2.1873512,
              41.3710713
            ],
            [
              2.1874036,
              41.3714059
            ],
            [
              2.1872671,
              41.3714206
            ],
            [
              2.1874038,
              41.3722793
            ],
            [
              2.1859223,
              41.3724059
            ]
          ]
        ]
      },
      "id": "way/1080068909"
    },
    {
      "type": "Feature",
      "properties": {
        "@id": "way/1168951949",
        "area": "yes",
        "man_made": "pier",
        "name": "Moll de Xaloc"
      },
      "geometry": {
        "type": "Polygon",
        "coordinates": [
          [
            [
              2.2001989,
              41.3858676
            ],
            [
              2.2002202,
              41.3858505
            ],
            [
              2.2019616,
              41.3871679
            ],
            [
              2.2019391,
              41.3871842
            ],
            [
              2.2001989,
              41.3858676
            ]
          ]
        ]
      },
      "id": "way/1168951949"
    },
    {
      "type": "Feature",
      "properties": {
        "@id": "way/1168951950",
        "area": "yes",
        "floating": "yes",
        "man_made": "pier",
        "name": "3",
        "ref": "3"
      },
      "geometry": {
        "type": "Polygon",
        "coordinates": [
          [
            [
              2.2019391,
              41.3871842
            ],
            [
              2.2019586,
              41.3871993
            ],
            [
              2.2004551,
              41.3883273
            ],
            [
              2.2004383,
              41.3883178
            ],
            [
              2.2019391,
              41.3871842
            ]
          ]
        ]
      },
      "id": "way/1168951950"
    },
    {
      "type": "Feature",
      "properties": {
        "@id": "way/1168951951",
        "area": "yes",
        "floating": "yes",
        "man_made": "pier",
        "name": "Moll de Mestral",
        "ref": "15"
      },
      "geometry": {
        "type": "Polygon",
        "coordinates": [
          [
            [
              2.1982959,
              41.3869144
            ],
            [
              2.1983267,
              41.3868849
            ],
            [
              2.2002405,
              41.3883172
            ],
            [
              2.2002186,
              41.3883329
            ],
            [
              2.1982959,
              41.3869144
            ]
          ]
        ]
      },
      "id": "way/1168951951"
    },
    {
      "type": "Feature",
      "properties": {
        "@id": "way/1168951952",
        "area": "yes",
        "floating": "yes",
        "man_made": "pier",
        "name": "Moll de Marina",
        "ref": "14"
      },
      "geometry": {
        "type": "Polygon",
        "coordinates": [
          [
            [
              2.1995183,
              41.385839
            ],
            [
              2.1983306,
              41.3867334
            ],
            [
              2.1983132,
              41.3867162
            ],
            [
              2.1994898,
              41.3858321
            ],
            [
              2.1994988,
              41.3858256
            ],
            [
              2.1995183,
              41.385839
            ]
          ]
        ]
      },
      "id": "way/1168951952"
    },
    {
      "type": "Feature",
      "properties": {
        "@id": "way/1168951953",
        "area": "yes",
        "man_made": "pier",
        "ref": "1"
      },
      "geometry": {
        "type": "Polygon",
        "coordinates": [
          [
            [
              2.2000315,
              41.3841059
            ],
            [
              2.2000628,
              41.3840816
            ],
            [
              2.2005623,
              41.3843906
            ],
            [
              2.2008665,
              41.3846291
            ],
            [
              2.2011347,
              41.3848431
            ],
            [
              2.2016375,
              41.3853027
            ],
            [
              2.2019723,
              41.3856426
            ],
            [
              2.2023778,
              41.3860983
            ],
            [
              2.2025848,
              41.3863447
            ],
            [
              2.2026957,
              41.3864778
            ],
            [
              2.202758,
              41.3865888
            ],
            [
              2.2027294,
              41.3866053
            ],
            [
              2.2026316,
              41.3864772
            ],
            [
              2.2025523,
              41.3865095
            ],
            [
              2.2025156,
              41.386462
            ],
            [
              2.2026012,
              41.3864253
            ],
            [
              2.2022866,
              41.3860375
            ],
            [
              2.2019503,
              41.3856655
            ],
            [
              2.2015486,
              41.3852652
            ],
            [
              2.2011466,
              41.3849045
            ],
            [
              2.2007783,
              41.3846056
            ],
            [
              2.2004015,
              41.3843248
            ],
            [
              2.2000315,
              41.3841059
            ]
          ]
        ]
      },
      "id": "way/1168951953"
    },
    {
      "type": "Feature",
      "properties": {
        "@id": "way/1168951954",
        "area": "yes",
        "man_made": "pier",
        "name": "2",
        "ref": "2"
      },
      "geometry": {
        "type": "Polygon",
        "coordinates": [
          [
            [
              2.2012044,
              41.3859725
            ],
            [
              2.2020966,
              41.3866446
            ],
            [
              2.2021474,
              41.3866061
            ],
            [
              2.2021866,
              41.3866379
            ],
            [
              2.2021471,
              41.3866668
            ],
            [
              2.2023966,
              41.3868553
            ],
            [
              2.2023831,
              41.386873
            ],
            [
              2.2020787,
              41.3866543
            ],
            [
              2.201174,
              41.3859941
            ],
            [
              2.2012044,
              41.3859725
            ]
          ]
        ]
      },
      "id": "way/1168951954"
    },
    {
      "type": "Feature",
      "properties": {
        "@id": "way/1450919978",
        "dock": "drydock",
        "waterway": "dock"
      },
      "geometry": {
        "type": "Polygon",
        "coordinates": [
          [
            [
              2.1847126,
              41.3711997
            ],
            [
              2.1859675,
              41.3710804
            ],
            [
              2.1859995,
              41.3712596
            ],
            [
              2.1847415,
              41.3713752
            ],
            [
              2.1847126,
              41.3711997
            ]
          ]
        ]
      },
      "id": "way/1450919978"
    },
    {
      "type": "Feature",
      "properties": {
        "@id": "way/1450919979",
        "dock": "drydock",
        "waterway": "dock"
      },
      "geometry": {
        "type": "Polygon",
        "coordinates": [
          [
            [
              2.185689,
              41.3681004
            ],
            [
              2.1860502,
              41.3700263
            ],
            [
              2.185596,
              41.3700744
            ],
            [
              2.1852482,
              41.3681408
            ],
            [
              2.185689,
              41.3681004
            ]
          ]
        ]
      },
      "id": "way/1450919979"
    },
    {
      "type": "Feature",
      "properties": {
        "@id": "way/35816587",
        "est_width": "3",
        "man_made": "pier"
      },
      "geometry": {
        "type": "LineString",
        "coordinates": [
          [
            2.1846324,
            41.3800646
          ],
          [
            2.1855726,
            41.3802728
          ]
        ]
      },
      "id": "way/35816587"
    },
    {
      "type": "Feature",
      "properties": {
        "@id": "way/35816590",
        "est_width": "3",
        "man_made": "pier"
      },
      "geometry": {
        "type": "LineString",
        "coordinates": [
          [
            2.1850715,
            41.3788435
          ],
          [
            2.1866239,
            41.3792023
          ]
        ]
      },
      "id": "way/35816590"
    },
    {
      "type": "Feature",
      "properties": {
        "@id": "way/35816594",
        "est_width": "2",
        "man_made": "pier",
        "source": "PNOA",
        "source:date": "2009"
      },
      "geometry": {
        "type": "LineString",
        "coordinates": [
          [
            2.1816765,
            41.3779713
          ],
          [
            2.181813,
            41.3779065
          ],
          [
            2.1817987,
            41.3778878
          ],
          [
            2.1824392,
            41.3775904
          ],
          [
            2.1823774,
            41.3775208
          ],
          [
            2.1827164,
            41.3773628
          ],
          [
            2.1826604,
            41.3772956
          ],
          [
            2.1824822,
            41.3770747
          ],
          [
            2.1815061,
            41.3775102
          ],
          [
            2.1814781,
            41.3774766
          ],
          [
            2.1813487,
            41.3775362
          ]
        ]
      },
      "id": "way/35816594"
    },
    {
      "type": "Feature",
      "properties": {
        "@id": "way/35816595",
        "est_width": "2",
        "man_made": "pier"
      },
      "geometry": {
        "type": "LineString",
        "coordinates": [
          [
            2.1826604,
            41.3772956
          ],
          [
            2.1829313,
            41.3771797
          ]
        ]
      },
      "id": "way/35816595"
    },
    {
      "type": "Feature",
      "properties": {
        "@id": "way/35816596",
        "est_width": "2",
        "man_made": "pier",
        "source": "PNOA",
        "source:date": "2009"
      },
      "geometry": {
        "type": "LineString",
        "coordinates": [
          [
            2.1810789,
            41.3771955
          ],
          [
            2.1824811,
            41.3765634
          ]
        ]
      },
      "id": "way/35816596"
    },
    {
      "type": "Feature",
      "properties": {
        "@id": "way/35816598",
        "est_width": "2",
        "man_made": "pier",
        "source": "PNOA",
        "source:date": "2009"
      },
      "geometry": {
        "type": "LineString",
        "coordinates": [
          [
            2.1805354,
            41.3763121
          ],
          [
            2.181417,
            41.3758964
          ],
          [
            2.1815135,
            41.3758513
          ],
          [
            2.1817981,
            41.3757209
          ]
        ]
      },
      "id": "way/35816598"
    },
    {
      "type": "Feature",
      "properties": {
        "@id": "way/35816599",
        "est_width": "2",
        "man_made": "pier",
        "source": "PNOA",
        "source:date": "2009"
      },
      "geometry": {
        "type": "LineString",
        "coordinates": [
          [
            2.1815135,
            41.3758513
          ],
          [
            2.1817506,
            41.3761544
          ],
          [
            2.181949,
            41.376404
          ]
        ]
      },
      "id": "way/35816599"
    },
    {
      "type": "Feature",
      "properties": {
        "@id": "way/35816600",
        "est_width": "2",
        "man_made": "pier",
        "source": "PNOA",
        "source:date": "2009"
      },
      "geometry": {
        "type": "LineString",
        "coordinates": [
          [
            2.181417,
            41.3758964
          ],
          [
            2.1811323,
            41.3755522
          ]
        ]
      },
      "id": "way/35816600"
    },
    {
      "type": "Feature",
      "properties": {
        "@id": "way/35816639",
        "est_width": "5",
        "man_made": "pier"
      },
      "geometry": {
        "type": "LineString",
        "coordinates": [
          [
            2.1847257,
            41.3749983
          ],
          [
            2.185285,
            41.3749478
          ]
        ]
      },
      "id": "way/35816639"
    },
    {
      "type": "Feature",
      "properties": {
        "@id": "way/35816640",
        "est_width": "5",
        "man_made": "pier"
      },
      "geometry": {
        "type": "LineString",
        "coordinates": [
          [
            2.1845554,
            41.3746041
          ],
          [
            2.1852042,
            41.3745016
          ]
        ]
      },
      "id": "way/35816640"
    },
    {
      "type": "Feature",
      "properties": {
        "@id": "way/35816641",
        "est_width": "5",
        "man_made": "pier"
      },
      "geometry": {
        "type": "LineString",
        "coordinates": [
          [
            2.1844886,
            41.3741858
          ],
          [
            2.1851323,
            41.374048
          ]
        ]
      },
      "id": "way/35816641"
    },
    {
      "type": "Feature",
      "properties": {
        "@id": "way/35816642",
        "est_width": "5",
        "man_made": "pier"
      },
      "geometry": {
        "type": "LineString",
        "coordinates": [
          [
            2.1844665,
            41.3737825
          ],
          [
            2.1850584,
            41.3736023
          ]
        ]
      },
      "id": "way/35816642"
    },
    {
      "type": "Feature",
      "properties": {
        "@id": "way/35816643",
        "est_width": "5",
        "man_made": "pier"
      },
      "geometry": {
        "type": "LineString",
        "coordinates": [
          [
            2.1844148,
            41.3733751
          ],
          [
            2.1849894,
            41.3731608
          ]
        ]
      },
      "id": "way/35816643"
    },
    {
      "type": "Feature",
      "properties": {
        "@id": "way/35816644",
        "man_made": "pier"
      },
      "geometry": {
        "type": "LineString",
        "coordinates": [
          [
            2.184306,
            41.372988
          ],
          [
            2.1849186,
            41.3726972
          ]
        ]
      },
      "id": "way/35816644"
    },
    {
      "type": "Feature",
      "properties": {
        "@id": "way/35816645",
        "man_made": "pier"
      },
      "geometry": {
        "type": "LineString",
        "coordinates": [
          [
            2.186866,
            41.3728129
          ],
          [
            2.1868309,
            41.3726538
          ],
          [
            2.18745,
            41.3725943
          ]
        ]
      },
      "id": "way/35816645"
    },
    {
      "type": "Feature",
      "properties": {
        "@id": "way/110220218",
        "est_width": "2",
        "man_made": "pier",
        "source": "PNOA",
        "source:date": "2009"
      },
      "geometry": {
        "type": "LineString",
        "coordinates": [
          [
            2.1817506,
            41.3761544
          ],
          [
            2.1806976,
            41.3766525
          ]
        ]
      },
      "id": "way/110220218"
    },
    {
      "type": "Feature",
      "properties": {
        "@id": "way/110220219",
        "est_width": "2",
        "man_made": "pier",
        "source": "PNOA",
        "source:date": "2009"
      },
      "geometry": {
        "type": "LineString",
        "coordinates": [
          [
            2.1820573,
            41.3763545
          ],
          [
            2.181949,
            41.376404
          ],
          [
            2.1808623,
            41.376906
          ]
        ]
      },
      "id": "way/110220219"
    },
    {
      "type": "Feature",
      "properties": {
        "@id": "way/110220220",
        "est_width": "2",
        "man_made": "pier",
        "source": "PNOA",
        "source:date": "2009"
      },
      "geometry": {
        "type": "LineString",
        "coordinates": [
          [
            2.1808045,
            41.3768369
          ],
          [
            2.1808623,
            41.376906
          ],
          [
            2.1809305,
            41.3769869
          ]
        ]
      },
      "id": "way/110220220"
    },
    {
      "type": "Feature",
      "properties": {
        "@id": "way/110220222",
        "est_width": "2",
        "man_made": "pier",
        "source": "PNOA",
        "source:date": "2009"
      },
      "geometry": {
        "type": "LineString",
        "coordinates": [
          [
            2.1812476,
            41.375495
          ],
          [
            2.1811323,
            41.3755522
          ],
          [
            2.1802519,
            41.375961
          ]
        ]
      },
      "id": "way/110220222"
    },
    {
      "type": "Feature",
      "properties": {
        "@id": "way/110220247",
        "est_width": "2",
        "man_made": "pier",
        "source": "PNOA",
        "source:date": "2009"
      },
      "geometry": {
        "type": "LineString",
        "coordinates": [
          [
            2.1806196,
            41.3765661
          ],
          [
            2.1806976,
            41.3766525
          ],
          [
            2.1807599,
            41.3767253
          ]
        ]
      },
      "id": "way/110220247"
    },
    {
      "type": "Feature",
      "properties": {
        "@id": "way/110220255",
        "est_width": "2",
        "man_made": "pier",
        "source": "PNOA",
        "source:date": "2009"
      },
      "geometry": {
        "type": "LineString",
        "coordinates": [
          [
            2.1804518,
            41.3762137
          ],
          [
            2.1805354,
            41.3763121
          ],
          [
            2.1806071,
            41.3763985
          ]
        ]
      },
      "id": "way/110220255"
    },
    {
      "type": "Feature",
      "properties": {
        "@id": "way/110220257",
        "est_width": "2",
        "man_made": "pier",
        "source": "PNOA",
        "source:date": "2009"
      },
      "geometry": {
        "type": "LineString",
        "coordinates": [
          [
            2.1802519,
            41.375961
          ],
          [
            2.180334,
            41.3760572
          ]
        ]
      },
      "id": "way/110220257"
    },
    {
      "type": "Feature",
      "properties": {
        "@id": "way/166955004",
        "est_width": "2",
        "man_made": "pier",
        "source": "PNOA",
        "source:date": "2009"
      },
      "geometry": {
        "type": "LineString",
        "coordinates": [
          [
            2.1822526,
            41.3763304
          ],
          [
            2.1821376,
            41.3761836
          ],
          [
            2.1820776,
            41.3761105
          ],
          [
            2.1821044,
            41.3760978
          ]
        ]
      },
      "id": "way/166955004"
    },
    {
      "type": "Feature",
      "properties": {
        "@id": "way/403379155",
        "est_width": "3",
        "man_made": "pier"
      },
      "geometry": {
        "type": "LineString",
        "coordinates": [
          [
            2.1846903,
            41.3799174
          ],
          [
            2.1846324,
            41.3800646
          ],
          [
            2.1846061,
            41.3801289
          ],
          [
            2.1845892,
            41.3801701
          ]
        ]
      },
      "id": "way/403379155"
    },
    {
      "type": "Feature",
      "properties": {
        "@id": "way/403379156",
        "est_width": "3",
        "man_made": "pier"
      },
      "geometry": {
        "type": "LineString",
        "coordinates": [
          [
            2.1849225,
            41.379355
          ],
          [
            2.1848444,
            41.3795435
          ],
          [
            2.1847896,
            41.379687
          ]
        ]
      },
      "id": "way/403379156"
    },
    {
      "type": "Feature",
      "properties": {
        "@id": "way/403379157",
        "est_width": "3",
        "man_made": "pier"
      },
      "geometry": {
        "type": "LineString",
        "coordinates": [
          [
            2.1851634,
            41.3786079
          ],
          [
            2.1850715,
            41.3788435
          ],
          [
            2.1850007,
            41.3790195
          ]
        ]
      },
      "id": "way/403379157"
    },
    {
      "type": "Feature",
      "properties": {
        "@id": "way/500584587",
        "man_made": "pier"
      },
      "geometry": {
        "type": "LineString",
        "coordinates": [
          [
            2.1885737,
            41.3665371
          ],
          [
            2.1885379,
            41.366479
          ],
          [
            2.1885041,
            41.366424
          ]
        ]
      },
      "id": "way/500584587"
    },
    {
      "type": "Feature",
      "properties": {
        "@id": "way/500584589",
        "man_made": "pier",
        "name": "Nr 40-67",
        "note": "Nr 40 -67"
      },
      "geometry": {
        "type": "LineString",
        "coordinates": [
          [
            2.1876619,
            41.3667826
          ],
          [
            2.1885379,
            41.366479
          ]
        ]
      },
      "id": "way/500584589"
    },
    {
      "type": "Feature",
      "properties": {
        "@id": "way/500584590",
        "man_made": "pier"
      },
      "geometry": {
        "type": "LineString",
        "coordinates": [
          [
            2.1880767,
            41.3659801
          ],
          [
            2.188036,
            41.3659138
          ],
          [
            2.1879991,
            41.3658537
          ]
        ]
      },
      "id": "way/500584590"
    },
    {
      "type": "Feature",
      "properties": {
        "@id": "way/500584591",
        "man_made": "pier",
        "name": "Nr 20-39",
        "note": "Nr 20-39"
      },
      "geometry": {
        "type": "LineString",
        "coordinates": [
          [
            2.1872925,
            41.3661711
          ],
          [
            2.188036,
            41.3659138
          ]
        ]
      },
      "id": "way/500584591"
    },
    {
      "type": "Feature",
      "properties": {
        "@id": "way/500584592",
        "man_made": "pier",
        "name": "Nr 13-19",
        "note": "Nr 13-19"
      },
      "geometry": {
        "type": "LineString",
        "coordinates": [
          [
            2.1867787,
            41.3653206
          ],
          [
            2.1872707,
            41.365158
          ],
          [
            2.1872979,
            41.3652043
          ]
        ]
      },
      "id": "way/500584592"
    },
    {
      "type": "Feature",
      "properties": {
        "@id": "way/502664123",
        "man_made": "pier"
      },
      "geometry": {
        "type": "LineString",
        "coordinates": [
          [
            2.2026051,
            41.3866987
          ],
          [
            2.2025145,
            41.3866319
          ]
        ]
      },
      "id": "way/502664123"
    },
    {
      "type": "Feature",
      "properties": {
        "@id": "way/502813019",
        "man_made": "pier"
      },
      "geometry": {
        "type": "LineString",
        "coordinates": [
          [
            2.1859909,
            41.3798405
          ],
          [
            2.1858773,
            41.3801332
          ]
        ]
      },
      "id": "way/502813019"
    },
    {
      "type": "Feature",
      "properties": {
        "@id": "way/502813021",
        "man_made": "pier"
      },
      "geometry": {
        "type": "LineString",
        "coordinates": [
          [
            2.1848444,
            41.3795435
          ],
          [
            2.1858994,
            41.3797806
          ],
          [
            2.1860095,
            41.379806
          ],
          [
            2.1859909,
            41.3798405
          ]
        ]
      },
      "id": "way/502813021"
    },
    {
      "type": "Feature",
      "properties": {
        "@id": "way/682759505",
        "man_made": "pier"
      },
      "geometry": {
        "type": "LineString",
        "coordinates": [
          [
            2.1860133,
            41.3712197
          ],
          [
            2.1872203,
            41.371113
          ]
        ]
      },
      "id": "way/682759505"
    },
    {
      "type": "Feature",
      "properties": {
        "@id": "way/1299964958",
        "man_made": "pier"
      },
      "geometry": {
        "type": "LineString",
        "coordinates": [
          [
            2.1786188,
            41.3749345
          ],
          [
            2.1786367,
            41.3749258
          ]
        ]
      },
      "id": "way/1299964958"
    }
  ]
}