{
  "type": "FeatureCollection",
  "generator": "overpass-turbo",
  "copyright": "The data included in this document is from www.openstreetmap.org. The data is made available under ODbL.",
  "timestamp": "2026-07-31T14:26:51Z",
  "features": [
    {
      "type": "Feature",
      "properties": {
        "@id": "way/110020916",
        "harbour": "yes",
        "landuse": "industrial",
        "name": "Bilbao Port",
        "name:es": "Bilbao Port",
        "name:eu": "Bilboko kanpo-portua",
        "website": "http://www.bilbaoport.es",
        "wikidata": "Q2156122",
        "wikipedia": "es:Puerto de Bilbao"
      },
      "geometry": {
        "type": "Polygon",
        "coordinates": [
          [
            [
              -3.0403701,
              43.349415
            ],
            [
              -3.0406168,
              43.3490795
            ],
            [
              -3.0410512,
              43.3492752
            ],
            [
              -3.0410674,
              43.3492589
            ],
            [
              -3.045924,
              43.3435759
            ],
            [
              -3.0461499,
              43.3433115
            ],
            [
              -3.0540279,
              43.3468637
            ],
            [
              -3.0544077,
              43.3463841
            ],
            [
              -3.0551822,
              43.3455922
            ],
            [
              -3.0575448,
              43.3466317
            ],
            [
              -3.0563357,
              43.348153
            ],
            [
              -3.0576803,
              43.348682
            ],
            [
              -3.0535079,
              43.3536938
            ],
            [
              -3.0571445,
              43.3553439
            ],
            [
              -3.0615987,
              43.3502053
            ],
            [
              -3.0616333,
              43.3502189
            ],
            [
              -3.0615476,
              43.3503173
            ],
            [
              -3.0650984,
              43.3518976
            ],
            [
              -3.0678224,
              43.3531649
            ],
            [
              -3.0707402,
              43.3544851
            ],
            [
              -3.0697545,
              43.3570796
            ],
            [
              -3.0687982,
              43.3596651
            ],
            [
              -3.0642346,
              43.3590527
            ],
            [
              -3.0635233,
              43.3589605
            ],
            [
              -3.0596201,
              43.3584544
            ],
            [
              -3.0505885,
              43.3572591
            ],
            [
              -3.0481724,
              43.3569544
            ],
            [
              -3.0481293,
              43.3571062
            ],
            [
              -3.0476539,
              43.3590662
            ],
            [
              -3.0476144,
              43.359229
            ],
            [
              -3.0558089,
              43.3608197
            ],
            [
              -3.0596712,
              43.3615608
            ],
            [
              -3.0688444,
              43.3622004
            ],
            [
              -3.0721944,
              43.3624586
            ],
            [
              -3.0738006,
              43.3580583
            ],
            [
              -3.0748533,
              43.3551966
            ],
            [
              -3.0750344,
              43.3547043
            ],
            [
              -3.0754421,
              43.3544703
            ],
            [
              -3.0760214,
              43.3543611
            ],
            [
              -3.0766383,
              43.3543923
            ],
            [
              -3.07681,
              43.3540608
            ],
            [
              -3.0766437,
              43.3539086
            ],
            [
              -3.0767188,
              43.3530388
            ],
            [
              -3.0771051,
              43.3523172
            ],
            [
              -3.0770192,
              43.3520207
            ],
            [
              -3.0758766,
              43.3511898
            ],
            [
              -3.0751792,
              43.35071
            ],
            [
              -3.0749915,
              43.3505774
            ],
            [
              -3.0745411,
              43.3503863
            ],
            [
              -3.0736721,
              43.3499806
            ],
            [
              -3.0725107,
              43.3494384
            ],
            [
              -3.0716122,
              43.3489293
            ],
            [
              -3.0709952,
              43.3486757
            ],
            [
              -3.0705098,
              43.3485197
            ],
            [
              -3.070668,
              43.3483032
            ],
            [
              -3.0708075,
              43.3480789
            ],
            [
              -3.0708799,
              43.3478682
            ],
            [
              -3.0709175,
              43.3477024
            ],
            [
              -3.0709255,
              43.3475639
            ],
            [
              -3.0709282,
              43.3474294
            ],
            [
              -3.0708772,
              43.3473006
            ],
            [
              -3.0707539,
              43.347166
            ],
            [
              -3.0705473,
              43.3469768
            ],
            [
              -3.0703247,
              43.3467896
            ],
            [
              -3.0700348,
              43.3466292
            ],
            [
              -3.0700109,
              43.346616
            ],
            [
              -3.0697185,
              43.3465165
            ],
            [
              -3.0693832,
              43.3465009
            ],
            [
              -3.0687851,
              43.346538
            ],
            [
              -3.068305,
              43.3466238
            ],
            [
              -3.0679402,
              43.3466628
            ],
            [
              -3.0676452,
              43.3466472
            ],
            [
              -3.0671972,
              43.3465926
            ],
            [
              -3.0669693,
              43.3464873
            ],
            [
              -3.0667198,
              43.3463741
            ],
            [
              -3.0664006,
              43.3462239
            ],
            [
              -3.0661807,
              43.3461947
            ],
            [
              -3.0659286,
              43.3461927
            ],
            [
              -3.0658753,
              43.3462504
            ],
            [
              -3.0656442,
              43.3465009
            ],
            [
              -3.06514,
              43.3463546
            ],
            [
              -3.0646062,
              43.3461732
            ],
            [
              -3.0640108,
              43.3458904
            ],
            [
              -3.0635602,
              43.3456193
            ],
            [
              -3.0631042,
              43.3453325
            ],
            [
              -3.0628333,
              43.3450867
            ],
            [
              -3.0626133,
              43.3448332
            ],
            [
              -3.0624122,
              43.3446225
            ],
            [
              -3.0622566,
              43.3444294
            ],
            [
              -3.0620635,
              43.3442558
            ],
            [
              -3.0617202,
              43.3440276
            ],
            [
              -3.0614439,
              43.343854
            ],
            [
              -3.0611918,
              43.3437428
            ],
            [
              -3.0608967,
              43.343616
            ],
            [
              -3.0605615,
              43.3434989
            ],
            [
              -3.0600411,
              43.3433214
            ],
            [
              -3.059282,
              43.3430913
            ],
            [
              -3.0587644,
              43.3429547
            ],
            [
              -3.0583325,
              43.3428123
            ],
            [
              -3.0579543,
              43.3427538
            ],
            [
              -3.0577344,
              43.3427362
            ],
            [
              -3.0575666,
              43.3427817
            ],
            [
              -3.057324,
              43.3428474
            ],
            [
              -3.0571148,
              43.342824
            ],
            [
              -3.0568762,
              43.3426071
            ],
            [
              -3.0568144,
              43.3425509
            ],
            [
              -3.0567715,
              43.3424592
            ],
            [
              -3.0565516,
              43.3423871
            ],
            [
              -3.0562994,
              43.3423129
            ],
            [
              -3.0557523,
              43.3421783
            ],
            [
              -3.0554839,
              43.3421055
            ],
            [
              -3.0553928,
              43.3420808
            ],
            [
              -3.0551809,
              43.3419989
            ],
            [
              -3.05491,
              43.3419033
            ],
            [
              -3.0546365,
              43.3418019
            ],
            [
              -3.0543414,
              43.3416809
            ],
            [
              -3.0541027,
              43.34156
            ],
            [
              -3.0538586,
              43.3414332
            ],
            [
              -3.053577,
              43.3412908
            ],
            [
              -3.053349,
              43.3411776
            ],
            [
              -3.0530781,
              43.3410489
            ],
            [
              -3.0527535,
              43.3409162
            ],
            [
              -3.0523378,
              43.3407582
            ],
            [
              -3.0514956,
              43.3404286
            ],
            [
              -3.050597,
              43.340054
            ],
            [
              -3.0500311,
              43.3397907
            ],
            [
              -3.0493257,
              43.3395956
            ],
            [
              -3.0484888,
              43.3394766
            ],
            [
              -3.0481857,
              43.3393693
            ],
            [
              -3.0480672,
              43.3393003
            ],
            [
              -3.0478639,
              43.339182
            ],
            [
              -3.047365,
              43.3387997
            ],
            [
              -3.0472631,
              43.338708
            ],
            [
              -3.0475769,
              43.3382788
            ],
            [
              -3.0471772,
              43.3381227
            ],
            [
              -3.0468281,
              43.3380127
            ],
            [
              -3.0461805,
              43.337827
            ],
            [
              -3.0460105,
              43.3377657
            ],
            [
              -3.0458388,
              43.3376584
            ],
            [
              -3.0456323,
              43.3377053
            ],
            [
              -3.0456108,
              43.3376214
            ],
            [
              -3.0447391,
              43.3370908
            ],
            [
              -3.0437547,
              43.3365855
            ],
            [
              -3.042757,
              43.3360626
            ],
            [
              -3.0423037,
              43.3358207
            ],
            [
              -3.0422571,
              43.3358569
            ],
            [
              -3.0421856,
              43.3359124
            ],
            [
              -3.0415929,
              43.3356647
            ],
            [
              -3.0409411,
              43.3353213
            ],
            [
              -3.0405495,
              43.3351243
            ],
            [
              -3.0404073,
              43.3351184
            ],
            [
              -3.0402545,
              43.3351301
            ],
            [
              -3.0400667,
              43.3350735
            ],
            [
              -3.0392084,
              43.3346365
            ],
            [
              -3.0384171,
              43.3342424
            ],
            [
              -3.0374086,
              43.3337586
            ],
            [
              -3.0367354,
              43.3334055
            ],
            [
              -3.0364028,
              43.3331928
            ],
            [
              -3.036148,
              43.3330387
            ],
            [
              -3.0355955,
              43.3327948
            ],
            [
              -3.0351797,
              43.3325471
            ],
            [
              -3.0348847,
              43.3323383
            ],
            [
              -3.0346057,
              43.3321627
            ],
            [
              -3.0339834,
              43.3317608
            ],
            [
              -3.0331627,
              43.331197
            ],
            [
              -3.0330152,
              43.3310916
            ],
            [
              -3.0329123,
              43.3311568
            ],
            [
              -3.0328402,
              43.3312024
            ],
            [
              -3.0327743,
              43.3312442
            ],
            [
              -3.0327255,
              43.3312769
            ],
            [
              -3.0324224,
              43.3315364
            ],
            [
              -3.0319017,
              43.3313606
            ],
            [
              -3.0306211,
              43.3309226
            ],
            [
              -3.030571,
              43.331
            ],
            [
              -3.031211,
              43.331218
            ],
            [
              -3.0310719,
              43.3314419
            ],
            [
              -3.0305621,
              43.3312904
            ],
            [
              -3.0305365,
              43.331334
            ],
            [
              -3.0310763,
              43.3315458
            ],
            [
              -3.030866,
              43.3318128
            ],
            [
              -3.0303755,
              43.3316527
            ],
            [
              -3.0299678,
              43.3315006
            ],
            [
              -3.0298478,
              43.3315522
            ],
            [
              -3.0288899,
              43.3312262
            ],
            [
              -3.0283964,
              43.3310662
            ],
            [
              -3.0282167,
              43.3313686
            ],
            [
              -3.0296229,
              43.3318568
            ],
            [
              -3.029649,
              43.3318466
            ],
            [
              -3.0286324,
              43.3333704
            ],
            [
              -3.0292654,
              43.3334504
            ],
            [
              -3.0289087,
              43.3352335
            ],
            [
              -3.0371833,
              43.336127
            ],
            [
              -3.037331,
              43.3359123
            ],
            [
              -3.0437506,
              43.3391452
            ],
            [
              -3.0424433,
              43.3400084
            ],
            [
              -3.0423382,
              43.3399858
            ],
            [
              -3.0416163,
              43.3396245
            ],
            [
              -3.0415985,
              43.3396407
            ],
            [
              -3.03834,
              43.337999
            ],
            [
              -3.0314115,
              43.3372719
            ],
            [
              -3.0309072,
              43.3396654
            ],
            [
              -3.0407784,
              43.3407216
            ],
            [
              -3.0409545,
              43.340807
            ],
            [
              -3.0409572,
              43.3409201
            ],
            [
              -3.0384627,
              43.3427245
            ],
            [
              -3.034426,
              43.3422759
            ],
            [
              -3.0323607,
              43.3420574
            ],
            [
              -3.0321461,
              43.3430464
            ],
            [
              -3.0322534,
              43.3430601
            ],
            [
              -3.0321998,
              43.3433078
            ],
            [
              -3.0343509,
              43.3435302
            ],
            [
              -3.034249,
              43.3436413
            ],
            [
              -3.0342034,
              43.3436257
            ],
            [
              -3.0326987,
              43.3456329
            ],
            [
              -3.0330233,
              43.3457761
            ],
            [
              -3.0327866,
              43.3461978
            ],
            [
              -3.0330447,
              43.3465185
            ],
            [
              -3.035397,
              43.3475269
            ],
            [
              -3.0390662,
              43.349097
            ],
            [
              -3.0402409,
              43.3495996
            ],
            [
              -3.0403096,
              43.3495192
            ],
            [
              -3.0403701,
              43.349415
            ]
          ]
        ]
      },
      "id": "way/110020916"
    },
    {
      "type": "Feature",
      "properties": {
        "@id": "way/396313615",
        "area": "yes",
        "man_made": "pier"
      },
      "geometry": {
        "type": "Polygon",
        "coordinates": [
          [
            [
              -3.0290937,
              43.3291996
            ],
            [
              -3.0290456,
              43.3292362
            ],
            [
              -3.0289949,
              43.3292721
            ],
            [
              -3.0292183,
              43.3294248
            ],
            [
              -3.0292344,
              43.3294053
            ],
            [
              -3.0291325,
              43.3293331
            ],
            [
              -3.0292076,
              43.3292717
            ],
            [
              -3.0290937,
              43.3291996
            ]
          ]
        ]
      },
      "id": "way/396313615"
    },
    {
      "type": "Feature",
      "properties": {
        "@id": "way/432075375",
        "area": "yes",
        "man_made": "pier"
      },
      "geometry": {
        "type": "Polygon",
        "coordinates": [
          [
            [
              -3.0973804,
              43.3642067
            ],
            [
              -3.0967837,
              43.3644229
            ],
            [
              -3.0966241,
              43.3643554
            ],
            [
              -3.0965549,
              43.3644748
            ],
            [
              -3.0967623,
              43.3645477
            ],
            [
              -3.0968428,
              43.3644307
            ],
            [
              -3.0973409,
              43.3642701
            ],
            [
              -3.0972957,
              43.3643418
            ],
            [
              -3.0974697,
              43.3644007
            ],
            [
              -3.0975169,
              43.3643271
            ],
            [
              -3.097813,
              43.3644274
            ],
            [
              -3.0977667,
              43.3644996
            ],
            [
              -3.097981,
              43.3645722
            ],
            [
              -3.09803,
              43.3644957
            ],
            [
              -3.0983317,
              43.3645979
            ],
            [
              -3.0982854,
              43.3646701
            ],
            [
              -3.0984839,
              43.3647374
            ],
            [
              -3.0985687,
              43.3646052
            ],
            [
              -3.0973804,
              43.3642067
            ]
          ]
        ]
      },
      "id": "way/432075375"
    },
    {
      "type": "Feature",
      "properties": {
        "@id": "way/432075376",
        "area": "yes",
        "man_made": "pier"
      },
      "geometry": {
        "type": "Polygon",
        "coordinates": [
          [
            [
              -3.0956309,
              43.3641259
            ],
            [
              -3.095673,
              43.3640598
            ],
            [
              -3.0954426,
              43.3639822
            ],
            [
              -3.0952763,
              43.3635883
            ],
            [
              -3.0952979,
              43.3635515
            ],
            [
              -3.094095,
              43.3631787
            ],
            [
              -3.0940346,
              43.3632816
            ],
            [
              -3.0942065,
              43.3633349
            ],
            [
              -3.0942444,
              43.3632702
            ],
            [
              -3.0945604,
              43.3633682
            ],
            [
              -3.0945171,
              43.363442
            ],
            [
              -3.0946996,
              43.3634986
            ],
            [
              -3.0947487,
              43.3634149
            ],
            [
              -3.0951065,
              43.3635258
            ],
            [
              -3.0950581,
              43.3636084
            ],
            [
              -3.09521,
              43.3636554
            ],
            [
              -3.0952334,
              43.3636156
            ],
            [
              -3.0953675,
              43.3639939
            ],
            [
              -3.0952991,
              43.3641011
            ],
            [
              -3.0955128,
              43.3641731
            ],
            [
              -3.0955585,
              43.3641015
            ],
            [
              -3.0956309,
              43.3641259
            ]
          ]
        ]
      },
      "id": "way/432075376"
    },
    {
      "type": "Feature",
      "properties": {
        "@id": "way/664556749",
        "man_made": "pier"
      },
      "geometry": {
        "type": "Polygon",
        "coordinates": [
          [
            [
              -3.1053399,
              43.3653442
            ],
            [
              -3.1049144,
              43.3650224
            ],
            [
              -3.100122,
              43.3678634
            ],
            [
              -3.0997102,
              43.3675727
            ],
            [
              -3.0987963,
              43.3681211
            ],
            [
              -3.0991381,
              43.3684501
            ],
            [
              -3.0959748,
              43.3703102
            ],
            [
              -3.0953986,
              43.3698613
            ],
            [
              -3.0940613,
              43.3706874
            ],
            [
              -3.094481,
              43.3710524
            ],
            [
              -3.0943993,
              43.3711563
            ],
            [
              -3.0944405,
              43.371291
            ],
            [
              -3.0938073,
              43.3716543
            ],
            [
              -3.0892778,
              43.3743706
            ],
            [
              -3.0837405,
              43.3777028
            ],
            [
              -3.0840266,
              43.3779698
            ],
            [
              -3.0846723,
              43.3776421
            ],
            [
              -3.0851083,
              43.3776633
            ],
            [
              -3.1053399,
              43.3653442
            ]
          ]
        ]
      },
      "id": "way/664556749"
    },
    {
      "type": "Feature",
      "properties": {
        "@id": "way/1479058049",
        "area": "yes",
        "floating": "yes",
        "man_made": "pier",
        "surface": "wood"
      },
      "geometry": {
        "type": "Polygon",
        "coordinates": [
          [
            [
              -3.0300454,
              43.3306406
            ],
            [
              -3.0299029,
              43.330535
            ],
            [
              -3.0298651,
              43.330562
            ],
            [
              -3.0300076,
              43.3306676
            ],
            [
              -3.0300307,
              43.330651
            ],
            [
              -3.0300454,
              43.3306406
            ]
          ]
        ]
      },
      "id": "way/1479058049"
    },
    {
      "type": "Feature",
      "properties": {
        "@id": "way/152652849",
        "man_made": "pier",
        "name": "C"
      },
      "geometry": {
        "type": "LineString",
        "coordinates": [
          [
            -3.0174222,
            43.3402436
          ],
          [
            -3.0189683,
            43.338917
          ]
        ]
      },
      "id": "way/152652849"
    },
    {
      "type": "Feature",
      "properties": {
        "@id": "way/152652850",
        "man_made": "pier",
        "name": "F"
      },
      "geometry": {
        "type": "LineString",
        "coordinates": [
          [
            -3.0164917,
            43.3396702
          ],
          [
            -3.0180376,
            43.3383299
          ]
        ]
      },
      "id": "way/152652850"
    },
    {
      "type": "Feature",
      "properties": {
        "@id": "way/152652851",
        "man_made": "pier",
        "name": "B"
      },
      "geometry": {
        "type": "LineString",
        "coordinates": [
          [
            -3.0171753,
            43.3282731
          ],
          [
            -3.0160781,
            43.3296033
          ]
        ]
      },
      "id": "way/152652851"
    },
    {
      "type": "Feature",
      "properties": {
        "@id": "way/152652852",
        "man_made": "pier",
        "name": "Muelle A /A kaia",
        "name:es": "Muelle A",
        "name:eu": "A kaia"
      },
      "geometry": {
        "type": "LineString",
        "coordinates": [
          [
            -3.0292053,
            43.3291177
          ],
          [
            -3.0290937,
            43.3291996
          ],
          [
            -3.0289949,
            43.3292721
          ],
          [
            -3.026762,
            43.33091
          ],
          [
            -3.0266906,
            43.3309623
          ]
        ]
      },
      "id": "way/152652852"
    },
    {
      "type": "Feature",
      "properties": {
        "@id": "way/152652853",
        "man_made": "pier",
        "name": "A"
      },
      "geometry": {
        "type": "LineString",
        "coordinates": [
          [
            -3.017616,
            43.3284655
          ],
          [
            -3.0163858,
            43.3299736
          ]
        ]
      },
      "id": "way/152652853"
    },
    {
      "type": "Feature",
      "properties": {
        "@id": "way/152652854",
        "man_made": "pier",
        "name": "M"
      },
      "geometry": {
        "type": "LineString",
        "coordinates": [
          [
            -3.0147598,
            43.3398804
          ],
          [
            -3.0145423,
            43.3400834
          ]
        ]
      },
      "id": "way/152652854"
    },
    {
      "type": "Feature",
      "properties": {
        "@id": "way/152652855",
        "man_made": "pier",
        "name": "P"
      },
      "geometry": {
        "type": "LineString",
        "coordinates": [
          [
            -3.0152871,
            43.3402142
          ],
          [
            -3.0151248,
            43.3404054
          ]
        ]
      },
      "id": "way/152652855"
    },
    {
      "type": "Feature",
      "properties": {
        "@id": "way/152652856",
        "man_made": "pier",
        "name": "G"
      },
      "geometry": {
        "type": "LineString",
        "coordinates": [
          [
            -3.0161362,
            43.3394502
          ],
          [
            -3.0176692,
            43.3381172
          ]
        ]
      },
      "id": "way/152652856"
    },
    {
      "type": "Feature",
      "properties": {
        "@id": "way/152652857",
        "man_made": "pier",
        "name": "H"
      },
      "geometry": {
        "type": "LineString",
        "coordinates": [
          [
            -3.0157346,
            43.3392017
          ],
          [
            -3.0172134,
            43.3379238
          ]
        ]
      },
      "id": "way/152652857"
    },
    {
      "type": "Feature",
      "properties": {
        "@id": "way/152652858",
        "man_made": "pier",
        "name": "Muelle C / C kaia",
        "name:es": "Muelle C",
        "name:eu": "C kaia"
      },
      "geometry": {
        "type": "LineString",
        "coordinates": [
          [
            -3.0283564,
            43.3288897
          ],
          [
            -3.0262944,
            43.3304114
          ]
        ]
      },
      "id": "way/152652858"
    },
    {
      "type": "Feature",
      "properties": {
        "@id": "way/152652859",
        "man_made": "pier",
        "name": "C"
      },
      "geometry": {
        "type": "LineString",
        "coordinates": [
          [
            -3.0168363,
            43.3281251
          ],
          [
            -3.0158654,
            43.3293243
          ]
        ]
      },
      "id": "way/152652859"
    },
    {
      "type": "Feature",
      "properties": {
        "@id": "way/152652860",
        "man_made": "pier",
        "name": "L"
      },
      "geometry": {
        "type": "LineString",
        "coordinates": [
          [
            -3.0145319,
            43.3397386
          ],
          [
            -3.0143522,
            43.3398799
          ]
        ]
      },
      "id": "way/152652860"
    },
    {
      "type": "Feature",
      "properties": {
        "@id": "way/152652861",
        "man_made": "pier",
        "name": "E"
      },
      "geometry": {
        "type": "LineString",
        "coordinates": [
          [
            -3.0168482,
            43.3398909
          ],
          [
            -3.0183909,
            43.3385661
          ]
        ]
      },
      "id": "way/152652861"
    },
    {
      "type": "Feature",
      "properties": {
        "@id": "way/152652862",
        "man_made": "pier",
        "name": "N"
      },
      "geometry": {
        "type": "LineString",
        "coordinates": [
          [
            -3.0149663,
            43.3400111
          ],
          [
            -3.0146849,
            43.3402525
          ]
        ]
      },
      "id": "way/152652862"
    },
    {
      "type": "Feature",
      "properties": {
        "@id": "way/152652863",
        "man_made": "pier",
        "name": "A"
      },
      "geometry": {
        "type": "LineString",
        "coordinates": [
          [
            -3.0179137,
            43.3405457
          ],
          [
            -3.0194962,
            43.3392098
          ]
        ]
      },
      "id": "way/152652863"
    },
    {
      "type": "Feature",
      "properties": {
        "@id": "way/152652864",
        "man_made": "pier",
        "name": "Muelle E / E kaia",
        "name:es": "Muelle E",
        "name:eu": "E kaia"
      },
      "geometry": {
        "type": "LineString",
        "coordinates": [
          [
            -3.0277248,
            43.3287457
          ],
          [
            -3.0260134,
            43.3300135
          ]
        ]
      },
      "id": "way/152652864"
    },
    {
      "type": "Feature",
      "properties": {
        "@id": "way/152652865",
        "man_made": "pier",
        "name": "Muelle D / D kaia",
        "name:es": "Muelle D",
        "name:eu": "D kaia"
      },
      "geometry": {
        "type": "LineString",
        "coordinates": [
          [
            -3.0280251,
            43.3288142
          ],
          [
            -3.0261501,
            43.3302097
          ]
        ]
      },
      "id": "way/152652865"
    },
    {
      "type": "Feature",
      "properties": {
        "@id": "way/152652866",
        "man_made": "pier",
        "name": "D"
      },
      "geometry": {
        "type": "LineString",
        "coordinates": [
          [
            -3.0171317,
            43.3400651
          ],
          [
            -3.0186796,
            43.3387374
          ]
        ]
      },
      "id": "way/152652866"
    },
    {
      "type": "Feature",
      "properties": {
        "@id": "way/152652867",
        "man_made": "pier",
        "name": "O"
      },
      "geometry": {
        "type": "LineString",
        "coordinates": [
          [
            -3.0151392,
            43.3401234
          ],
          [
            -3.0148877,
            43.3403419
          ]
        ]
      },
      "id": "way/152652867"
    },
    {
      "type": "Feature",
      "properties": {
        "@id": "way/152652870",
        "man_made": "pier",
        "name": "B"
      },
      "geometry": {
        "type": "LineString",
        "coordinates": [
          [
            -3.0176875,
            43.3404066
          ],
          [
            -3.0192607,
            43.3390744
          ]
        ]
      },
      "id": "way/152652870"
    },
    {
      "type": "Feature",
      "properties": {
        "@id": "way/152652872",
        "man_made": "pier",
        "name": "J"
      },
      "geometry": {
        "type": "LineString",
        "coordinates": [
          [
            -3.0149645,
            43.3386535
          ],
          [
            -3.0147657,
            43.3385412
          ]
        ]
      },
      "id": "way/152652872"
    },
    {
      "type": "Feature",
      "properties": {
        "@id": "way/152652873",
        "man_made": "pier",
        "name": "Muelle B / B kaia",
        "name:es": "Muelle B",
        "name:eu": "B kaia"
      },
      "geometry": {
        "type": "LineString",
        "coordinates": [
          [
            -3.0287508,
            43.3289796
          ],
          [
            -3.0264806,
            43.3306545
          ]
        ]
      },
      "id": "way/152652873"
    },
    {
      "type": "Feature",
      "properties": {
        "@id": "way/152652875",
        "man_made": "pier",
        "name": "J"
      },
      "geometry": {
        "type": "LineString",
        "coordinates": [
          [
            -3.0145066,
            43.3387629
          ],
          [
            -3.0147657,
            43.3385412
          ],
          [
            -3.0157488,
            43.3376836
          ]
        ]
      },
      "id": "way/152652875"
    },
    {
      "type": "Feature",
      "properties": {
        "@id": "way/152652877",
        "man_made": "pier",
        "name": "I"
      },
      "geometry": {
        "type": "LineString",
        "coordinates": [
          [
            -3.0153001,
            43.3389327
          ],
          [
            -3.0166816,
            43.3377553
          ],
          [
            -3.0164347,
            43.3375978
          ]
        ]
      },
      "id": "way/152652877"
    },
    {
      "type": "Feature",
      "properties": {
        "@id": "way/152652878",
        "man_made": "pier"
      },
      "geometry": {
        "type": "LineString",
        "coordinates": [
          [
            -3.0148145,
            43.3399144
          ],
          [
            -3.0147598,
            43.3398804
          ],
          [
            -3.0145319,
            43.3397386
          ],
          [
            -3.0145162,
            43.3397289
          ]
        ]
      },
      "id": "way/152652878"
    },
    {
      "type": "Feature",
      "properties": {
        "@id": "way/152652879",
        "man_made": "pier"
      },
      "geometry": {
        "type": "LineString",
        "coordinates": [
          [
            -3.0153146,
            43.340232
          ],
          [
            -3.0152871,
            43.3402142
          ],
          [
            -3.0151392,
            43.3401234
          ],
          [
            -3.0149663,
            43.3400111
          ],
          [
            -3.0149214,
            43.3399826
          ]
        ]
      },
      "id": "way/152652879"
    },
    {
      "type": "Feature",
      "properties": {
        "@id": "way/152652880",
        "man_made": "pier"
      },
      "geometry": {
        "type": "LineString",
        "coordinates": [
          [
            -3.0291997,
            43.3290819
          ],
          [
            -3.0287508,
            43.3289796
          ],
          [
            -3.0283564,
            43.3288897
          ],
          [
            -3.0280251,
            43.3288142
          ],
          [
            -3.0277248,
            43.3287457
          ],
          [
            -3.0276092,
            43.3287194
          ]
        ]
      },
      "id": "way/152652880"
    },
    {
      "type": "Feature",
      "properties": {
        "@id": "way/195622062",
        "man_made": "pier",
        "name": "0A"
      },
      "geometry": {
        "type": "LineString",
        "coordinates": [
          [
            -3.0194982,
            43.3398402
          ],
          [
            -3.0189891,
            43.3402811
          ]
        ]
      },
      "id": "way/195622062"
    },
    {
      "type": "Feature",
      "properties": {
        "@id": "way/195622064",
        "man_made": "pier",
        "name": "K"
      },
      "geometry": {
        "type": "LineString",
        "coordinates": [
          [
            -3.0142013,
            43.3395359
          ],
          [
            -3.0143122,
            43.3396109
          ],
          [
            -3.0142208,
            43.3397094
          ]
        ]
      },
      "id": "way/195622064"
    },
    {
      "type": "Feature",
      "properties": {
        "@id": "way/292974337",
        "bridge": "yes",
        "highway": "service",
        "layer": "1",
        "man_made": "pier"
      },
      "geometry": {
        "type": "LineString",
        "coordinates": [
          [
            -3.0704206,
            43.3548285
          ],
          [
            -3.0707914,
            43.3545815
          ]
        ]
      },
      "id": "way/292974337"
    },
    {
      "type": "Feature",
      "properties": {
        "@id": "way/292974354",
        "man_made": "pier"
      },
      "geometry": {
        "type": "LineString",
        "coordinates": [
          [
            -3.0805321,
            43.3533462
          ],
          [
            -3.0799758,
            43.3535182
          ]
        ]
      },
      "id": "way/292974354"
    },
    {
      "type": "Feature",
      "properties": {
        "@id": "way/292974357",
        "man_made": "pier"
      },
      "geometry": {
        "type": "LineString",
        "coordinates": [
          [
            -3.0795438,
            43.3537326
          ],
          [
            -3.0800168,
            43.3535912
          ]
        ]
      },
      "id": "way/292974357"
    },
    {
      "type": "Feature",
      "properties": {
        "@id": "way/292974358",
        "man_made": "pier"
      },
      "geometry": {
        "type": "LineString",
        "coordinates": [
          [
            -3.0808397,
            43.3539072
          ],
          [
            -3.0802848,
            43.3540679
          ]
        ]
      },
      "id": "way/292974358"
    },
    {
      "type": "Feature",
      "properties": {
        "@id": "way/292974359",
        "man_made": "pier"
      },
      "geometry": {
        "type": "LineString",
        "coordinates": [
          [
            -3.0807558,
            43.3537411
          ],
          [
            -3.0801906,
            43.3539003
          ]
        ]
      },
      "id": "way/292974359"
    },
    {
      "type": "Feature",
      "properties": {
        "@id": "way/292974360",
        "man_made": "pier"
      },
      "geometry": {
        "type": "LineString",
        "coordinates": [
          [
            -3.0806486,
            43.3535631
          ],
          [
            -3.0800903,
            43.3537218
          ]
        ]
      },
      "id": "way/292974360"
    },
    {
      "type": "Feature",
      "properties": {
        "@id": "way/292974362",
        "man_made": "pier"
      },
      "geometry": {
        "type": "LineString",
        "coordinates": [
          [
            -3.0799424,
            43.3539122
          ],
          [
            -3.0801616,
            43.3538488
          ]
        ]
      },
      "id": "way/292974362"
    },
    {
      "type": "Feature",
      "properties": {
        "@id": "way/292974371",
        "man_made": "pier"
      },
      "geometry": {
        "type": "LineString",
        "coordinates": [
          [
            -3.0805323,
            43.3530885
          ],
          [
            -3.0798491,
            43.3532929
          ],
          [
            -3.0792105,
            43.353484
          ]
        ]
      },
      "id": "way/292974371"
    },
    {
      "type": "Feature",
      "properties": {
        "@id": "way/292974376",
        "man_made": "pier"
      },
      "geometry": {
        "type": "LineString",
        "coordinates": [
          [
            -3.07982,
            43.353241
          ],
          [
            -3.0798491,
            43.3532929
          ],
          [
            -3.0799758,
            43.3535182
          ],
          [
            -3.0800168,
            43.3535912
          ],
          [
            -3.0800903,
            43.3537218
          ],
          [
            -3.0801616,
            43.3538488
          ],
          [
            -3.0801906,
            43.3539003
          ],
          [
            -3.0802848,
            43.3540679
          ],
          [
            -3.0804155,
            43.3543003
          ]
        ]
      },
      "id": "way/292974376"
    },
    {
      "type": "Feature",
      "properties": {
        "@id": "way/396313614",
        "man_made": "pier"
      },
      "geometry": {
        "type": "LineString",
        "coordinates": [
          [
            -3.026762,
            43.33091
          ],
          [
            -3.0266804,
            43.3308487
          ]
        ]
      },
      "id": "way/396313614"
    },
    {
      "type": "Feature",
      "properties": {
        "@id": "way/432075378",
        "man_made": "pier",
        "name": "Punta Ceballos"
      },
      "geometry": {
        "type": "LineString",
        "coordinates": [
          [
            -3.0932313,
            43.3623075
          ],
          [
            -3.0931068,
            43.3624312
          ],
          [
            -3.0896276,
            43.3645633
          ]
        ]
      },
      "id": "way/432075378"
    },
    {
      "type": "Feature",
      "properties": {
        "@id": "way/432548284",
        "bridge": "yes",
        "highway": "service",
        "layer": "1",
        "man_made": "pier"
      },
      "geometry": {
        "type": "LineString",
        "coordinates": [
          [
            -3.0705978,
            43.3543339
          ],
          [
            -3.0699857,
            43.3543231
          ]
        ]
      },
      "id": "way/432548284"
    },
    {
      "type": "Feature",
      "properties": {
        "@id": "way/600383482",
        "man_made": "pier",
        "name": "0"
      },
      "geometry": {
        "type": "LineString",
        "coordinates": [
          [
            -3.029557,
            43.329377
          ],
          [
            -3.0292815,
            43.3295796
          ],
          [
            -3.0289315,
            43.329837
          ]
        ]
      },
      "id": "way/600383482"
    },
    {
      "type": "Feature",
      "properties": {
        "@id": "way/679304848",
        "man_made": "pier"
      },
      "geometry": {
        "type": "LineString",
        "coordinates": [
          [
            -3.0211198,
            43.3400632
          ],
          [
            -3.0211801,
            43.3403246
          ]
        ]
      },
      "id": "way/679304848"
    },
    {
      "type": "Feature",
      "properties": {
        "@id": "way/1174844210",
        "bridge": "yes",
        "highway": "service",
        "layer": "1",
        "man_made": "pier"
      },
      "geometry": {
        "type": "LineString",
        "coordinates": [
          [
            -3.0621093,
            43.3504703
          ],
          [
            -3.0623958,
            43.3508527
          ]
        ]
      },
      "id": "way/1174844210"
    },
    {
      "type": "Feature",
      "properties": {
        "@id": "way/1479058050",
        "floating": "yes",
        "man_made": "pier"
      },
      "geometry": {
        "type": "LineString",
        "coordinates": [
          [
            -3.0300872,
            43.330671
          ],
          [
            -3.0300307,
            43.330651
          ]
        ]
      },
      "id": "way/1479058050"
    }
  ]
}