{
  "type": "FeatureCollection",
  "generator": "overpass-turbo",
  "copyright": "The data included in this document is from www.openstreetmap.org. The data is made available under ODbL.",
  "timestamp": "2026-07-31T14:14:51Z",
  "features": [
    {
      "type": "Feature",
      "properties": {
        "@id": "way/155614417",
        "dock": "drydock",
        "waterway": "dock"
      },
      "geometry": {
        "type": "Polygon",
        "coordinates": [
          [
            [
              -9.1591527,
              38.7029023
            ],
            [
              -9.1592725,
              38.7029152
            ],
            [
              -9.1592802,
              38.7028833
            ],
            [
              -9.1593399,
              38.7028919
            ],
            [
              -9.1593377,
              38.7029342
            ],
            [
              -9.1609851,
              38.7031565
            ],
            [
              -9.1613528,
              38.7030901
            ],
            [
              -9.1610182,
              38.7029066
            ],
            [
              -9.1593299,
              38.7026757
            ],
            [
              -9.1593244,
              38.7027015
            ],
            [
              -9.1591986,
              38.7026872
            ],
            [
              -9.1591527,
              38.7029023
            ]
          ]
        ]
      },
      "id": "way/155614417"
    },
    {
      "type": "Feature",
      "properties": {
        "@id": "way/155614418",
        "dock": "drydock",
        "waterway": "dock"
      },
      "geometry": {
        "type": "Polygon",
        "coordinates": [
          [
            [
              -9.1590989,
              38.7031541
            ],
            [
              -9.1590718,
              38.703281
            ],
            [
              -9.1591753,
              38.7032944
            ],
            [
              -9.159172,
              38.7033228
            ],
            [
              -9.1601382,
              38.703452
            ],
            [
              -9.1604794,
              38.7034331
            ],
            [
              -9.1604827,
              38.7033978
            ],
            [
              -9.1601746,
              38.7032771
            ],
            [
              -9.1595386,
              38.703197
            ],
            [
              -9.1595397,
              38.7031841
            ],
            [
              -9.1592041,
              38.7031401
            ],
            [
              -9.1592007,
              38.7031668
            ],
            [
              -9.1590989,
              38.7031541
            ]
          ]
        ]
      },
      "id": "way/155614418"
    },
    {
      "type": "Feature",
      "properties": {
        "@id": "way/155614419",
        "dock": "drydock",
        "waterway": "dock"
      },
      "geometry": {
        "type": "Polygon",
        "coordinates": [
          [
            [
              -9.1589371,
              38.7033878
            ],
            [
              -9.1588123,
              38.7034095
            ],
            [
              -9.1588159,
              38.7034297
            ],
            [
              -9.1588049,
              38.7034314
            ],
            [
              -9.1588225,
              38.7034917
            ],
            [
              -9.1588369,
              38.7034917
            ],
            [
              -9.1588435,
              38.7035202
            ],
            [
              -9.1588115,
              38.7035253
            ],
            [
              -9.1588899,
              38.7038062
            ],
            [
              -9.1589208,
              38.7038028
            ],
            [
              -9.1589285,
              38.7038355
            ],
            [
              -9.1589341,
              38.7038579
            ],
            [
              -9.1589528,
              38.703876
            ],
            [
              -9.1589826,
              38.7038898
            ],
            [
              -9.1590114,
              38.7038898
            ],
            [
              -9.1590445,
              38.7038795
            ],
            [
              -9.159061,
              38.7038614
            ],
            [
              -9.1590688,
              38.7038174
            ],
            [
              -9.1589871,
              38.7034943
            ],
            [
              -9.1589617,
              38.7034969
            ],
            [
              -9.158955,
              38.7034693
            ],
            [
              -9.1589661,
              38.7034667
            ],
            [
              -9.1589506,
              38.7034064
            ],
            [
              -9.1589374,
              38.7034081
            ],
            [
              -9.1589371,
              38.7033878
            ]
          ]
        ]
      },
      "id": "way/155614419"
    },
    {
      "type": "Feature",
      "properties": {
        "@id": "way/155614421",
        "dock": "drydock",
        "waterway": "dock"
      },
      "geometry": {
        "type": "Polygon",
        "coordinates": [
          [
            [
              -9.1586212,
              38.7034429
            ],
            [
              -9.1584973,
              38.7034645
            ],
            [
              -9.1585045,
              38.7034866
            ],
            [
              -9.1584891,
              38.70349
            ],
            [
              -9.1585056,
              38.7035503
            ],
            [
              -9.1585222,
              38.7035512
            ],
            [
              -9.1585332,
              38.7035882
            ],
            [
              -9.1585001,
              38.703596
            ],
            [
              -9.15852,
              38.703658
            ],
            [
              -9.1585045,
              38.7036598
            ],
            [
              -9.1585465,
              38.7038131
            ],
            [
              -9.1585597,
              38.7038114
            ],
            [
              -9.1586282,
              38.7040389
            ],
            [
              -9.1586635,
              38.7040346
            ],
            [
              -9.1586669,
              38.7040492
            ],
            [
              -9.1586801,
              38.7040682
            ],
            [
              -9.1586945,
              38.704082
            ],
            [
              -9.1587199,
              38.7040897
            ],
            [
              -9.158753,
              38.7040828
            ],
            [
              -9.1587784,
              38.7040699
            ],
            [
              -9.158796,
              38.7040484
            ],
            [
              -9.158796,
              38.7040199
            ],
            [
              -9.1587861,
              38.70397
            ],
            [
              -9.1588093,
              38.7039682
            ],
            [
              -9.1586967,
              38.7035641
            ],
            [
              -9.1586624,
              38.7035667
            ],
            [
              -9.1586525,
              38.7035305
            ],
            [
              -9.1586635,
              38.7035271
            ],
            [
              -9.1586426,
              38.7034598
            ],
            [
              -9.158626,
              38.7034616
            ],
            [
              -9.1586212,
              38.7034429
            ]
          ]
        ]
      },
      "id": "way/155614421"
    },
    {
      "type": "Feature",
      "properties": {
        "@id": "way/155614426",
        "area": "yes",
        "bench": "yes",
        "bin": "yes",
        "ferry": "yes",
        "floating": "yes",
        "lit": "yes",
        "man_made": "pier",
        "mooring": "commercial",
        "public_transport": "platform",
        "shelter": "yes",
        "source": "https://ttsl.pt/",
        "tactile_paving": "no"
      },
      "geometry": {
        "type": "Polygon",
        "coordinates": [
          [
            [
              -9.1459016,
              38.7048081
            ],
            [
              -9.1458975,
              38.7047966
            ],
            [
              -9.1458829,
              38.7047449
            ],
            [
              -9.1458056,
              38.7044597
            ],
            [
              -9.1460652,
              38.7044112
            ],
            [
              -9.1460506,
              38.7043523
            ],
            [
              -9.1460989,
              38.7043444
            ],
            [
              -9.1460942,
              38.7043288
            ],
            [
              -9.1458431,
              38.7043741
            ],
            [
              -9.1455913,
              38.7044196
            ],
            [
              -9.145596,
              38.7044353
            ],
            [
              -9.1456505,
              38.7044255
            ],
            [
              -9.1456693,
              38.7044892
            ],
            [
              -9.1457172,
              38.7044805
            ],
            [
              -9.1457998,
              38.7047596
            ],
            [
              -9.1458151,
              38.7048109
            ],
            [
              -9.1458187,
              38.7048231
            ],
            [
              -9.1458602,
              38.7048156
            ],
            [
              -9.1459016,
              38.7048081
            ]
          ]
        ]
      },
      "id": "way/155614426"
    },
    {
      "type": "Feature",
      "properties": {
        "@id": "way/155614427",
        "area": "yes",
        "bench": "yes",
        "bin": "yes",
        "ferry": "yes",
        "floating": "yes",
        "lit": "yes",
        "man_made": "pier",
        "mooring": "commercial",
        "public_transport": "platform",
        "shelter": "yes",
        "source": "https://ttsl.pt/",
        "tactile_paving": "no"
      },
      "geometry": {
        "type": "Polygon",
        "coordinates": [
          [
            [
              -9.1453362,
              38.7049094
            ],
            [
              -9.1453315,
              38.7048932
            ],
            [
              -9.1453172,
              38.7048442
            ],
            [
              -9.145236,
              38.7045662
            ],
            [
              -9.1453906,
              38.7045387
            ],
            [
              -9.1453719,
              38.7044748
            ],
            [
              -9.1454274,
              38.704465
            ],
            [
              -9.1454228,
              38.7044494
            ],
            [
              -9.1451722,
              38.704494
            ],
            [
              -9.1449217,
              38.7045385
            ],
            [
              -9.1449262,
              38.7045542
            ],
            [
              -9.1449803,
              38.7045446
            ],
            [
              -9.144999,
              38.7046083
            ],
            [
              -9.1451529,
              38.7045809
            ],
            [
              -9.145234,
              38.7048587
            ],
            [
              -9.1452458,
              38.7048992
            ],
            [
              -9.1452531,
              38.7049241
            ],
            [
              -9.1453362,
              38.7049094
            ]
          ]
        ]
      },
      "id": "way/155614427"
    },
    {
      "type": "Feature",
      "properties": {
        "@id": "way/155685218",
        "area": "yes",
        "bench": "yes",
        "bin": "yes",
        "ferry": "yes",
        "floating": "yes",
        "man_made": "pier",
        "public_transport": "platform",
        "shelter": "yes",
        "source": "https://ttsl.pt/",
        "tactile_paving": "no"
      },
      "geometry": {
        "type": "Polygon",
        "coordinates": [
          [
            [
              -9.1336075,
              38.7065551
            ],
            [
              -9.1335938,
              38.7065275
            ],
            [
              -9.1335069,
              38.706353
            ],
            [
              -9.1336553,
              38.706308
            ],
            [
              -9.1336253,
              38.7062477
            ],
            [
              -9.1336806,
              38.706231
            ],
            [
              -9.1336727,
              38.7062151
            ],
            [
              -9.1334308,
              38.7062885
            ],
            [
              -9.1331905,
              38.7063614
            ],
            [
              -9.1331988,
              38.706378
            ],
            [
              -9.1332516,
              38.7063621
            ],
            [
              -9.1332811,
              38.7064214
            ],
            [
              -9.1334281,
              38.7063768
            ],
            [
              -9.1335287,
              38.706579
            ],
            [
              -9.1335673,
              38.7065673
            ],
            [
              -9.1336075,
              38.7065551
            ]
          ]
        ]
      },
      "id": "way/155685218"
    },
    {
      "type": "Feature",
      "properties": {
        "@id": "way/155685222",
        "area": "yes",
        "bench": "yes",
        "bin": "yes",
        "ferry": "yes",
        "floating": "yes",
        "man_made": "pier",
        "mooring": "private",
        "public_transport": "platform",
        "shelter": "yes",
        "source": "http://www.transtejo.pt",
        "tactile_paving": "no"
      },
      "geometry": {
        "type": "Polygon",
        "coordinates": [
          [
            [
              -9.1329595,
              38.7067461
            ],
            [
              -9.132862,
              38.7065485
            ],
            [
              -9.1330094,
              38.7065042
            ],
            [
              -9.1329794,
              38.7064436
            ],
            [
              -9.1330306,
              38.7064282
            ],
            [
              -9.1330231,
              38.7064129
            ],
            [
              -9.1327832,
              38.7064851
            ],
            [
              -9.1325422,
              38.7065575
            ],
            [
              -9.1325498,
              38.7065731
            ],
            [
              -9.1326043,
              38.7065567
            ],
            [
              -9.1326342,
              38.7066173
            ],
            [
              -9.1327827,
              38.7065726
            ],
            [
              -9.1328802,
              38.7067699
            ],
            [
              -9.1329204,
              38.7067578
            ],
            [
              -9.1329595,
              38.7067461
            ]
          ]
        ]
      },
      "id": "way/155685222"
    },
    {
      "type": "Feature",
      "properties": {
        "@id": "way/297708926",
        "area": "yes",
        "man_made": "pier"
      },
      "geometry": {
        "type": "Polygon",
        "coordinates": [
          [
            [
              -9.1699368,
              38.7018092
            ],
            [
              -9.1696788,
              38.7018562
            ],
            [
              -9.1696588,
              38.7018598
            ],
            [
              -9.1696652,
              38.7018811
            ],
            [
              -9.1690083,
              38.7020008
            ],
            [
              -9.1684786,
              38.7020974
            ],
            [
              -9.167973,
              38.7021896
            ],
            [
              -9.1675249,
              38.7022713
            ],
            [
              -9.1673885,
              38.7022962
            ],
            [
              -9.1673924,
              38.702309
            ],
            [
              -9.1673941,
              38.7023148
            ],
            [
              -9.1697479,
              38.7018857
            ],
            [
              -9.1697428,
              38.7018687
            ],
            [
              -9.1699436,
              38.7018321
            ],
            [
              -9.1699368,
              38.7018092
            ]
          ]
        ]
      },
      "id": "way/297708926"
    },
    {
      "type": "Feature",
      "properties": {
        "@id": "way/297708927",
        "man_made": "pier"
      },
      "geometry": {
        "type": "Polygon",
        "coordinates": [
          [
            [
              -9.1725156,
              38.7011299
            ],
            [
              -9.1725043,
              38.701132
            ],
            [
              -9.1725696,
              38.7013523
            ],
            [
              -9.1723098,
              38.7013992
            ],
            [
              -9.1718182,
              38.7014879
            ],
            [
              -9.1712492,
              38.7015906
            ],
            [
              -9.1706054,
              38.7017068
            ],
            [
              -9.170599,
              38.701685
            ],
            [
              -9.1705877,
              38.7016871
            ],
            [
              -9.170409,
              38.7017193
            ],
            [
              -9.1704123,
              38.7017306
            ],
            [
              -9.1704143,
              38.7017374
            ],
            [
              -9.1705009,
              38.7017217
            ],
            [
              -9.1705068,
              38.7017417
            ],
            [
              -9.1726024,
              38.7013635
            ],
            [
              -9.1725323,
              38.7011269
            ],
            [
              -9.1725156,
              38.7011299
            ]
          ]
        ]
      },
      "id": "way/297708927"
    },
    {
      "type": "Feature",
      "properties": {
        "@id": "way/297708942",
        "area": "yes",
        "man_made": "pier"
      },
      "geometry": {
        "type": "Polygon",
        "coordinates": [
          [
            [
              -9.1644594,
              38.7028569
            ],
            [
              -9.1644568,
              38.7028468
            ],
            [
              -9.1642404,
              38.7028681
            ],
            [
              -9.1642355,
              38.7028527
            ],
            [
              -9.1642088,
              38.7028565
            ],
            [
              -9.1642199,
              38.7028919
            ],
            [
              -9.1644622,
              38.7028668
            ],
            [
              -9.1644594,
              38.7028569
            ]
          ]
        ]
      },
      "id": "way/297708942"
    },
    {
      "type": "Feature",
      "properties": {
        "@id": "way/297708944",
        "man_made": "pier"
      },
      "geometry": {
        "type": "Polygon",
        "coordinates": [
          [
            [
              -9.1611989,
              38.7019283
            ],
            [
              -9.1613509,
              38.7020624
            ],
            [
              -9.1614048,
              38.7020252
            ],
            [
              -9.1612528,
              38.701891
            ],
            [
              -9.1611989,
              38.7019283
            ]
          ]
        ]
      },
      "id": "way/297708944"
    },
    {
      "type": "Feature",
      "properties": {
        "@id": "way/297708946",
        "area": "yes",
        "man_made": "pier"
      },
      "geometry": {
        "type": "Polygon",
        "coordinates": [
          [
            [
              -9.1660768,
              38.7025292
            ],
            [
              -9.1657763,
              38.7025875
            ],
            [
              -9.165429,
              38.7026526
            ],
            [
              -9.1650503,
              38.7027208
            ],
            [
              -9.1646914,
              38.7027803
            ],
            [
              -9.1645657,
              38.7028013
            ],
            [
              -9.1645616,
              38.7027865
            ],
            [
              -9.1645262,
              38.7027875
            ],
            [
              -9.1645262,
              38.7028082
            ],
            [
              -9.1644942,
              38.702841
            ],
            [
              -9.1644568,
              38.7028468
            ],
            [
              -9.1644594,
              38.7028569
            ],
            [
              -9.1644622,
              38.7028668
            ],
            [
              -9.1644992,
              38.7028604
            ],
            [
              -9.1645532,
              38.7028365
            ],
            [
              -9.1660889,
              38.7025625
            ],
            [
              -9.1660768,
              38.7025292
            ]
          ]
        ]
      },
      "id": "way/297708946"
    },
    {
      "type": "Feature",
      "properties": {
        "@id": "way/344177773",
        "area": "yes",
        "man_made": "pier",
        "name": "Cais da Viscondessa"
      },
      "geometry": {
        "type": "Polygon",
        "coordinates": [
          [
            [
              -9.1560135,
              38.7044798
            ],
            [
              -9.1557482,
              38.7035984
            ],
            [
              -9.1549038,
              38.7037528
            ],
            [
              -9.1550571,
              38.7042695
            ],
            [
              -9.1551118,
              38.7044546
            ],
            [
              -9.15506,
              38.7045211
            ],
            [
              -9.1549887,
              38.7046136
            ],
            [
              -9.1549413,
              38.7046741
            ],
            [
              -9.1560135,
              38.7044798
            ]
          ]
        ]
      },
      "id": "way/344177773"
    },
    {
      "type": "Feature",
      "properties": {
        "@id": "way/430399067",
        "area": "yes",
        "man_made": "pier"
      },
      "geometry": {
        "type": "Polygon",
        "coordinates": [
          [
            [
              -9.1471486,
              38.7048956
            ],
            [
              -9.1471326,
              38.704889
            ],
            [
              -9.1471155,
              38.7048819
            ],
            [
              -9.1470708,
              38.7049475
            ],
            [
              -9.1470196,
              38.7050228
            ],
            [
              -9.1469976,
              38.7050553
            ],
            [
              -9.1470148,
              38.7050625
            ],
            [
              -9.1470308,
              38.7050691
            ],
            [
              -9.1470527,
              38.7050368
            ],
            [
              -9.147103,
              38.7049629
            ],
            [
              -9.1471486,
              38.7048956
            ]
          ]
        ]
      },
      "id": "way/430399067"
    },
    {
      "type": "Feature",
      "properties": {
        "@id": "way/437650390",
        "addr:city": "Lisboa",
        "addr:country": "PT",
        "addr:place": "Estaleiro da Rocha do Conde de Óbidos",
        "addr:postcode": "1399-036",
        "harbour": "yes",
        "harbour:category": "shipyard",
        "industrial": "shipyard",
        "landuse": "industrial",
        "name": "Estaleiro da Rocha do Conde de Óbidos",
        "name:en": "Rocha do Conde de Óbidos Shipyard"
      },
      "geometry": {
        "type": "Polygon",
        "coordinates": [
          [
            [
              -9.1570086,
              38.7043858
            ],
            [
              -9.158144,
              38.7047324
            ],
            [
              -9.1583373,
              38.7046434
            ],
            [
              -9.1597409,
              38.7040046
            ],
            [
              -9.1605934,
              38.7037307
            ],
            [
              -9.1612666,
              38.7036449
            ],
            [
              -9.1616904,
              38.703446
            ],
            [
              -9.1616655,
              38.7033797
            ],
            [
              -9.161482,
              38.7028912
            ],
            [
              -9.1614081,
              38.702907
            ],
            [
              -9.1612794,
              38.7029348
            ],
            [
              -9.1612388,
              38.7028337
            ],
            [
              -9.1610155,
              38.7028191
            ],
            [
              -9.1592554,
              38.7025689
            ],
            [
              -9.1590798,
              38.703378
            ],
            [
              -9.1569635,
              38.7037589
            ],
            [
              -9.1572787,
              38.7042676
            ],
            [
              -9.1569903,
              38.7043168
            ],
            [
              -9.1570086,
              38.7043858
            ]
          ]
        ]
      },
      "id": "way/437650390"
    },
    {
      "type": "Feature",
      "properties": {
        "@id": "way/678973023",
        "area": "yes",
        "bench": "yes",
        "bin": "yes",
        "ferry": "yes",
        "floating": "yes",
        "lit": "yes",
        "man_made": "pier",
        "mooring": "commercial",
        "public_transport": "platform",
        "shelter": "yes",
        "source": "https://ttsl.pt/",
        "tactile_paving": "no"
      },
      "geometry": {
        "type": "Polygon",
        "coordinates": [
          [
            [
              -9.1445908,
              38.7046815
            ],
            [
              -9.1446708,
              38.7049573
            ],
            [
              -9.1446831,
              38.7049996
            ],
            [
              -9.1446902,
              38.7050241
            ],
            [
              -9.1447716,
              38.7050097
            ],
            [
              -9.1447638,
              38.7049828
            ],
            [
              -9.1447522,
              38.7049431
            ],
            [
              -9.1446722,
              38.7046673
            ],
            [
              -9.1447207,
              38.7046587
            ],
            [
              -9.1447023,
              38.7045954
            ],
            [
              -9.1447613,
              38.704585
            ],
            [
              -9.1447566,
              38.7045688
            ],
            [
              -9.1445033,
              38.7046136
            ],
            [
              -9.1442488,
              38.7046585
            ],
            [
              -9.1442532,
              38.704674
            ],
            [
              -9.1443094,
              38.7046641
            ],
            [
              -9.144328,
              38.7047279
            ],
            [
              -9.1445908,
              38.7046815
            ]
          ]
        ]
      },
      "id": "way/678973023"
    },
    {
      "type": "Feature",
      "properties": {
        "@id": "way/705748790",
        "area": "yes",
        "man_made": "pier",
        "name": "Cais da Ribeira das Naus"
      },
      "geometry": {
        "type": "Polygon",
        "coordinates": [
          [
            [
              -9.1424904,
              38.7052169
            ],
            [
              -9.1424296,
              38.7050927
            ],
            [
              -9.1424124,
              38.7050979
            ],
            [
              -9.1423385,
              38.704947
            ],
            [
              -9.1424325,
              38.7049186
            ],
            [
              -9.1424025,
              38.7048582
            ],
            [
              -9.1423033,
              38.7048881
            ],
            [
              -9.1422041,
              38.704918
            ],
            [
              -9.1422341,
              38.7049786
            ],
            [
              -9.1423206,
              38.7049524
            ],
            [
              -9.1423944,
              38.7051031
            ],
            [
              -9.1423817,
              38.7051069
            ],
            [
              -9.1424426,
              38.7052312
            ],
            [
              -9.1424566,
              38.7052593
            ],
            [
              -9.142468,
              38.705283
            ],
            [
              -9.1424713,
              38.7052899
            ],
            [
              -9.1424952,
              38.7052828
            ],
            [
              -9.1425191,
              38.7052756
            ],
            [
              -9.1425161,
              38.7052694
            ],
            [
              -9.1425052,
              38.705247
            ],
            [
              -9.1424904,
              38.7052169
            ]
          ]
        ]
      },
      "id": "way/705748790"
    },
    {
      "type": "Feature",
      "properties": {
        "@id": "way/714594684",
        "area": "yes",
        "man_made": "pier"
      },
      "geometry": {
        "type": "Polygon",
        "coordinates": [
          [
            [
              -9.1478467,
              38.7054035
            ],
            [
              -9.1478936,
              38.7054208
            ],
            [
              -9.1479345,
              38.7054376
            ],
            [
              -9.1479665,
              38.7053949
            ],
            [
              -9.1480622,
              38.7052488
            ],
            [
              -9.1480211,
              38.7052319
            ],
            [
              -9.1479803,
              38.705215
            ],
            [
              -9.1479262,
              38.7052966
            ],
            [
              -9.1478762,
              38.7053651
            ],
            [
              -9.1478467,
              38.7054035
            ]
          ]
        ]
      },
      "id": "way/714594684"
    },
    {
      "type": "Feature",
      "properties": {
        "@id": "way/945300212",
        "area": "yes",
        "bench": "yes",
        "bicycle": "no",
        "bin": "yes",
        "ferry": "yes",
        "floating": "yes",
        "foot": "yes",
        "lit": "yes",
        "man_made": "pier",
        "motor_vehicle": "no",
        "public_transport": "platform",
        "ref": "1",
        "shelter": "yes",
        "tactile_paving": "no"
      },
      "geometry": {
        "type": "Polygon",
        "coordinates": [
          [
            [
              -9.1345977,
              38.7060143
            ],
            [
              -9.1345954,
              38.706267
            ],
            [
              -9.134626,
              38.706267
            ],
            [
              -9.13465,
              38.7062668
            ],
            [
              -9.1346515,
              38.7059963
            ],
            [
              -9.1349471,
              38.7059048
            ],
            [
              -9.1349252,
              38.7058617
            ],
            [
              -9.1349699,
              38.7058479
            ],
            [
              -9.1349596,
              38.7058275
            ],
            [
              -9.134632,
              38.705928
            ],
            [
              -9.1344906,
              38.7059725
            ],
            [
              -9.1345019,
              38.7059946
            ],
            [
              -9.1345546,
              38.7059783
            ],
            [
              -9.1345762,
              38.7060209
            ],
            [
              -9.1345977,
              38.7060143
            ]
          ]
        ]
      },
      "id": "way/945300212"
    },
    {
      "type": "Feature",
      "properties": {
        "@id": "way/949695961",
        "area": "yes",
        "bench": "no",
        "bin": "yes",
        "ferry": "yes",
        "floating": "yes",
        "man_made": "pier",
        "mooring": "private",
        "public_transport": "platform",
        "shelter": "yes",
        "source": "http://www.transtejo.pt",
        "tactile_paving": "no"
      },
      "geometry": {
        "type": "Polygon",
        "coordinates": [
          [
            [
              -9.1322857,
              38.706716
            ],
            [
              -9.1323585,
              38.7066945
            ],
            [
              -9.1323287,
              38.706633
            ],
            [
              -9.1324187,
              38.7066064
            ],
            [
              -9.1324125,
              38.7065936
            ],
            [
              -9.1321916,
              38.7066589
            ],
            [
              -9.1318517,
              38.7067593
            ],
            [
              -9.1318579,
              38.706772
            ],
            [
              -9.1319571,
              38.7067427
            ],
            [
              -9.1319866,
              38.7068034
            ],
            [
              -9.1322452,
              38.7067276
            ],
            [
              -9.1324404,
              38.7068983
            ],
            [
              -9.1324616,
              38.7068921
            ],
            [
              -9.1324829,
              38.7068859
            ],
            [
              -9.1322857,
              38.706716
            ]
          ]
        ]
      },
      "id": "way/949695961"
    },
    {
      "type": "Feature",
      "properties": {
        "@id": "way/1046885199",
        "area": "yes",
        "bench": "no",
        "bicycle": "no",
        "bin": "no",
        "ferry": "yes",
        "floating": "yes",
        "foot": "yes",
        "lit": "yes",
        "man_made": "pier",
        "motor_vehicle": "no",
        "public_transport": "platform",
        "ref": "3",
        "shelter": "no",
        "tactile_paving": "no"
      },
      "geometry": {
        "type": "Polygon",
        "coordinates": [
          [
            [
              -9.1351538,
              38.7062551
            ],
            [
              -9.1349336,
              38.7063116
            ],
            [
              -9.1349369,
              38.7063195
            ],
            [
              -9.1351579,
              38.7062628
            ],
            [
              -9.1351981,
              38.7063582
            ],
            [
              -9.1349798,
              38.7064142
            ],
            [
              -9.1349831,
              38.706422
            ],
            [
              -9.1352018,
              38.7063659
            ],
            [
              -9.1352056,
              38.7063749
            ],
            [
              -9.1352727,
              38.7063578
            ],
            [
              -9.1352181,
              38.7062282
            ],
            [
              -9.135164,
              38.7060995
            ],
            [
              -9.1350942,
              38.7061174
            ],
            [
              -9.1350982,
              38.7061269
            ],
            [
              -9.1348518,
              38.70619
            ],
            [
              -9.134859,
              38.7062071
            ],
            [
              -9.1348657,
              38.7062229
            ],
            [
              -9.1351135,
              38.7061594
            ],
            [
              -9.1351538,
              38.7062551
            ]
          ]
        ]
      },
      "id": "way/1046885199"
    },
    {
      "type": "Feature",
      "properties": {
        "@id": "way/1046885200",
        "area": "yes",
        "bench": "yes",
        "bicycle": "no",
        "bin": "yes",
        "ferry": "yes",
        "floating": "yes",
        "foot": "yes",
        "lit": "yes",
        "man_made": "pier",
        "motor_vehicle": "no",
        "public_transport": "platform",
        "ref": "2",
        "shelter": "yes",
        "tactile_paving": "no"
      },
      "geometry": {
        "type": "Polygon",
        "coordinates": [
          [
            [
              -9.13426,
              38.7063384
            ],
            [
              -9.1341641,
              38.7061479
            ],
            [
              -9.1343093,
              38.706103
            ],
            [
              -9.1342799,
              38.7060452
            ],
            [
              -9.1343335,
              38.7060286
            ],
            [
              -9.1343263,
              38.7060144
            ],
            [
              -9.1340963,
              38.7060856
            ],
            [
              -9.1338478,
              38.7061625
            ],
            [
              -9.1338571,
              38.7061807
            ],
            [
              -9.1339001,
              38.7061673
            ],
            [
              -9.1339268,
              38.7062197
            ],
            [
              -9.1341068,
              38.706164
            ],
            [
              -9.1342034,
              38.7063545
            ],
            [
              -9.1342317,
              38.7063464
            ],
            [
              -9.13426,
              38.7063384
            ]
          ]
        ]
      },
      "id": "way/1046885200"
    },
    {
      "type": "Feature",
      "properties": {
        "@id": "way/1101594087",
        "area": "yes",
        "bench": "yes",
        "bin": "yes",
        "ferry": "yes",
        "floating": "yes",
        "lit": "yes",
        "man_made": "pier",
        "mooring": "commercial",
        "public_transport": "platform",
        "shelter": "yes",
        "source": "http://www.transtejo.pt",
        "tactile_paving": "no"
      },
      "geometry": {
        "type": "Polygon",
        "coordinates": [
          [
            [
              -9.1468795,
              38.7042981
            ],
            [
              -9.1468476,
              38.7041922
            ],
            [
              -9.1465079,
              38.7042544
            ],
            [
              -9.1465437,
              38.7043605
            ],
            [
              -9.146593,
              38.7043496
            ],
            [
              -9.1466132,
              38.7043646
            ],
            [
              -9.1466413,
              38.7043596
            ],
            [
              -9.146726,
              38.7046456
            ],
            [
              -9.1466442,
              38.7047696
            ],
            [
              -9.1466009,
              38.7048362
            ],
            [
              -9.1465961,
              38.7048428
            ],
            [
              -9.1466141,
              38.7048502
            ],
            [
              -9.1466558,
              38.7048674
            ],
            [
              -9.1466894,
              38.7048829
            ],
            [
              -9.1467403,
              38.704809
            ],
            [
              -9.1468375,
              38.7046546
            ],
            [
              -9.1467411,
              38.7043418
            ],
            [
              -9.1467795,
              38.704335
            ],
            [
              -9.1467881,
              38.7043141
            ],
            [
              -9.1468795,
              38.7042981
            ]
          ]
        ]
      },
      "id": "way/1101594087"
    },
    {
      "type": "Feature",
      "properties": {
        "@id": "way/1338621755",
        "man_made": "pier"
      },
      "geometry": {
        "type": "Polygon",
        "coordinates": [
          [
            [
              -9.1200474,
              38.7148339
            ],
            [
              -9.1200618,
              38.7149359
            ],
            [
              -9.1201242,
              38.7149765
            ],
            [
              -9.1202485,
              38.7150408
            ],
            [
              -9.1203437,
              38.7149486
            ],
            [
              -9.1202825,
              38.714904
            ],
            [
              -9.1211059,
              38.7141092
            ],
            [
              -9.1210737,
              38.7140915
            ],
            [
              -9.1218006,
              38.7133935
            ],
            [
              -9.1218676,
              38.7134361
            ],
            [
              -9.1219614,
              38.7133461
            ],
            [
              -9.1221477,
              38.7131732
            ],
            [
              -9.1223307,
              38.7129965
            ],
            [
              -9.1223558,
              38.7130138
            ],
            [
              -9.1224413,
              38.7129297
            ],
            [
              -9.1223914,
              38.7128988
            ],
            [
              -9.1225831,
              38.71271
            ],
            [
              -9.1226103,
              38.7127268
            ],
            [
              -9.1236285,
              38.7117856
            ],
            [
              -9.1236664,
              38.7118121
            ],
            [
              -9.1244303,
              38.7110828
            ],
            [
              -9.1256573,
              38.7102374
            ],
            [
              -9.1265434,
              38.7096821
            ],
            [
              -9.1270897,
              38.7093419
            ],
            [
              -9.127889,
              38.7088835
            ],
            [
              -9.128292,
              38.7086618
            ],
            [
              -9.1283098,
              38.7086532
            ],
            [
              -9.1283734,
              38.7086223
            ],
            [
              -9.128392,
              38.7086133
            ],
            [
              -9.1289314,
              38.7083515
            ],
            [
              -9.1286393,
              38.7080189
            ],
            [
              -9.1252306,
              38.709869
            ],
            [
              -9.1231478,
              38.7118706
            ],
            [
              -9.1229249,
              38.7120865
            ],
            [
              -9.1221903,
              38.712788
            ],
            [
              -9.1200474,
              38.7148339
            ]
          ]
        ]
      },
      "id": "way/1338621755"
    },
    {
      "type": "Feature",
      "properties": {
        "@id": "way/155480894",
        "man_made": "pier",
        "mooring": "yes"
      },
      "geometry": {
        "type": "LineString",
        "coordinates": [
          [
            -9.1777605,
            38.6988699
          ],
          [
            -9.1785455,
            38.6987187
          ],
          [
            -9.1786683,
            38.6991293
          ],
          [
            -9.1787559,
            38.6994225
          ],
          [
            -9.1766494,
            38.7001444
          ],
          [
            -9.1762608,
            38.7002776
          ],
          [
            -9.1761372,
            38.7000456
          ],
          [
            -9.1762435,
            38.6996632
          ],
          [
            -9.1763076,
            38.699433
          ],
          [
            -9.177323,
            38.6990758
          ]
        ]
      },
      "id": "way/155480894"
    },
    {
      "type": "Feature",
      "properties": {
        "@id": "way/155480896",
        "man_made": "pier",
        "mooring": "yes"
      },
      "geometry": {
        "type": "LineString",
        "coordinates": [
          [
            -9.1761372,
            38.7000456
          ],
          [
            -9.1774933,
            38.6995815
          ]
        ]
      },
      "id": "way/155480896"
    },
    {
      "type": "Feature",
      "properties": {
        "@id": "way/155480898",
        "man_made": "pier",
        "mooring": "yes"
      },
      "geometry": {
        "type": "LineString",
        "coordinates": [
          [
            -9.1762435,
            38.6996632
          ],
          [
            -9.1773664,
            38.6992818
          ]
        ]
      },
      "id": "way/155480898"
    },
    {
      "type": "Feature",
      "properties": {
        "@id": "way/155480900",
        "man_made": "pier"
      },
      "geometry": {
        "type": "LineString",
        "coordinates": [
          [
            -9.1766609,
            38.6989352
          ],
          [
            -9.1767389,
            38.6990623
          ]
        ]
      },
      "id": "way/155480900"
    },
    {
      "type": "Feature",
      "properties": {
        "@id": "way/155480901",
        "man_made": "pier"
      },
      "geometry": {
        "type": "LineString",
        "coordinates": [
          [
            -9.1766494,
            38.7001444
          ],
          [
            -9.1767058,
            38.7002554
          ]
        ]
      },
      "id": "way/155480901"
    },
    {
      "type": "Feature",
      "properties": {
        "@id": "way/155480903",
        "man_made": "pier"
      },
      "geometry": {
        "type": "LineString",
        "coordinates": [
          [
            -9.1769302,
            38.6989951
          ],
          [
            -9.1767389,
            38.6990623
          ],
          [
            -9.1764779,
            38.6991536
          ]
        ]
      },
      "id": "way/155480903"
    },
    {
      "type": "Feature",
      "properties": {
        "@id": "way/155480907",
        "man_made": "pier",
        "mooring": "yes"
      },
      "geometry": {
        "type": "LineString",
        "coordinates": [
          [
            -9.1788593,
            38.6990983
          ],
          [
            -9.1786683,
            38.6991293
          ],
          [
            -9.1777238,
            38.6992974
          ]
        ]
      },
      "id": "way/155480907"
    },
    {
      "type": "Feature",
      "properties": {
        "@id": "way/155614429",
        "man_made": "pier"
      },
      "geometry": {
        "type": "LineString",
        "coordinates": [
          [
            -9.167973,
            38.7021896
          ],
          [
            -9.1677113,
            38.7013155
          ]
        ]
      },
      "id": "way/155614429"
    },
    {
      "type": "Feature",
      "properties": {
        "@id": "way/155614432",
        "man_made": "pier"
      },
      "geometry": {
        "type": "LineString",
        "coordinates": [
          [
            -9.1675249,
            38.7022713
          ],
          [
            -9.1672629,
            38.701396
          ]
        ]
      },
      "id": "way/155614432"
    },
    {
      "type": "Feature",
      "properties": {
        "@id": "way/155614434",
        "man_made": "pier"
      },
      "geometry": {
        "type": "LineString",
        "coordinates": [
          [
            -9.1705877,
            38.7016871
          ],
          [
            -9.170328,
            38.7008109
          ]
        ]
      },
      "id": "way/155614434"
    },
    {
      "type": "Feature",
      "properties": {
        "@id": "way/155614436",
        "man_made": "pier"
      },
      "geometry": {
        "type": "LineString",
        "coordinates": [
          [
            -9.1690083,
            38.7020008
          ],
          [
            -9.1687456,
            38.7011231
          ]
        ]
      },
      "id": "way/155614436"
    },
    {
      "type": "Feature",
      "properties": {
        "@id": "way/155614437",
        "man_made": "pier"
      },
      "geometry": {
        "type": "LineString",
        "coordinates": [
          [
            -9.1712492,
            38.7015906
          ],
          [
            -9.1709919,
            38.7007298
          ]
        ]
      },
      "id": "way/155614437"
    },
    {
      "type": "Feature",
      "properties": {
        "@id": "way/155614441",
        "man_made": "pier"
      },
      "geometry": {
        "type": "LineString",
        "coordinates": [
          [
            -9.1696788,
            38.7018562
          ],
          [
            -9.1694177,
            38.7009838
          ],
          [
            -9.1695536,
            38.700959
          ]
        ]
      },
      "id": "way/155614441"
    },
    {
      "type": "Feature",
      "properties": {
        "@id": "way/155614442",
        "man_made": "pier"
      },
      "geometry": {
        "type": "LineString",
        "coordinates": [
          [
            -9.1723098,
            38.7013992
          ],
          [
            -9.1720281,
            38.7004567
          ]
        ]
      },
      "id": "way/155614442"
    },
    {
      "type": "Feature",
      "properties": {
        "@id": "way/155614444",
        "man_made": "pier"
      },
      "geometry": {
        "type": "LineString",
        "coordinates": [
          [
            -9.1718182,
            38.7014879
          ],
          [
            -9.1715556,
            38.7006091
          ]
        ]
      },
      "id": "way/155614444"
    },
    {
      "type": "Feature",
      "properties": {
        "@id": "way/155614446",
        "man_made": "pier"
      },
      "geometry": {
        "type": "LineString",
        "coordinates": [
          [
            -9.1684786,
            38.7020974
          ],
          [
            -9.1682159,
            38.7012199
          ]
        ]
      },
      "id": "way/155614446"
    },
    {
      "type": "Feature",
      "properties": {
        "@id": "way/297708930",
        "man_made": "pier"
      },
      "geometry": {
        "type": "LineString",
        "coordinates": [
          [
            -9.1702087,
            38.7018226
          ],
          [
            -9.1702029,
            38.7017964
          ]
        ]
      },
      "id": "way/297708930"
    },
    {
      "type": "Feature",
      "properties": {
        "@id": "way/297708931",
        "man_made": "pier"
      },
      "geometry": {
        "type": "LineString",
        "coordinates": [
          [
            -9.1681058,
            38.70124
          ],
          [
            -9.1682159,
            38.7012199
          ],
          [
            -9.168309,
            38.701203
          ]
        ]
      },
      "id": "way/297708931"
    },
    {
      "type": "Feature",
      "properties": {
        "@id": "way/297708932",
        "man_made": "pier"
      },
      "geometry": {
        "type": "LineString",
        "coordinates": [
          [
            -9.1719092,
            38.7004783
          ],
          [
            -9.1720281,
            38.7004567
          ],
          [
            -9.1721135,
            38.7004411
          ]
        ]
      },
      "id": "way/297708932"
    },
    {
      "type": "Feature",
      "properties": {
        "@id": "way/297708933",
        "man_made": "pier"
      },
      "geometry": {
        "type": "LineString",
        "coordinates": [
          [
            -9.1704123,
            38.7017306
          ],
          [
            -9.1702029,
            38.7017964
          ],
          [
            -9.1699395,
            38.7018201
          ]
        ]
      },
      "id": "way/297708933"
    },
    {
      "type": "Feature",
      "properties": {
        "@id": "way/297708934",
        "man_made": "pier"
      },
      "geometry": {
        "type": "LineString",
        "coordinates": [
          [
            -9.1613614,
            38.7020076
          ],
          [
            -9.1614459,
            38.7020801
          ],
          [
            -9.1614797,
            38.7020562
          ]
        ]
      },
      "id": "way/297708934"
    },
    {
      "type": "Feature",
      "properties": {
        "@id": "way/297708935",
        "man_made": "pier"
      },
      "geometry": {
        "type": "LineString",
        "coordinates": [
          [
            -9.1671694,
            38.701413
          ],
          [
            -9.1672629,
            38.701396
          ],
          [
            -9.1673705,
            38.7013764
          ]
        ]
      },
      "id": "way/297708935"
    },
    {
      "type": "Feature",
      "properties": {
        "@id": "way/297708936",
        "man_made": "pier"
      },
      "geometry": {
        "type": "LineString",
        "coordinates": [
          [
            -9.1708468,
            38.7007562
          ],
          [
            -9.1709919,
            38.7007298
          ],
          [
            -9.1711066,
            38.700709
          ]
        ]
      },
      "id": "way/297708936"
    },
    {
      "type": "Feature",
      "properties": {
        "@id": "way/297708937",
        "man_made": "pier"
      },
      "geometry": {
        "type": "LineString",
        "coordinates": [
          [
            -9.1673239,
            38.7023423
          ],
          [
            -9.1673172,
            38.7023217
          ],
          [
            -9.1673924,
            38.702309
          ]
        ]
      },
      "id": "way/297708937"
    },
    {
      "type": "Feature",
      "properties": {
        "@id": "way/297708938",
        "man_made": "pier"
      },
      "geometry": {
        "type": "LineString",
        "coordinates": [
          [
            -9.1676362,
            38.7013292
          ],
          [
            -9.1677113,
            38.7013155
          ],
          [
            -9.1678012,
            38.7012991
          ]
        ]
      },
      "id": "way/297708938"
    },
    {
      "type": "Feature",
      "properties": {
        "@id": "way/297708939",
        "man_made": "pier"
      },
      "geometry": {
        "type": "LineString",
        "coordinates": [
          [
            -9.1714562,
            38.7006272
          ],
          [
            -9.1715556,
            38.7006091
          ],
          [
            -9.1716858,
            38.7005854
          ]
        ]
      },
      "id": "way/297708939"
    },
    {
      "type": "Feature",
      "properties": {
        "@id": "way/297708941",
        "man_made": "pier"
      },
      "geometry": {
        "type": "LineString",
        "coordinates": [
          [
            -9.1686228,
            38.7011455
          ],
          [
            -9.1687456,
            38.7011231
          ],
          [
            -9.1688906,
            38.7010967
          ]
        ]
      },
      "id": "way/297708941"
    },
    {
      "type": "Feature",
      "properties": {
        "@id": "way/297708943",
        "man_made": "pier"
      },
      "geometry": {
        "type": "LineString",
        "coordinates": [
          [
            -9.1705737,
            38.7005612
          ],
          [
            -9.1720458,
            38.7002903
          ],
          [
            -9.1723002,
            38.7003745
          ],
          [
            -9.1725156,
            38.7011299
          ]
        ]
      },
      "id": "way/297708943"
    },
    {
      "type": "Feature",
      "properties": {
        "@id": "way/297708945",
        "man_made": "pier"
      },
      "geometry": {
        "type": "LineString",
        "coordinates": [
          [
            -9.1661485,
            38.7013656
          ],
          [
            -9.1668045,
            38.7012541
          ],
          [
            -9.1668022,
            38.7012445
          ],
          [
            -9.1669427,
            38.7012187
          ],
          [
            -9.1669351,
            38.7011972
          ]
        ]
      },
      "id": "way/297708945"
    },
    {
      "type": "Feature",
      "properties": {
        "@id": "way/522040122",
        "bicycle": "dismount",
        "bridge": "yes",
        "highway": "footway",
        "layer": "1",
        "man_made": "pier",
        "surface": "metal"
      },
      "geometry": {
        "type": "LineString",
        "coordinates": [
          [
            -9.1458602,
            38.7048156
          ],
          [
            -9.1457508,
            38.7044519
          ],
          [
            -9.1458582,
            38.7044322
          ],
          [
            -9.1458431,
            38.7043741
          ]
        ]
      },
      "id": "way/522040122"
    },
    {
      "type": "Feature",
      "properties": {
        "@id": "way/522040123",
        "bicycle": "dismount",
        "bridge": "yes",
        "highway": "footway",
        "layer": "1",
        "man_made": "pier",
        "surface": "metal"
      },
      "geometry": {
        "type": "LineString",
        "coordinates": [
          [
            -9.1447303,
            38.705017
          ],
          [
            -9.1446202,
            38.704645
          ],
          [
            -9.1445163,
            38.704663
          ],
          [
            -9.1445033,
            38.7046136
          ]
        ]
      },
      "id": "way/522040123"
    },
    {
      "type": "Feature",
      "properties": {
        "@id": "way/522040124",
        "bicycle": "dismount",
        "bridge": "yes",
        "highway": "footway",
        "layer": "1",
        "man_made": "pier",
        "surface": "metal"
      },
      "geometry": {
        "type": "LineString",
        "coordinates": [
          [
            -9.1452948,
            38.7049167
          ],
          [
            -9.1451722,
            38.704494
          ]
        ]
      },
      "id": "way/522040124"
    },
    {
      "type": "Feature",
      "properties": {
        "@id": "way/678703059",
        "bicycle": "yes",
        "bridge": "yes",
        "foot": "yes",
        "highway": "footway",
        "layer": "1",
        "man_made": "pier"
      },
      "geometry": {
        "type": "LineString",
        "coordinates": [
          [
            -9.1334308,
            38.7062885
          ],
          [
            -9.1335673,
            38.7065673
          ]
        ]
      },
      "id": "way/678703059"
    },
    {
      "type": "Feature",
      "properties": {
        "@id": "way/705748791",
        "bridge": "yes",
        "highway": "footway",
        "layer": "1",
        "man_made": "pier",
        "name": "Cais da Ribeira das Naus",
        "surface": "wood"
      },
      "geometry": {
        "type": "LineString",
        "coordinates": [
          [
            -9.1423033,
            38.7048881
          ],
          [
            -9.1423295,
            38.7049497
          ],
          [
            -9.1424952,
            38.7052828
          ]
        ]
      },
      "id": "way/705748791"
    },
    {
      "type": "Feature",
      "properties": {
        "@id": "way/705748792",
        "bicycle": "yes",
        "bridge": "yes",
        "foot": "yes",
        "highway": "footway",
        "layer": "1",
        "man_made": "pier"
      },
      "geometry": {
        "type": "LineString",
        "coordinates": [
          [
            -9.1329204,
            38.7067578
          ],
          [
            -9.1327832,
            38.7064851
          ]
        ]
      },
      "id": "way/705748792"
    },
    {
      "type": "Feature",
      "properties": {
        "@id": "way/714594687",
        "man_made": "pier"
      },
      "geometry": {
        "type": "LineString",
        "coordinates": [
          [
            -9.1480211,
            38.7052319
          ],
          [
            -9.1478936,
            38.7054208
          ]
        ]
      },
      "id": "way/714594687"
    },
    {
      "type": "Feature",
      "properties": {
        "@id": "way/714594690",
        "man_made": "pier"
      },
      "geometry": {
        "type": "LineString",
        "coordinates": [
          [
            -9.1484285,
            38.7053944
          ],
          [
            -9.1483006,
            38.7055868
          ]
        ]
      },
      "id": "way/714594690"
    },
    {
      "type": "Feature",
      "properties": {
        "@id": "way/823713249",
        "bicycle": "no",
        "bridge": "yes",
        "covered": "no",
        "floating": "yes",
        "foot": "yes",
        "highway": "footway",
        "layer": "1",
        "lit": "yes",
        "man_made": "pier",
        "motor_vehicle": "no",
        "name": "Cais 2",
        "surface": "wood"
      },
      "geometry": {
        "type": "LineString",
        "coordinates": [
          [
            -9.1340963,
            38.7060856
          ],
          [
            -9.1342317,
            38.7063464
          ]
        ]
      },
      "id": "way/823713249"
    },
    {
      "type": "Feature",
      "properties": {
        "@id": "way/919793142",
        "bicycle": "yes",
        "bridge": "yes",
        "covered": "no",
        "floating": "yes",
        "foot": "yes",
        "highway": "footway",
        "layer": "1",
        "lit": "yes",
        "man_made": "pier",
        "motor_vehicle": "no",
        "name": "Cais 1",
        "surface": "wood"
      },
      "geometry": {
        "type": "LineString",
        "coordinates": [
          [
            -9.134626,
            38.706267
          ],
          [
            -9.134632,
            38.705928
          ]
        ]
      },
      "id": "way/919793142"
    },
    {
      "type": "Feature",
      "properties": {
        "@id": "way/945300209",
        "bicycle": "no",
        "bridge": "yes",
        "covered": "no",
        "floating": "yes",
        "foot": "yes",
        "highway": "footway",
        "layer": "1",
        "lit": "yes",
        "man_made": "pier",
        "motor_vehicle": "no",
        "name": "Cais 3",
        "surface": "wood"
      },
      "geometry": {
        "type": "LineString",
        "coordinates": [
          [
            -9.134859,
            38.7062071
          ],
          [
            -9.1351356,
            38.7061349
          ],
          [
            -9.1351802,
            38.7062382
          ],
          [
            -9.1352181,
            38.7062282
          ]
        ]
      },
      "id": "way/945300209"
    },
    {
      "type": "Feature",
      "properties": {
        "@id": "way/949695960",
        "bicycle": "yes",
        "bridge": "yes",
        "foot": "yes",
        "highway": "footway",
        "layer": "1",
        "man_made": "pier"
      },
      "geometry": {
        "type": "LineString",
        "coordinates": [
          [
            -9.1324616,
            38.7068921
          ],
          [
            -9.1321916,
            38.7066589
          ]
        ]
      },
      "id": "way/949695960"
    },
    {
      "type": "Feature",
      "properties": {
        "@id": "way/1046903846",
        "floating": "yes",
        "man_made": "pier"
      },
      "geometry": {
        "type": "LineString",
        "coordinates": [
          [
            -9.1302864,
            38.708204
          ],
          [
            -9.1303957,
            38.7083442
          ],
          [
            -9.1295137,
            38.7087114
          ]
        ]
      },
      "id": "way/1046903846"
    },
    {
      "type": "Feature",
      "properties": {
        "@id": "way/1046903847",
        "floating": "yes",
        "man_made": "pier"
      },
      "geometry": {
        "type": "LineString",
        "coordinates": [
          [
            -9.129803,
            38.7083752
          ],
          [
            -9.1297523,
            38.7083054
          ],
          [
            -9.1297019,
            38.7082359
          ],
          [
            -9.1296439,
            38.7081559
          ]
        ]
      },
      "id": "way/1046903847"
    },
    {
      "type": "Feature",
      "properties": {
        "@id": "way/1046903848",
        "floating": "yes",
        "man_made": "pier"
      },
      "geometry": {
        "type": "LineString",
        "coordinates": [
          [
            -9.1305774,
            38.7080889
          ],
          [
            -9.130387,
            38.7078272
          ],
          [
            -9.1296439,
            38.7081559
          ],
          [
            -9.1292518,
            38.7083294
          ]
        ]
      },
      "id": "way/1046903848"
    },
    {
      "type": "Feature",
      "properties": {
        "@id": "way/1046903849",
        "floating": "yes",
        "man_made": "pier"
      },
      "geometry": {
        "type": "LineString",
        "coordinates": [
          [
            -9.1298063,
            38.7081904
          ],
          [
            -9.1297019,
            38.7082359
          ],
          [
            -9.1295877,
            38.7082856
          ]
        ]
      },
      "id": "way/1046903849"
    },
    {
      "type": "Feature",
      "properties": {
        "@id": "way/1046903850",
        "floating": "yes",
        "man_made": "pier"
      },
      "geometry": {
        "type": "LineString",
        "coordinates": [
          [
            -9.1296387,
            38.7083526
          ],
          [
            -9.1297523,
            38.7083054
          ],
          [
            -9.1298653,
            38.7082584
          ]
        ]
      },
      "id": "way/1046903850"
    },
    {
      "type": "Feature",
      "properties": {
        "@id": "way/1046903851",
        "floating": "yes",
        "man_made": "pier"
      },
      "geometry": {
        "type": "LineString",
        "coordinates": [
          [
            -9.1299082,
            38.7083306
          ],
          [
            -9.129803,
            38.7083752
          ],
          [
            -9.1296883,
            38.7084237
          ]
        ]
      },
      "id": "way/1046903851"
    },
    {
      "type": "Feature",
      "properties": {
        "@id": "way/1384927885",
        "man_made": "pier"
      },
      "geometry": {
        "type": "LineString",
        "coordinates": [
          [
            -9.1657763,
            38.7025875
          ],
          [
            -9.1656913,
            38.7022674
          ]
        ]
      },
      "id": "way/1384927885"
    },
    {
      "type": "Feature",
      "properties": {
        "@id": "way/1384927886",
        "man_made": "pier"
      },
      "geometry": {
        "type": "LineString",
        "coordinates": [
          [
            -9.165429,
            38.7026526
          ],
          [
            -9.1653314,
            38.7023334
          ]
        ]
      },
      "id": "way/1384927886"
    },
    {
      "type": "Feature",
      "properties": {
        "@id": "way/1384927887",
        "man_made": "pier"
      },
      "geometry": {
        "type": "LineString",
        "coordinates": [
          [
            -9.1650503,
            38.7027208
          ],
          [
            -9.1649558,
            38.7024022
          ]
        ]
      },
      "id": "way/1384927887"
    },
    {
      "type": "Feature",
      "properties": {
        "@id": "way/1384927888",
        "man_made": "pier"
      },
      "geometry": {
        "type": "LineString",
        "coordinates": [
          [
            -9.1646914,
            38.7027803
          ],
          [
            -9.1645933,
            38.7024648
          ]
        ]
      },
      "id": "way/1384927888"
    }
  ]
}