{
  "type": "FeatureCollection",
  "generator": "overpass-turbo",
  "copyright": "The data included in this document is from www.openstreetmap.org. The data is made available under ODbL.",
  "timestamp": "2026-07-31T14:17:51Z",
  "features": [
    {
      "type": "Feature",
      "properties": {
        "@id": "way/108385897",
        "alt_name": "Terminal Petroleiro",
        "floating": "no",
        "fuel": "yes",
        "landuse": "industrial",
        "lit": "yes",
        "man_made": "pier",
        "name": "Terminal Petrolífero",
        "operator": "Galp"
      },
      "geometry": {
        "type": "Polygon",
        "coordinates": [
          [
            [
              -8.7101003,
              41.1843221
            ],
            [
              -8.7101948,
              41.18392
            ],
            [
              -8.7102493,
              41.1838753
            ],
            [
              -8.7102946,
              41.1836975
            ],
            [
              -8.7102666,
              41.1836465
            ],
            [
              -8.7106469,
              41.1821421
            ],
            [
              -8.7106932,
              41.1821062
            ],
            [
              -8.7107393,
              41.181928
            ],
            [
              -8.7107131,
              41.1818829
            ],
            [
              -8.7109296,
              41.1810315
            ],
            [
              -8.7109472,
              41.1809625
            ],
            [
              -8.7109206,
              41.1809581
            ],
            [
              -8.7108956,
              41.180954
            ],
            [
              -8.7108009,
              41.1809383
            ],
            [
              -8.7106688,
              41.1814532
            ],
            [
              -8.7106407,
              41.1814493
            ],
            [
              -8.7106152,
              41.1815511
            ],
            [
              -8.7106403,
              41.181554
            ],
            [
              -8.7105289,
              41.1819686
            ],
            [
              -8.7104942,
              41.1819637
            ],
            [
              -8.7104154,
              41.1819526
            ],
            [
              -8.7104203,
              41.1819326
            ],
            [
              -8.7103797,
              41.181927
            ],
            [
              -8.710416,
              41.1817629
            ],
            [
              -8.7102867,
              41.1817449
            ],
            [
              -8.7102268,
              41.1819989
            ],
            [
              -8.7101907,
              41.1821518
            ],
            [
              -8.7101344,
              41.1823903
            ],
            [
              -8.7102791,
              41.1823997
            ],
            [
              -8.7102911,
              41.1822548
            ],
            [
              -8.710405,
              41.182272
            ],
            [
              -8.7103038,
              41.182683
            ],
            [
              -8.7102595,
              41.182677
            ],
            [
              -8.7102354,
              41.1827785
            ],
            [
              -8.7102792,
              41.1827847
            ],
            [
              -8.710145,
              41.1833042
            ],
            [
              -8.7101009,
              41.1832988
            ],
            [
              -8.7100797,
              41.1833972
            ],
            [
              -8.7101106,
              41.1834024
            ],
            [
              -8.7100851,
              41.1835256
            ],
            [
              -8.7100657,
              41.183523
            ],
            [
              -8.7099841,
              41.1835123
            ],
            [
              -8.7099954,
              41.1834573
            ],
            [
              -8.7099002,
              41.1834468
            ],
            [
              -8.7098953,
              41.1834721
            ],
            [
              -8.7098322,
              41.1834645
            ],
            [
              -8.7098164,
              41.1835387
            ],
            [
              -8.7097963,
              41.1836329
            ],
            [
              -8.7097863,
              41.1836798
            ],
            [
              -8.7097555,
              41.1838238
            ],
            [
              -8.7099999,
              41.183852
            ],
            [
              -8.7098936,
              41.184275
            ],
            [
              -8.7101003,
              41.1843221
            ]
          ]
        ]
      },
      "id": "way/108385897"
    },
    {
      "type": "Feature",
      "properties": {
        "@id": "way/155057705",
        "area": "yes",
        "floating": "yes",
        "industrial": "oil",
        "landuse": "industrial",
        "layer": "1",
        "lit": "yes",
        "man_made": "pier",
        "mooring": "yes",
        "name": "Posto A",
        "operator": "Galp",
        "source": "Bing"
      },
      "geometry": {
        "type": "Polygon",
        "coordinates": [
          [
            [
              -8.7082906,
              41.1747374
            ],
            [
              -8.7082452,
              41.1746296
            ],
            [
              -8.7080846,
              41.1746679
            ],
            [
              -8.70813,
              41.1747757
            ],
            [
              -8.7082345,
              41.1747508
            ],
            [
              -8.7082945,
              41.1748882
            ],
            [
              -8.7081675,
              41.1749196
            ],
            [
              -8.7082189,
              41.1750378
            ],
            [
              -8.7082267,
              41.1750557
            ],
            [
              -8.708236,
              41.175077
            ],
            [
              -8.7082443,
              41.175096
            ],
            [
              -8.7082552,
              41.1751212
            ],
            [
              -8.7082877,
              41.1751958
            ],
            [
              -8.7082979,
              41.1751934
            ],
            [
              -8.7083105,
              41.1752233
            ],
            [
              -8.7083167,
              41.1752218
            ],
            [
              -8.7083823,
              41.1753592
            ],
            [
              -8.7083672,
              41.1753629
            ],
            [
              -8.70841,
              41.1754641
            ],
            [
              -8.7085727,
              41.1754252
            ],
            [
              -8.7085299,
              41.1753239
            ],
            [
              -8.7084219,
              41.1753498
            ],
            [
              -8.7083608,
              41.1752185
            ],
            [
              -8.7084449,
              41.1751948
            ],
            [
              -8.7084373,
              41.1751784
            ],
            [
              -8.7085129,
              41.1751585
            ],
            [
              -8.708495,
              41.1751137
            ],
            [
              -8.708807,
              41.1750392
            ],
            [
              -8.7087855,
              41.1749904
            ],
            [
              -8.7087759,
              41.1749684
            ],
            [
              -8.7087678,
              41.1749499
            ],
            [
              -8.7087578,
              41.1749272
            ],
            [
              -8.7087487,
              41.1749066
            ],
            [
              -8.7087392,
              41.174885
            ],
            [
              -8.7087071,
              41.1748119
            ],
            [
              -8.708327,
              41.1748964
            ],
            [
              -8.7082589,
              41.1747449
            ],
            [
              -8.7082906,
              41.1747374
            ]
          ]
        ]
      },
      "id": "way/155057705"
    },
    {
      "type": "Feature",
      "properties": {
        "@id": "way/160504168",
        "man_made": "pier"
      },
      "geometry": {
        "type": "Polygon",
        "coordinates": [
          [
            [
              -8.6977176,
              41.1824535
            ],
            [
              -8.7001385,
              41.181162
            ],
            [
              -8.7004328,
              41.1810857
            ],
            [
              -8.7006772,
              41.1809548
            ],
            [
              -8.7004781,
              41.1807304
            ],
            [
              -8.7002283,
              41.1808639
            ],
            [
              -8.7000354,
              41.1810501
            ],
            [
              -8.6983075,
              41.181973
            ],
            [
              -8.6981805,
              41.182045
            ],
            [
              -8.6979397,
              41.1821816
            ],
            [
              -8.6978267,
              41.1822456
            ],
            [
              -8.6976274,
              41.1823553
            ],
            [
              -8.6977176,
              41.1824535
            ]
          ]
        ]
      },
      "id": "way/160504168"
    },
    {
      "type": "Feature",
      "properties": {
        "@id": "way/160504340",
        "man_made": "pier"
      },
      "geometry": {
        "type": "Polygon",
        "coordinates": [
          [
            [
              -8.6988486,
              41.1836691
            ],
            [
              -8.6989508,
              41.1837813
            ],
            [
              -8.7008889,
              41.1827491
            ],
            [
              -8.701189,
              41.1826703
            ],
            [
              -8.7014361,
              41.1825394
            ],
            [
              -8.7012289,
              41.1823222
            ],
            [
              -8.7012152,
              41.1823223
            ],
            [
              -8.7009812,
              41.1824493
            ],
            [
              -8.7007922,
              41.1826348
            ],
            [
              -8.6988486,
              41.1836691
            ]
          ]
        ]
      },
      "id": "way/160504340"
    },
    {
      "type": "Feature",
      "properties": {
        "@id": "way/160504341",
        "man_made": "pier"
      },
      "geometry": {
        "type": "Polygon",
        "coordinates": [
          [
            [
              -8.7005193,
              41.1819524
            ],
            [
              -8.7008249,
              41.1818734
            ],
            [
              -8.7010577,
              41.1817466
            ],
            [
              -8.7008492,
              41.181525
            ],
            [
              -8.7006004,
              41.1816581
            ],
            [
              -8.7004178,
              41.1818378
            ],
            [
              -8.6990569,
              41.1825662
            ],
            [
              -8.6990355,
              41.1825441
            ],
            [
              -8.6983762,
              41.1828948
            ],
            [
              -8.6983836,
              41.1829014
            ],
            [
              -8.6982919,
              41.1829482
            ],
            [
              -8.6983079,
              41.1829661
            ],
            [
              -8.6982301,
              41.1830076
            ],
            [
              -8.6983567,
              41.1831326
            ],
            [
              -8.7005193,
              41.1819524
            ]
          ]
        ]
      },
      "id": "way/160504341"
    },
    {
      "type": "Feature",
      "properties": {
        "@id": "way/972898590",
        "man_made": "pier"
      },
      "geometry": {
        "type": "Polygon",
        "coordinates": [
          [
            [
              -8.7039231,
              41.186701
            ],
            [
              -8.7039345,
              41.1866944
            ],
            [
              -8.7040179,
              41.1866463
            ],
            [
              -8.7040334,
              41.1866374
            ],
            [
              -8.7040429,
              41.1866324
            ],
            [
              -8.7036558,
              41.1862916
            ],
            [
              -8.7037041,
              41.1862616
            ],
            [
              -8.7036143,
              41.1861799
            ],
            [
              -8.703578,
              41.1862025
            ],
            [
              -8.7034479,
              41.186084
            ],
            [
              -8.7034812,
              41.1860633
            ],
            [
              -8.7033807,
              41.1859717
            ],
            [
              -8.7033185,
              41.1860104
            ],
            [
              -8.7032565,
              41.1860489
            ],
            [
              -8.7032325,
              41.1860638
            ],
            [
              -8.7039231,
              41.186701
            ]
          ]
        ]
      },
      "id": "way/972898590"
    },
    {
      "type": "Feature",
      "properties": {
        "@id": "way/155057691",
        "man_made": "pier"
      },
      "geometry": {
        "type": "LineString",
        "coordinates": [
          [
            -8.7054592,
            41.1869759
          ],
          [
            -8.7042991,
            41.1859131
          ]
        ]
      },
      "id": "way/155057691"
    },
    {
      "type": "Feature",
      "properties": {
        "@id": "way/155057697",
        "man_made": "pier"
      },
      "geometry": {
        "type": "LineString",
        "coordinates": [
          [
            -8.7058244,
            41.1867844
          ],
          [
            -8.7046498,
            41.1857149
          ]
        ]
      },
      "id": "way/155057697"
    },
    {
      "type": "Feature",
      "properties": {
        "@id": "way/155057701",
        "man_made": "pier"
      },
      "geometry": {
        "type": "LineString",
        "coordinates": [
          [
            -8.704739,
            41.185663
          ],
          [
            -8.7046498,
            41.1857149
          ],
          [
            -8.704562,
            41.1857659
          ]
        ]
      },
      "id": "way/155057701"
    },
    {
      "type": "Feature",
      "properties": {
        "@id": "way/155057703",
        "man_made": "pier"
      },
      "geometry": {
        "type": "LineString",
        "coordinates": [
          [
            -8.7043866,
            41.1858609
          ],
          [
            -8.7042991,
            41.1859131
          ],
          [
            -8.7042119,
            41.185965
          ]
        ]
      },
      "id": "way/155057703"
    },
    {
      "type": "Feature",
      "properties": {
        "@id": "way/972898576",
        "man_made": "pier"
      },
      "geometry": {
        "type": "LineString",
        "coordinates": [
          [
            -8.7039003,
            41.1861555
          ],
          [
            -8.7039998,
            41.1860915
          ],
          [
            -8.7040826,
            41.1860382
          ]
        ]
      },
      "id": "way/972898576"
    },
    {
      "type": "Feature",
      "properties": {
        "@id": "way/972898577",
        "man_made": "pier"
      },
      "geometry": {
        "type": "LineString",
        "coordinates": [
          [
            -8.7039998,
            41.1860915
          ],
          [
            -8.7051402,
            41.1871432
          ]
        ]
      },
      "id": "way/972898577"
    },
    {
      "type": "Feature",
      "properties": {
        "@id": "way/972898579",
        "man_made": "pier"
      },
      "geometry": {
        "type": "LineString",
        "coordinates": [
          [
            -8.7062347,
            41.1865692
          ],
          [
            -8.706141,
            41.1864838
          ],
          [
            -8.7049372,
            41.1853877
          ]
        ]
      },
      "id": "way/972898579"
    },
    {
      "type": "Feature",
      "properties": {
        "@id": "way/972898581",
        "man_made": "pier"
      },
      "geometry": {
        "type": "LineString",
        "coordinates": [
          [
            -8.7057868,
            41.1868041
          ],
          [
            -8.7057755,
            41.186794
          ],
          [
            -8.7054843,
            41.1869409
          ]
        ]
      },
      "id": "way/972898581"
    },
    {
      "type": "Feature",
      "properties": {
        "@id": "way/972898582",
        "man_made": "pier"
      },
      "geometry": {
        "type": "LineString",
        "coordinates": [
          [
            -8.705894,
            41.1867323
          ],
          [
            -8.706192,
            41.1865687
          ],
          [
            -8.7061206,
            41.186495
          ],
          [
            -8.706141,
            41.1864838
          ]
        ]
      },
      "id": "way/972898582"
    },
    {
      "type": "Feature",
      "properties": {
        "@id": "way/972898584",
        "man_made": "pier"
      },
      "geometry": {
        "type": "LineString",
        "coordinates": [
          [
            -8.704037,
            41.1855231
          ],
          [
            -8.7038322,
            41.1856315
          ],
          [
            -8.7035969,
            41.1857561
          ]
        ]
      },
      "id": "way/972898584"
    },
    {
      "type": "Feature",
      "properties": {
        "@id": "way/972898587",
        "man_made": "pier"
      },
      "geometry": {
        "type": "LineString",
        "coordinates": [
          [
            -8.7039033,
            41.1855609
          ],
          [
            -8.7038587,
            41.1855849
          ],
          [
            -8.7038115,
            41.1856103
          ],
          [
            -8.703723,
            41.185658
          ]
        ]
      },
      "id": "way/972898587"
    },
    {
      "type": "Feature",
      "properties": {
        "@id": "way/972898588",
        "man_made": "pier"
      },
      "geometry": {
        "type": "LineString",
        "coordinates": [
          [
            -8.7038115,
            41.1856103
          ],
          [
            -8.7038322,
            41.1856315
          ]
        ]
      },
      "id": "way/972898588"
    },
    {
      "type": "Feature",
      "properties": {
        "@id": "way/972898593",
        "man_made": "pier"
      },
      "geometry": {
        "type": "LineString",
        "coordinates": [
          [
            -8.7049172,
            41.1870375
          ],
          [
            -8.7047546,
            41.1871358
          ],
          [
            -8.7047308,
            41.1871502
          ],
          [
            -8.7047086,
            41.1871636
          ],
          [
            -8.7046396,
            41.1872053
          ],
          [
            -8.7040334,
            41.1866374
          ]
        ]
      },
      "id": "way/972898593"
    },
    {
      "type": "Feature",
      "properties": {
        "@id": "way/972898594",
        "man_made": "pier"
      },
      "geometry": {
        "type": "LineString",
        "coordinates": [
          [
            -8.7047546,
            41.1871358
          ],
          [
            -8.7046523,
            41.1870484
          ],
          [
            -8.7046954,
            41.1870199
          ],
          [
            -8.7045982,
            41.1869369
          ],
          [
            -8.704559,
            41.1869629
          ],
          [
            -8.7045317,
            41.1869397
          ],
          [
            -8.7044836,
            41.1869717
          ],
          [
            -8.7047086,
            41.1871636
          ]
        ]
      },
      "id": "way/972898594"
    },
    {
      "type": "Feature",
      "properties": {
        "@id": "way/972898595",
        "man_made": "pier"
      },
      "geometry": {
        "type": "LineString",
        "coordinates": [
          [
            -8.7047308,
            41.1871502
          ],
          [
            -8.7047417,
            41.1871574
          ]
        ]
      },
      "id": "way/972898595"
    },
    {
      "type": "Feature",
      "properties": {
        "@id": "way/972962236",
        "man_made": "pier"
      },
      "geometry": {
        "type": "LineString",
        "coordinates": [
          [
            -8.7069045,
            41.1859176
          ],
          [
            -8.7067656,
            41.1857763
          ]
        ]
      },
      "id": "way/972962236"
    },
    {
      "type": "Feature",
      "properties": {
        "@id": "way/972962237",
        "man_made": "pier"
      },
      "geometry": {
        "type": "LineString",
        "coordinates": [
          [
            -8.706721,
            41.1860155
          ],
          [
            -8.7067024,
            41.1859951
          ],
          [
            -8.7066786,
            41.1859689
          ],
          [
            -8.7066603,
            41.1859488
          ]
        ]
      },
      "id": "way/972962237"
    },
    {
      "type": "Feature",
      "properties": {
        "@id": "way/972962238",
        "man_made": "pier"
      },
      "geometry": {
        "type": "LineString",
        "coordinates": [
          [
            -8.7066786,
            41.1859689
          ],
          [
            -8.7067645,
            41.1859224
          ],
          [
            -8.7067539,
            41.1859112
          ],
          [
            -8.7068151,
            41.1858781
          ],
          [
            -8.7068528,
            41.1859176
          ],
          [
            -8.7068695,
            41.1859351
          ],
          [
            -8.706721,
            41.1860155
          ]
        ]
      },
      "id": "way/972962238"
    },
    {
      "type": "Feature",
      "properties": {
        "@id": "way/972962239",
        "man_made": "pier"
      },
      "geometry": {
        "type": "LineString",
        "coordinates": [
          [
            -8.7062833,
            41.186237
          ],
          [
            -8.7062851,
            41.1862099
          ],
          [
            -8.7062869,
            41.1861818
          ],
          [
            -8.7064187,
            41.1861166
          ],
          [
            -8.7064571,
            41.1861222
          ],
          [
            -8.7064983,
            41.1861282
          ]
        ]
      },
      "id": "way/972962239"
    },
    {
      "type": "Feature",
      "properties": {
        "@id": "way/1382918760",
        "man_made": "pier"
      },
      "geometry": {
        "type": "LineString",
        "coordinates": [
          [
            -8.6979397,
            41.1821816
          ],
          [
            -8.6977058,
            41.1819468
          ]
        ]
      },
      "id": "way/1382918760"
    },
    {
      "type": "Feature",
      "properties": {
        "@id": "way/1382918761",
        "man_made": "pier"
      },
      "geometry": {
        "type": "LineString",
        "coordinates": [
          [
            -8.6981805,
            41.182045
          ],
          [
            -8.6980307,
            41.1818898
          ]
        ]
      },
      "id": "way/1382918761"
    }
  ]
}