{
  "type": "FeatureCollection",
  "generator": "overpass-turbo",
  "copyright": "The data included in this document is from www.openstreetmap.org. The data is made available under ODbL.",
  "timestamp": "2026-07-31T14:12:41Z",
  "features": [
    {
      "type": "Feature",
      "properties": {
        "@id": "relation/9719051",
        "area": "yes",
        "man_made": "pier",
        "type": "multipolygon"
      },
      "geometry": {
        "type": "Polygon",
        "coordinates": [
          [
            [
              -8.9009554,
              38.4944891
            ],
            [
              -8.9010975,
              38.4944813
            ],
            [
              -8.9011084,
              38.4944762
            ],
            [
              -8.9011111,
              38.49447
            ],
            [
              -8.9014302,
              38.4945074
            ],
            [
              -8.9014296,
              38.4945176
            ],
            [
              -8.901437,
              38.4945197
            ],
            [
              -8.9014344,
              38.4945398
            ],
            [
              -8.9014986,
              38.4945473
            ],
            [
              -8.9015087,
              38.4944881
            ],
            [
              -8.9015213,
              38.4944247
            ],
            [
              -8.9014573,
              38.4944186
            ],
            [
              -8.9014526,
              38.4944364
            ],
            [
              -8.9014454,
              38.4944355
            ],
            [
              -8.9014441,
              38.4944459
            ],
            [
              -8.9012102,
              38.494417
            ],
            [
              -8.9011193,
              38.4944092
            ],
            [
              -8.901119,
              38.4943996
            ],
            [
              -8.9011011,
              38.4943907
            ],
            [
              -8.9010881,
              38.4943853
            ],
            [
              -8.9010709,
              38.4943846
            ],
            [
              -8.9010636,
              38.4943744
            ],
            [
              -8.9011801,
              38.4943887
            ],
            [
              -8.9011799,
              38.4943779
            ],
            [
              -8.9010704,
              38.4943633
            ],
            [
              -8.9009988,
              38.4942575
            ],
            [
              -8.9009802,
              38.494027
            ],
            [
              -8.9009609,
              38.4937868
            ],
            [
              -8.9009463,
              38.493551
            ],
            [
              -8.9009425,
              38.4933473
            ],
            [
              -8.9009424,
              38.4933298
            ],
            [
              -8.9009421,
              38.493275
            ],
            [
              -8.9007752,
              38.4932766
            ],
            [
              -8.9007756,
              38.4933509
            ],
            [
              -8.9007935,
              38.4933573
            ],
            [
              -8.9008043,
              38.4935556
            ],
            [
              -8.9007829,
              38.4935569
            ],
            [
              -8.9007862,
              38.4936065
            ],
            [
              -8.900809,
              38.4936063
            ],
            [
              -8.9008198,
              38.4937503
            ],
            [
              -8.9008236,
              38.4937503
            ],
            [
              -8.9008259,
              38.4937809
            ],
            [
              -8.9008382,
              38.494032
            ],
            [
              -8.9008403,
              38.4940759
            ],
            [
              -8.9008458,
              38.4941268
            ],
            [
              -8.9008605,
              38.4942643
            ],
            [
              -8.9008029,
              38.4943809
            ],
            [
              -8.9007808,
              38.4943759
            ],
            [
              -8.9007644,
              38.4944087
            ],
            [
              -8.9007552,
              38.4944158
            ],
            [
              -8.9007572,
              38.4944287
            ],
            [
              -8.9004406,
              38.4944861
            ],
            [
              -8.9004375,
              38.4944749
            ],
            [
              -8.900428,
              38.4944759
            ],
            [
              -8.9004224,
              38.4944582
            ],
            [
              -8.9003501,
              38.4944761
            ],
            [
              -8.9003907,
              38.4945936
            ],
            [
              -8.9004556,
              38.4945788
            ],
            [
              -8.900454,
              38.4945633
            ],
            [
              -8.9004598,
              38.49456
            ],
            [
              -8.9004578,
              38.4945455
            ],
            [
              -8.9007686,
              38.4944901
            ],
            [
              -8.9007694,
              38.4944952
            ],
            [
              -8.9007852,
              38.4944984
            ],
            [
              -8.900907,
              38.4944917
            ],
            [
              -8.9009251,
              38.4944907
            ],
            [
              -8.9009401,
              38.4944899
            ],
            [
              -8.9009554,
              38.4944891
            ]
          ]
        ]
      },
      "id": "relation/9719051"
    },
    {
      "type": "Feature",
      "properties": {
        "@id": "relation/9719052",
        "area": "yes",
        "man_made": "pier",
        "type": "multipolygon"
      },
      "geometry": {
        "type": "Polygon",
        "coordinates": [
          [
            [
              -8.9018531,
              38.4933423
            ],
            [
              -8.9018229,
              38.4933425
            ],
            [
              -8.9017927,
              38.4933427
            ],
            [
              -8.9017938,
              38.493379
            ],
            [
              -8.9018231,
              38.4933784
            ],
            [
              -8.9018541,
              38.4933779
            ],
            [
              -8.9018531,
              38.4933423
            ]
          ]
        ]
      },
      "id": "relation/9719052"
    },
    {
      "type": "Feature",
      "properties": {
        "@id": "relation/9719058",
        "floating": "yes",
        "man_made": "pier",
        "type": "multipolygon"
      },
      "geometry": {
        "type": "Polygon",
        "coordinates": [
          [
            [
              -8.9039359,
              38.4946058
            ],
            [
              -8.9016586,
              38.4943039
            ],
            [
              -8.901208,
              38.4943025
            ],
            [
              -8.9011917,
              38.4943024
            ],
            [
              -8.901192,
              38.4943409
            ],
            [
              -8.9016577,
              38.4943415
            ],
            [
              -8.9039272,
              38.4946428
            ],
            [
              -8.9039359,
              38.4946058
            ]
          ]
        ]
      },
      "id": "relation/9719058"
    },
    {
      "type": "Feature",
      "properties": {
        "@id": "relation/19254005",
        "area": "yes",
        "ferry": "yes",
        "man_made": "pier",
        "public_transport": "platform",
        "type": "multipolygon"
      },
      "geometry": {
        "type": "Polygon",
        "coordinates": [
          [
            [
              -8.9009251,
              38.4944907
            ],
            [
              -8.9009407,
              38.4947451
            ],
            [
              -8.9008276,
              38.4947475
            ],
            [
              -8.9008294,
              38.4947797
            ],
            [
              -8.9007895,
              38.494781
            ],
            [
              -8.9007909,
              38.4948061
            ],
            [
              -8.900772,
              38.4948067
            ],
            [
              -8.9007729,
              38.4948225
            ],
            [
              -8.9009654,
              38.4948158
            ],
            [
              -8.9011683,
              38.4948088
            ],
            [
              -8.9011673,
              38.4947894
            ],
            [
              -8.9011521,
              38.49479
            ],
            [
              -8.9011508,
              38.4947668
            ],
            [
              -8.9011095,
              38.4947683
            ],
            [
              -8.9011078,
              38.4947378
            ],
            [
              -8.9009731,
              38.494743
            ],
            [
              -8.9009554,
              38.4944891
            ],
            [
              -8.9009401,
              38.4944899
            ],
            [
              -8.9009251,
              38.4944907
            ]
          ]
        ]
      },
      "id": "relation/19254005"
    },
    {
      "type": "Feature",
      "properties": {
        "@id": "way/134021411",
        "man_made": "pier",
        "source": "Bing"
      },
      "geometry": {
        "type": "Polygon",
        "coordinates": [
          [
            [
              -8.8359904,
              38.4958479
            ],
            [
              -8.8360963,
              38.4957406
            ],
            [
              -8.8360693,
              38.4957241
            ],
            [
              -8.8364143,
              38.4954247
            ],
            [
              -8.8364912,
              38.4954205
            ],
            [
              -8.8370972,
              38.4958416
            ],
            [
              -8.8371401,
              38.4958039
            ],
            [
              -8.8365323,
              38.4953799
            ],
            [
              -8.8365305,
              38.495324
            ],
            [
              -8.8368451,
              38.4950413
            ],
            [
              -8.836922,
              38.4950385
            ],
            [
              -8.837764,
              38.4956318
            ],
            [
              -8.8378104,
              38.4955926
            ],
            [
              -8.8359674,
              38.4943124
            ],
            [
              -8.8359299,
              38.4943474
            ],
            [
              -8.83677,
              38.4949392
            ],
            [
              -8.8367808,
              38.4949994
            ],
            [
              -8.8364697,
              38.4952764
            ],
            [
              -8.8363893,
              38.495282
            ],
            [
              -8.8357779,
              38.4948623
            ],
            [
              -8.8357386,
              38.4948972
            ],
            [
              -8.8363499,
              38.4953296
            ],
            [
              -8.8363499,
              38.4953897
            ],
            [
              -8.835996,
              38.4956891
            ],
            [
              -8.835365,
              38.4952596
            ],
            [
              -8.835275,
              38.495347
            ],
            [
              -8.8352369,
              38.4953823
            ],
            [
              -8.8359396,
              38.4958756
            ],
            [
              -8.8359904,
              38.4958479
            ]
          ]
        ]
      },
      "id": "way/134021411"
    },
    {
      "type": "Feature",
      "properties": {
        "@id": "way/156374703",
        "floating": "yes",
        "man_made": "pier",
        "mooring": "private"
      },
      "geometry": {
        "type": "Polygon",
        "coordinates": [
          [
            [
              -8.8855912,
              38.5212903
            ],
            [
              -8.8856265,
              38.5212942
            ],
            [
              -8.8856909,
              38.5209434
            ],
            [
              -8.8856183,
              38.5209352
            ],
            [
              -8.8855065,
              38.5215636
            ],
            [
              -8.8855025,
              38.5215857
            ],
            [
              -8.8854987,
              38.5216091
            ],
            [
              -8.885533,
              38.5216131
            ],
            [
              -8.8855374,
              38.5215898
            ],
            [
              -8.8855414,
              38.5215689
            ],
            [
              -8.8855912,
              38.5212903
            ]
          ]
        ]
      },
      "id": "way/156374703"
    },
    {
      "type": "Feature",
      "properties": {
        "@id": "way/156374707",
        "floating": "yes",
        "man_made": "pier",
        "mooring": "private"
      },
      "geometry": {
        "type": "Polygon",
        "coordinates": [
          [
            [
              -8.8850633,
              38.5214959
            ],
            [
              -8.8850707,
              38.5214704
            ],
            [
              -8.885186,
              38.5208992
            ],
            [
              -8.885103,
              38.5208887
            ],
            [
              -8.8850299,
              38.5212422
            ],
            [
              -8.8850701,
              38.5212473
            ],
            [
              -8.8850267,
              38.5214679
            ],
            [
              -8.8850226,
              38.5214897
            ],
            [
              -8.8850633,
              38.5214959
            ]
          ]
        ]
      },
      "id": "way/156374707"
    },
    {
      "type": "Feature",
      "properties": {
        "@id": "way/156381284",
        "man_made": "pier"
      },
      "geometry": {
        "type": "Polygon",
        "coordinates": [
          [
            [
              -8.840801,
              38.4987948
            ],
            [
              -8.8407319,
              38.4987208
            ],
            [
              -8.8406711,
              38.4987615
            ],
            [
              -8.8406074,
              38.4988042
            ],
            [
              -8.8406511,
              38.4988419
            ],
            [
              -8.8406809,
              38.4988676
            ],
            [
              -8.8407406,
              38.4988314
            ],
            [
              -8.840801,
              38.4987948
            ]
          ]
        ]
      },
      "id": "way/156381284"
    },
    {
      "type": "Feature",
      "properties": {
        "@id": "way/156381286",
        "man_made": "pier"
      },
      "geometry": {
        "type": "Polygon",
        "coordinates": [
          [
            [
              -8.8404618,
              38.4986409
            ],
            [
              -8.8405112,
              38.4986093
            ],
            [
              -8.8405518,
              38.4985834
            ],
            [
              -8.8405443,
              38.498527
            ],
            [
              -8.8404858,
              38.4984741
            ],
            [
              -8.8404198,
              38.4984553
            ],
            [
              -8.8403267,
              38.4985235
            ],
            [
              -8.8404618,
              38.4986409
            ]
          ]
        ]
      },
      "id": "way/156381286"
    },
    {
      "type": "Feature",
      "properties": {
        "@id": "way/156381287",
        "man_made": "pier"
      },
      "geometry": {
        "type": "Polygon",
        "coordinates": [
          [
            [
              -8.8408505,
              38.4990062
            ],
            [
              -8.8409811,
              38.4991225
            ],
            [
              -8.8410742,
              38.4990638
            ],
            [
              -8.8410681,
              38.4990145
            ],
            [
              -8.8410036,
              38.4989592
            ],
            [
              -8.8409331,
              38.4989428
            ],
            [
              -8.8408959,
              38.4989713
            ],
            [
              -8.8408505,
              38.4990062
            ]
          ]
        ]
      },
      "id": "way/156381287"
    },
    {
      "type": "Feature",
      "properties": {
        "@id": "way/156520115",
        "area": "yes",
        "ferry": "yes",
        "floating": "yes",
        "lit": "yes",
        "man_made": "pier",
        "mooring": "private",
        "public_transport": "platform"
      },
      "geometry": {
        "type": "Polygon",
        "coordinates": [
          [
            [
              -8.8628381,
              38.4671856
            ],
            [
              -8.8629669,
              38.4672948
            ],
            [
              -8.8630344,
              38.467352
            ],
            [
              -8.8630702,
              38.4673257
            ],
            [
              -8.8631127,
              38.4672955
            ],
            [
              -8.8630306,
              38.4672259
            ],
            [
              -8.8629164,
              38.467129
            ],
            [
              -8.8628721,
              38.467159
            ],
            [
              -8.8628381,
              38.4671856
            ]
          ]
        ]
      },
      "id": "way/156520115"
    },
    {
      "type": "Feature",
      "properties": {
        "@id": "way/160489639",
        "alt_name": "Estaleiros da Mitrena",
        "industrial": "shipyard",
        "landuse": "industrial",
        "name": "Estaleiros da Lisnave",
        "operator": "Lisnave",
        "operator:website": "https://www.lisnave.pt/",
        "wikidata": "Q10318915",
        "wikipedia": "pt:Lisnave"
      },
      "geometry": {
        "type": "Polygon",
        "coordinates": [
          [
            [
              -8.801723,
              38.4803695
            ],
            [
              -8.8015299,
              38.4741205
            ],
            [
              -8.8009076,
              38.4726254
            ],
            [
              -8.8007986,
              38.4723313
            ],
            [
              -8.7987169,
              38.4723494
            ],
            [
              -8.798718,
              38.4741778
            ],
            [
              -8.7978177,
              38.4742045
            ],
            [
              -8.7977404,
              38.4724674
            ],
            [
              -8.7959854,
              38.4724397
            ],
            [
              -8.7892559,
              38.4724382
            ],
            [
              -8.7892491,
              38.4747453
            ],
            [
              -8.7891393,
              38.4749274
            ],
            [
              -8.7883987,
              38.475093
            ],
            [
              -8.7873463,
              38.4730286
            ],
            [
              -8.7875695,
              38.4728829
            ],
            [
              -8.7876245,
              38.472819
            ],
            [
              -8.7876545,
              38.4726681
            ],
            [
              -8.7876445,
              38.4725632
            ],
            [
              -8.7875671,
              38.4725162
            ],
            [
              -8.7872396,
              38.4725374
            ],
            [
              -8.7871703,
              38.4725437
            ],
            [
              -8.787153,
              38.4724201
            ],
            [
              -8.786789,
              38.4724689
            ],
            [
              -8.7867796,
              38.4725002
            ],
            [
              -8.7863244,
              38.4725824
            ],
            [
              -8.7863134,
              38.4725548
            ],
            [
              -8.7860927,
              38.4725846
            ],
            [
              -8.7860802,
              38.4728202
            ],
            [
              -8.7860519,
              38.4729253
            ],
            [
              -8.7861662,
              38.47916
            ],
            [
              -8.7894664,
              38.4791273
            ],
            [
              -8.7910156,
              38.4792734
            ],
            [
              -8.7910742,
              38.4808834
            ],
            [
              -8.7908193,
              38.4808918
            ],
            [
              -8.7908354,
              38.4812256
            ],
            [
              -8.7909937,
              38.4812445
            ],
            [
              -8.7910956,
              38.4813159
            ],
            [
              -8.7910928,
              38.4817863
            ],
            [
              -8.791595,
              38.4821164
            ],
            [
              -8.7917902,
              38.4829831
            ],
            [
              -8.7927108,
              38.4831578
            ],
            [
              -8.7942343,
              38.483141
            ],
            [
              -8.7961869,
              38.4824187
            ],
            [
              -8.7975602,
              38.4822676
            ],
            [
              -8.7988713,
              38.4823784
            ],
            [
              -8.7995343,
              38.4816125
            ],
            [
              -8.8009505,
              38.4809238
            ],
            [
              -8.801723,
              38.4803695
            ]
          ]
        ]
      },
      "id": "way/160489639"
    },
    {
      "type": "Feature",
      "properties": {
        "@id": "way/160489640",
        "dock": "drydock",
        "name": "Doca 21",
        "waterway": "dock"
      },
      "geometry": {
        "type": "Polygon",
        "coordinates": [
          [
            [
              -8.7959529,
              38.4725051
            ],
            [
              -8.7951148,
              38.4725046
            ],
            [
              -8.7951383,
              38.476554
            ],
            [
              -8.7959723,
              38.4765484
            ],
            [
              -8.7959529,
              38.4725051
            ]
          ]
        ]
      },
      "id": "way/160489640"
    },
    {
      "type": "Feature",
      "properties": {
        "@id": "way/160489653",
        "dock": "drydock",
        "name": "Doca 20",
        "waterway": "dock"
      },
      "geometry": {
        "type": "Polygon",
        "coordinates": [
          [
            [
              -8.7960516,
              38.480527
            ],
            [
              -8.7959953,
              38.4766479
            ],
            [
              -8.7951407,
              38.4766583
            ],
            [
              -8.7951744,
              38.4805354
            ],
            [
              -8.7960516,
              38.480527
            ]
          ]
        ]
      },
      "id": "way/160489653"
    },
    {
      "type": "Feature",
      "properties": {
        "@id": "way/160489656",
        "dock": "drydock",
        "name": "Doca 22",
        "waterway": "dock"
      },
      "geometry": {
        "type": "Polygon",
        "coordinates": [
          [
            [
              -8.7948423,
              38.4756386
            ],
            [
              -8.7948344,
              38.4725057
            ],
            [
              -8.7942124,
              38.4725108
            ],
            [
              -8.794232,
              38.4756346
            ],
            [
              -8.7948423,
              38.4756386
            ]
          ]
        ]
      },
      "id": "way/160489656"
    },
    {
      "type": "Feature",
      "properties": {
        "@id": "way/160490153",
        "dock": "drydock",
        "name": "Doca 32",
        "waterway": "dock"
      },
      "geometry": {
        "type": "Polygon",
        "coordinates": [
          [
            [
              -8.7876999,
              38.4778926
            ],
            [
              -8.7881432,
              38.4778226
            ],
            [
              -8.7875044,
              38.4753424
            ],
            [
              -8.7870611,
              38.4754123
            ],
            [
              -8.7876999,
              38.4778926
            ]
          ]
        ]
      },
      "id": "way/160490153"
    },
    {
      "type": "Feature",
      "properties": {
        "@id": "way/160490154",
        "dock": "drydock",
        "name": "Doca 31",
        "waterway": "dock"
      },
      "geometry": {
        "type": "Polygon",
        "coordinates": [
          [
            [
              -8.7893743,
              38.4774952
            ],
            [
              -8.7881781,
              38.475156
            ],
            [
              -8.7877489,
              38.4752946
            ],
            [
              -8.7889479,
              38.4776296
            ],
            [
              -8.7893743,
              38.4774952
            ]
          ]
        ]
      },
      "id": "way/160490154"
    },
    {
      "type": "Feature",
      "properties": {
        "@id": "way/160490155",
        "dock": "drydock",
        "name": "Doca 33",
        "waterway": "dock"
      },
      "geometry": {
        "type": "Polygon",
        "coordinates": [
          [
            [
              -8.7868218,
              38.4754367
            ],
            [
              -8.7863873,
              38.4754401
            ],
            [
              -8.7864204,
              38.4779851
            ],
            [
              -8.7868549,
              38.4779816
            ],
            [
              -8.7868218,
              38.4754367
            ]
          ]
        ]
      },
      "id": "way/160490155"
    },
    {
      "type": "Feature",
      "properties": {
        "@id": "way/178408366",
        "area": "yes",
        "ferry": "yes",
        "floating": "yes",
        "man_made": "pier",
        "mooring": "private",
        "public_transport": "platform"
      },
      "geometry": {
        "type": "Polygon",
        "coordinates": [
          [
            [
              -8.889302,
              38.5205871
            ],
            [
              -8.8893021,
              38.520422
            ],
            [
              -8.8894171,
              38.5204218
            ],
            [
              -8.889417,
              38.5203903
            ],
            [
              -8.8894679,
              38.5203902
            ],
            [
              -8.8894678,
              38.5203571
            ],
            [
              -8.8892802,
              38.5203574
            ],
            [
              -8.8890918,
              38.5203577
            ],
            [
              -8.8890919,
              38.5203894
            ],
            [
              -8.8891347,
              38.5203893
            ],
            [
              -8.8891348,
              38.5204239
            ],
            [
              -8.8892624,
              38.5204237
            ],
            [
              -8.8892628,
              38.5205869
            ],
            [
              -8.8892834,
              38.520587
            ],
            [
              -8.889302,
              38.5205871
            ]
          ]
        ]
      },
      "id": "way/178408366"
    },
    {
      "type": "Feature",
      "properties": {
        "@id": "way/249637566",
        "man_made": "pier"
      },
      "geometry": {
        "type": "Polygon",
        "coordinates": [
          [
            [
              -8.8084657,
              38.4732612
            ],
            [
              -8.8081144,
              38.4732696
            ],
            [
              -8.8081224,
              38.4734103
            ],
            [
              -8.8082619,
              38.4734082
            ],
            [
              -8.8082646,
              38.4739541
            ],
            [
              -8.80816,
              38.473953
            ],
            [
              -8.8081492,
              38.4739709
            ],
            [
              -8.8081117,
              38.4739751
            ],
            [
              -8.8081305,
              38.4740297
            ],
            [
              -8.8081653,
              38.4740475
            ],
            [
              -8.8082673,
              38.4740465
            ],
            [
              -8.8082726,
              38.4746417
            ],
            [
              -8.8082512,
              38.4746501
            ],
            [
              -8.8082512,
              38.4747782
            ],
            [
              -8.808278,
              38.4747929
            ],
            [
              -8.8082914,
              38.4752665
            ],
            [
              -8.8082726,
              38.4752749
            ],
            [
              -8.8082673,
              38.4754502
            ],
            [
              -8.8082807,
              38.4754754
            ],
            [
              -8.8082994,
              38.4757274
            ],
            [
              -8.8084121,
              38.4757274
            ],
            [
              -8.808404,
              38.4747899
            ],
            [
              -8.8084335,
              38.474792
            ],
            [
              -8.8084309,
              38.4746492
            ],
            [
              -8.8084014,
              38.474645
            ],
            [
              -8.808396,
              38.4740465
            ],
            [
              -8.8084711,
              38.4740181
            ],
            [
              -8.8084657,
              38.4732612
            ]
          ]
        ]
      },
      "id": "way/249637566"
    },
    {
      "type": "Feature",
      "properties": {
        "@id": "way/249637568",
        "area": "yes",
        "man_made": "pier"
      },
      "geometry": {
        "type": "Polygon",
        "coordinates": [
          [
            [
              -8.8419025,
              38.5001206
            ],
            [
              -8.8427262,
              38.5008868
            ],
            [
              -8.842769,
              38.5008658
            ],
            [
              -8.8428742,
              38.5007993
            ],
            [
              -8.8420782,
              38.5000592
            ],
            [
              -8.8420211,
              38.500045
            ],
            [
              -8.8419025,
              38.5001206
            ]
          ]
        ]
      },
      "id": "way/249637568"
    },
    {
      "type": "Feature",
      "properties": {
        "@id": "way/249637569",
        "man_made": "pier"
      },
      "geometry": {
        "type": "Polygon",
        "coordinates": [
          [
            [
              -8.8209031,
              38.4880387
            ],
            [
              -8.820965,
              38.4879813
            ],
            [
              -8.82104,
              38.487877
            ],
            [
              -8.8201118,
              38.4874691
            ],
            [
              -8.8200493,
              38.4875687
            ],
            [
              -8.8200046,
              38.487644
            ],
            [
              -8.8209031,
              38.4880387
            ]
          ]
        ]
      },
      "id": "way/249637569"
    },
    {
      "type": "Feature",
      "properties": {
        "@id": "way/249637570",
        "man_made": "pier"
      },
      "geometry": {
        "type": "Polygon",
        "coordinates": [
          [
            [
              -8.8614635,
              38.5093767
            ],
            [
              -8.8613804,
              38.5094711
            ],
            [
              -8.8614984,
              38.5095278
            ],
            [
              -8.8615279,
              38.5094942
            ],
            [
              -8.8617505,
              38.509597
            ],
            [
              -8.8617264,
              38.5096358
            ],
            [
              -8.861839,
              38.509681
            ],
            [
              -8.8618712,
              38.5096516
            ],
            [
              -8.8620858,
              38.5097566
            ],
            [
              -8.8620643,
              38.5097943
            ],
            [
              -8.862177,
              38.5098477
            ],
            [
              -8.8622118,
              38.5098153
            ],
            [
              -8.8624157,
              38.5099128
            ],
            [
              -8.8623835,
              38.5099559
            ],
            [
              -8.8624962,
              38.5100136
            ],
            [
              -8.862531,
              38.5099727
            ],
            [
              -8.8628234,
              38.5101151
            ],
            [
              -8.8628422,
              38.5100908
            ],
            [
              -8.8625605,
              38.509959
            ],
            [
              -8.8625873,
              38.5099182
            ],
            [
              -8.862472,
              38.5098594
            ],
            [
              -8.8624371,
              38.5098993
            ],
            [
              -8.8622306,
              38.5097943
            ],
            [
              -8.8622601,
              38.5097503
            ],
            [
              -8.8621421,
              38.5096987
            ],
            [
              -8.8621045,
              38.5097356
            ],
            [
              -8.86189,
              38.5096316
            ],
            [
              -8.8619168,
              38.5095865
            ],
            [
              -8.8618068,
              38.5095413
            ],
            [
              -8.861772,
              38.509574
            ],
            [
              -8.8615493,
              38.5094732
            ],
            [
              -8.8615788,
              38.5094375
            ],
            [
              -8.8614635,
              38.5093767
            ]
          ]
        ]
      },
      "id": "way/249637570"
    },
    {
      "type": "Feature",
      "properties": {
        "@id": "way/249637942",
        "man_made": "pier",
        "source": "PGS"
      },
      "geometry": {
        "type": "Polygon",
        "coordinates": [
          [
            [
              -8.8541738,
              38.5092623
            ],
            [
              -8.8541345,
              38.5093082
            ],
            [
              -8.8542225,
              38.5093543
            ],
            [
              -8.8543404,
              38.5092167
            ],
            [
              -8.8543968,
              38.5092463
            ],
            [
              -8.8544631,
              38.5091689
            ],
            [
              -8.8542271,
              38.5090451
            ],
            [
              -8.8541842,
              38.5090953
            ],
            [
              -8.8542421,
              38.5091257
            ],
            [
              -8.8542223,
              38.5091489
            ],
            [
              -8.8542558,
              38.5091665
            ],
            [
              -8.8541738,
              38.5092623
            ]
          ]
        ]
      },
      "id": "way/249637942"
    },
    {
      "type": "Feature",
      "properties": {
        "@id": "way/318022933",
        "man_made": "pier"
      },
      "geometry": {
        "type": "Polygon",
        "coordinates": [
          [
            [
              -8.8182127,
              38.4870539
            ],
            [
              -8.8184219,
              38.4867997
            ],
            [
              -8.8184085,
              38.4867728
            ],
            [
              -8.817827,
              38.4864883
            ],
            [
              -8.8177878,
              38.4865072
            ],
            [
              -8.8175725,
              38.4867769
            ],
            [
              -8.817647,
              38.4868099
            ],
            [
              -8.8177152,
              38.4867208
            ],
            [
              -8.8177969,
              38.4866191
            ],
            [
              -8.8178511,
              38.4866056
            ],
            [
              -8.8182685,
              38.4868123
            ],
            [
              -8.8182754,
              38.4868572
            ],
            [
              -8.818128,
              38.4870395
            ],
            [
              -8.8181964,
              38.4870718
            ],
            [
              -8.8182127,
              38.4870539
            ]
          ]
        ]
      },
      "id": "way/318022933"
    },
    {
      "type": "Feature",
      "properties": {
        "@id": "way/520816867",
        "area": "yes",
        "ferry": "yes",
        "man_made": "pier",
        "mooring": "private",
        "public_transport": "platform"
      },
      "geometry": {
        "type": "Polygon",
        "coordinates": [
          [
            [
              -8.8852405,
              38.5214828
            ],
            [
              -8.8852515,
              38.5214269
            ],
            [
              -8.8851834,
              38.5214187
            ],
            [
              -8.8851291,
              38.5214122
            ],
            [
              -8.8851168,
              38.521475
            ],
            [
              -8.8850853,
              38.5216361
            ],
            [
              -8.8851403,
              38.5216427
            ],
            [
              -8.8852076,
              38.5216508
            ],
            [
              -8.8852405,
              38.5214828
            ]
          ]
        ]
      },
      "id": "way/520816867"
    },
    {
      "type": "Feature",
      "properties": {
        "@id": "way/520816868",
        "area": "yes",
        "man_made": "pier",
        "mooring": "private"
      },
      "geometry": {
        "type": "Polygon",
        "coordinates": [
          [
            [
              -8.8628951,
              38.4669891
            ],
            [
              -8.863319,
              38.4666751
            ],
            [
              -8.8637227,
              38.4663822
            ],
            [
              -8.8638737,
              38.4662735
            ],
            [
              -8.8638411,
              38.4662457
            ],
            [
              -8.8638085,
              38.466218
            ],
            [
              -8.8636337,
              38.4663439
            ],
            [
              -8.8632561,
              38.4666203
            ],
            [
              -8.8628299,
              38.4669311
            ],
            [
              -8.8627484,
              38.4669117
            ],
            [
              -8.8623866,
              38.4665875
            ],
            [
              -8.8620265,
              38.4662954
            ],
            [
              -8.8619938,
              38.4663146
            ],
            [
              -8.8625414,
              38.4667691
            ],
            [
              -8.8625125,
              38.4667907
            ],
            [
              -8.8626423,
              38.4668992
            ],
            [
              -8.8625665,
              38.4669525
            ],
            [
              -8.8624357,
              38.4668473
            ],
            [
              -8.8623846,
              38.4668823
            ],
            [
              -8.8629131,
              38.4673319
            ],
            [
              -8.8629669,
              38.4672948
            ],
            [
              -8.8628381,
              38.4671856
            ],
            [
              -8.8628721,
              38.467159
            ],
            [
              -8.8629164,
              38.467129
            ],
            [
              -8.8630306,
              38.4672259
            ],
            [
              -8.8630552,
              38.4672045
            ],
            [
              -8.8635941,
              38.4676747
            ],
            [
              -8.8636262,
              38.4676539
            ],
            [
              -8.8629088,
              38.467055
            ],
            [
              -8.8628951,
              38.4669891
            ]
          ]
        ]
      },
      "id": "way/520816868"
    },
    {
      "type": "Feature",
      "properties": {
        "@id": "way/699402913",
        "man_made": "pier",
        "natural": "coastline"
      },
      "geometry": {
        "type": "Polygon",
        "coordinates": [
          [
            [
              -8.8999912,
              38.4945238
            ],
            [
              -8.8999874,
              38.4945135
            ],
            [
              -8.8999676,
              38.4945096
            ],
            [
              -8.8999346,
              38.4945157
            ],
            [
              -8.8999208,
              38.4945268
            ],
            [
              -8.8999235,
              38.4945348
            ],
            [
              -8.8999912,
              38.4945238
            ]
          ]
        ]
      },
      "id": "way/699402913"
    },
    {
      "type": "Feature",
      "properties": {
        "@id": "way/699402914",
        "man_made": "pier",
        "natural": "coastline"
      },
      "geometry": {
        "type": "Polygon",
        "coordinates": [
          [
            [
              -8.9001989,
              38.4944893
            ],
            [
              -8.9001952,
              38.494479
            ],
            [
              -8.9001754,
              38.4944751
            ],
            [
              -8.9001424,
              38.4944812
            ],
            [
              -8.9001286,
              38.4944922
            ],
            [
              -8.9001312,
              38.4945002
            ],
            [
              -8.9001989,
              38.4944893
            ]
          ]
        ]
      },
      "id": "way/699402914"
    },
    {
      "type": "Feature",
      "properties": {
        "@id": "way/699402915",
        "man_made": "pier",
        "natural": "coastline"
      },
      "geometry": {
        "type": "Polygon",
        "coordinates": [
          [
            [
              -8.9019597,
              38.4944729
            ],
            [
              -8.9019608,
              38.4944622
            ],
            [
              -8.901944,
              38.4944531
            ],
            [
              -8.9019103,
              38.4944498
            ],
            [
              -8.9018925,
              38.4944564
            ],
            [
              -8.9018914,
              38.4944646
            ],
            [
              -8.9019597,
              38.4944729
            ]
          ]
        ]
      },
      "id": "way/699402915"
    },
    {
      "type": "Feature",
      "properties": {
        "@id": "way/699402916",
        "man_made": "pier",
        "natural": "coastline"
      },
      "geometry": {
        "type": "Polygon",
        "coordinates": [
          [
            [
              -8.9017516,
              38.4944498
            ],
            [
              -8.9017527,
              38.4944391
            ],
            [
              -8.9017359,
              38.4944301
            ],
            [
              -8.9017022,
              38.4944268
            ],
            [
              -8.9016843,
              38.4944334
            ],
            [
              -8.9016833,
              38.4944416
            ],
            [
              -8.9017516,
              38.4944498
            ]
          ]
        ]
      },
      "id": "way/699402916"
    },
    {
      "type": "Feature",
      "properties": {
        "@id": "way/1065972351",
        "area": "yes",
        "man_made": "pier"
      },
      "geometry": {
        "type": "Polygon",
        "coordinates": [
          [
            [
              -8.8083897,
              38.4717273
            ],
            [
              -8.8084097,
              38.4717165
            ],
            [
              -8.8084205,
              38.4716996
            ],
            [
              -8.8084205,
              38.4716164
            ],
            [
              -8.8084113,
              38.4715947
            ],
            [
              -8.8083881,
              38.471585
            ],
            [
              -8.8082726,
              38.4715838
            ],
            [
              -8.8082572,
              38.4715971
            ],
            [
              -8.8082449,
              38.4716176
            ],
            [
              -8.8082464,
              38.4717008
            ],
            [
              -8.8082603,
              38.4717213
            ],
            [
              -8.8082803,
              38.4717321
            ],
            [
              -8.8083897,
              38.4717273
            ]
          ]
        ]
      },
      "id": "way/1065972351"
    },
    {
      "type": "Feature",
      "properties": {
        "@id": "way/1065972352",
        "area": "yes",
        "man_made": "pier"
      },
      "geometry": {
        "type": "Polygon",
        "coordinates": [
          [
            [
              -8.8084743,
              38.472703
            ],
            [
              -8.8084757,
              38.4726642
            ],
            [
              -8.8084354,
              38.4726442
            ],
            [
              -8.8081632,
              38.4726453
            ],
            [
              -8.8081417,
              38.4726631
            ],
            [
              -8.8081216,
              38.4726621
            ],
            [
              -8.8081243,
              38.4727083
            ],
            [
              -8.808135,
              38.4727093
            ],
            [
              -8.8081645,
              38.4727198
            ],
            [
              -8.8084274,
              38.472723
            ],
            [
              -8.8084743,
              38.472703
            ]
          ]
        ]
      },
      "id": "way/1065972352"
    },
    {
      "type": "Feature",
      "properties": {
        "@id": "way/1180580191",
        "area": "yes",
        "floating": "yes",
        "foot": "yes",
        "man_made": "pier"
      },
      "geometry": {
        "type": "Polygon",
        "coordinates": [
          [
            [
              -8.8976612,
              38.5186544
            ],
            [
              -8.8976237,
              38.5186609
            ],
            [
              -8.8976973,
              38.5189227
            ],
            [
              -8.8977348,
              38.5189162
            ],
            [
              -8.8976612,
              38.5186544
            ]
          ]
        ]
      },
      "id": "way/1180580191"
    },
    {
      "type": "Feature",
      "properties": {
        "@id": "way/1180580192",
        "area": "yes",
        "floating": "yes",
        "foot": "yes",
        "man_made": "pier"
      },
      "geometry": {
        "type": "Polygon",
        "coordinates": [
          [
            [
              -8.8989905,
              38.518377
            ],
            [
              -8.8976362,
              38.5186111
            ],
            [
              -8.897645,
              38.5186423
            ],
            [
              -8.8989991,
              38.5184082
            ],
            [
              -8.8990707,
              38.5186618
            ],
            [
              -8.8991822,
              38.5186425
            ],
            [
              -8.8991018,
              38.5183578
            ],
            [
              -8.8989905,
              38.518377
            ]
          ]
        ]
      },
      "id": "way/1180580192"
    },
    {
      "type": "Feature",
      "properties": {
        "@id": "way/1395102406",
        "area": "yes",
        "man_made": "quay"
      },
      "geometry": {
        "type": "Polygon",
        "coordinates": [
          [
            [
              -8.8710726,
              38.4758702
            ],
            [
              -8.8722871,
              38.4751588
            ],
            [
              -8.8706683,
              38.4735004
            ],
            [
              -8.8705425,
              38.47357
            ],
            [
              -8.8694774,
              38.4742011
            ],
            [
              -8.8710726,
              38.4758702
            ]
          ]
        ]
      },
      "id": "way/1395102406"
    },
    {
      "type": "Feature",
      "properties": {
        "@id": "way/1546129244",
        "area": "yes",
        "man_made": "quay"
      },
      "geometry": {
        "type": "Polygon",
        "coordinates": [
          [
            [
              -8.8181964,
              38.4870718
            ],
            [
              -8.818128,
              38.4870395
            ],
            [
              -8.8179979,
              38.4869804
            ],
            [
              -8.8177774,
              38.4868693
            ],
            [
              -8.8176912,
              38.4868306
            ],
            [
              -8.817647,
              38.4868099
            ],
            [
              -8.8175725,
              38.4867769
            ],
            [
              -8.8175378,
              38.4867612
            ],
            [
              -8.8174353,
              38.4868567
            ],
            [
              -8.8144204,
              38.488001
            ],
            [
              -8.8145001,
              38.4881067
            ],
            [
              -8.8152335,
              38.4878317
            ],
            [
              -8.8153375,
              38.4878406
            ],
            [
              -8.8153961,
              38.487819
            ],
            [
              -8.8154546,
              38.4877413
            ],
            [
              -8.8175313,
              38.4869878
            ],
            [
              -8.8180695,
              38.4872335
            ],
            [
              -8.8181168,
              38.4872352
            ],
            [
              -8.8182375,
              38.4870958
            ],
            [
              -8.818235,
              38.4870729
            ],
            [
              -8.8182127,
              38.4870539
            ],
            [
              -8.8181964,
              38.4870718
            ]
          ]
        ]
      },
      "id": "way/1546129244"
    },
    {
      "type": "Feature",
      "properties": {
        "@id": "way/156360982",
        "floating": "yes",
        "man_made": "pier"
      },
      "geometry": {
        "type": "LineString",
        "coordinates": [
          [
            -8.9006653,
            38.5193533
          ],
          [
            -8.900771,
            38.5196585
          ],
          [
            -8.9005591,
            38.5197084
          ],
          [
            -8.90037,
            38.5197529
          ],
          [
            -8.9003019,
            38.5197681
          ],
          [
            -8.9001005,
            38.5198133
          ],
          [
            -8.9001127,
            38.5198387
          ],
          [
            -8.899977,
            38.5198693
          ],
          [
            -8.8995631,
            38.5199627
          ],
          [
            -8.8993609,
            38.5200083
          ],
          [
            -8.8993514,
            38.5199881
          ],
          [
            -8.8991568,
            38.5200306
          ],
          [
            -8.8988855,
            38.5200899
          ],
          [
            -8.8987324,
            38.5196872
          ]
        ]
      },
      "id": "way/156360982"
    },
    {
      "type": "Feature",
      "properties": {
        "@id": "way/156360984",
        "floating": "yes",
        "man_made": "pier"
      },
      "geometry": {
        "type": "LineString",
        "coordinates": [
          [
            -8.9005591,
            38.5197084
          ],
          [
            -8.9003958,
            38.5192908
          ]
        ]
      },
      "id": "way/156360984"
    },
    {
      "type": "Feature",
      "properties": {
        "@id": "way/156360985",
        "floating": "yes",
        "man_made": "pier"
      },
      "geometry": {
        "type": "LineString",
        "coordinates": [
          [
            -8.8995631,
            38.5199627
          ],
          [
            -8.8993988,
            38.5195377
          ]
        ]
      },
      "id": "way/156360985"
    },
    {
      "type": "Feature",
      "properties": {
        "@id": "way/156360986",
        "floating": "yes",
        "man_made": "pier"
      },
      "geometry": {
        "type": "LineString",
        "coordinates": [
          [
            -8.899977,
            38.5198693
          ],
          [
            -8.8997795,
            38.5193607
          ]
        ]
      },
      "id": "way/156360986"
    },
    {
      "type": "Feature",
      "properties": {
        "@id": "way/156360988",
        "man_made": "pier"
      },
      "geometry": {
        "type": "LineString",
        "coordinates": [
          [
            -8.9004317,
            38.5189499
          ],
          [
            -8.9005209,
            38.5191296
          ]
        ]
      },
      "id": "way/156360988"
    },
    {
      "type": "Feature",
      "properties": {
        "@id": "way/156360989",
        "man_made": "pier"
      },
      "geometry": {
        "type": "LineString",
        "coordinates": [
          [
            -8.9002609,
            38.5190092
          ],
          [
            -8.9002852,
            38.5190861
          ]
        ]
      },
      "id": "way/156360989"
    },
    {
      "type": "Feature",
      "properties": {
        "@id": "way/156360990",
        "floating": "yes",
        "man_made": "pier"
      },
      "geometry": {
        "type": "LineString",
        "coordinates": [
          [
            -8.9003019,
            38.5197681
          ],
          [
            -8.9001181,
            38.5192601
          ]
        ]
      },
      "id": "way/156360990"
    },
    {
      "type": "Feature",
      "properties": {
        "@id": "way/156360992",
        "floating": "yes",
        "man_made": "pier"
      },
      "geometry": {
        "type": "LineString",
        "coordinates": [
          [
            -8.8991568,
            38.5200306
          ],
          [
            -8.8989952,
            38.5196172
          ]
        ]
      },
      "id": "way/156360992"
    },
    {
      "type": "Feature",
      "properties": {
        "@id": "way/156360993",
        "man_made": "pier"
      },
      "geometry": {
        "type": "LineString",
        "coordinates": [
          [
            -8.9006117,
            38.5188996
          ],
          [
            -8.9007255,
            38.5191402
          ]
        ]
      },
      "id": "way/156360993"
    },
    {
      "type": "Feature",
      "properties": {
        "@id": "way/156360994",
        "man_made": "pier"
      },
      "geometry": {
        "type": "LineString",
        "coordinates": [
          [
            -8.8993609,
            38.5200083
          ],
          [
            -8.8991347,
            38.5200634
          ],
          [
            -8.8991703,
            38.5201526
          ],
          [
            -8.8991718,
            38.5201564
          ]
        ]
      },
      "id": "way/156360994"
    },
    {
      "type": "Feature",
      "properties": {
        "@id": "way/156360996",
        "man_made": "pier"
      },
      "geometry": {
        "type": "LineString",
        "coordinates": [
          [
            -8.9001127,
            38.5198387
          ],
          [
            -8.9003741,
            38.5197857
          ],
          [
            -8.9004024,
            38.5198643
          ],
          [
            -8.9004058,
            38.5198738
          ]
        ]
      },
      "id": "way/156360996"
    },
    {
      "type": "Feature",
      "properties": {
        "@id": "way/156360997",
        "man_made": "pier"
      },
      "geometry": {
        "type": "LineString",
        "coordinates": [
          [
            -8.9006172,
            38.5188087
          ],
          [
            -8.9006415,
            38.5188615
          ],
          [
            -8.9003922,
            38.5189346
          ],
          [
            -8.9004031,
            38.5189579
          ]
        ]
      },
      "id": "way/156360997"
    },
    {
      "type": "Feature",
      "properties": {
        "@id": "way/156360998",
        "man_made": "pier"
      },
      "geometry": {
        "type": "LineString",
        "coordinates": [
          [
            -8.8998947,
            38.5191154
          ],
          [
            -8.9000242,
            38.5190772
          ],
          [
            -8.9002609,
            38.5190092
          ],
          [
            -8.9004031,
            38.5189579
          ],
          [
            -8.9004317,
            38.5189499
          ],
          [
            -8.9006117,
            38.5188996
          ],
          [
            -8.9007769,
            38.518853
          ],
          [
            -8.9008907,
            38.5190967
          ]
        ]
      },
      "id": "way/156360998"
    },
    {
      "type": "Feature",
      "properties": {
        "@id": "way/156374684",
        "man_made": "pier"
      },
      "geometry": {
        "type": "LineString",
        "coordinates": [
          [
            -8.8861171,
            38.5212596
          ],
          [
            -8.8872367,
            38.5213758
          ]
        ]
      },
      "id": "way/156374684"
    },
    {
      "type": "Feature",
      "properties": {
        "@id": "way/156374685",
        "man_made": "pier"
      },
      "geometry": {
        "type": "LineString",
        "coordinates": [
          [
            -8.8875785,
            38.5208491
          ],
          [
            -8.8867705,
            38.5207692
          ]
        ]
      },
      "id": "way/156374685"
    },
    {
      "type": "Feature",
      "properties": {
        "@id": "way/156374687",
        "man_made": "pier"
      },
      "geometry": {
        "type": "LineString",
        "coordinates": [
          [
            -8.8848847,
            38.5205867
          ],
          [
            -8.8849119,
            38.5204834
          ]
        ]
      },
      "id": "way/156374687"
    },
    {
      "type": "Feature",
      "properties": {
        "@id": "way/156374688",
        "man_made": "pier"
      },
      "geometry": {
        "type": "LineString",
        "coordinates": [
          [
            -8.8848428,
            38.5214511
          ],
          [
            -8.8848657,
            38.5213397
          ]
        ]
      },
      "id": "way/156374688"
    },
    {
      "type": "Feature",
      "properties": {
        "@id": "way/156374691",
        "man_made": "pier"
      },
      "geometry": {
        "type": "LineString",
        "coordinates": [
          [
            -8.8875144,
            38.5212625
          ],
          [
            -8.8872592,
            38.5212336
          ]
        ]
      },
      "id": "way/156374691"
    },
    {
      "type": "Feature",
      "properties": {
        "@id": "way/156374694",
        "man_made": "pier"
      },
      "geometry": {
        "type": "LineString",
        "coordinates": [
          [
            -8.8861561,
            38.5210487
          ],
          [
            -8.886166,
            38.520969
          ],
          [
            -8.8861771,
            38.5208788
          ]
        ]
      },
      "id": "way/156374694"
    },
    {
      "type": "Feature",
      "properties": {
        "@id": "way/156374697",
        "man_made": "pier"
      },
      "geometry": {
        "type": "LineString",
        "coordinates": [
          [
            -8.8847339,
            38.5214366
          ],
          [
            -8.8847555,
            38.5213155
          ],
          [
            -8.884641,
            38.5212991
          ]
        ]
      },
      "id": "way/156374697"
    },
    {
      "type": "Feature",
      "properties": {
        "@id": "way/156374700",
        "man_made": "pier"
      },
      "geometry": {
        "type": "LineString",
        "coordinates": [
          [
            -8.8849227,
            38.5213475
          ],
          [
            -8.8848657,
            38.5213397
          ],
          [
            -8.8848094,
            38.5213315
          ]
        ]
      },
      "id": "way/156374700"
    },
    {
      "type": "Feature",
      "properties": {
        "@id": "way/156374701",
        "man_made": "pier"
      },
      "geometry": {
        "type": "LineString",
        "coordinates": [
          [
            -8.8861088,
            38.5213213
          ],
          [
            -8.8861171,
            38.5212596
          ],
          [
            -8.8861263,
            38.5211911
          ]
        ]
      },
      "id": "way/156374701"
    },
    {
      "type": "Feature",
      "properties": {
        "@id": "way/156374702",
        "man_made": "pier"
      },
      "geometry": {
        "type": "LineString",
        "coordinates": [
          [
            -8.8849379,
            38.5205948
          ],
          [
            -8.8848847,
            38.5205867
          ],
          [
            -8.8848227,
            38.5205774
          ]
        ]
      },
      "id": "way/156374702"
    },
    {
      "type": "Feature",
      "properties": {
        "@id": "way/156374709",
        "man_made": "pier"
      },
      "geometry": {
        "type": "LineString",
        "coordinates": [
          [
            -8.8860966,
            38.5214912
          ],
          [
            -8.8869213,
            38.5215706
          ],
          [
            -8.8872321,
            38.5214138
          ],
          [
            -8.8872367,
            38.5213758
          ],
          [
            -8.8872592,
            38.5212336
          ],
          [
            -8.887282,
            38.5210774
          ],
          [
            -8.886166,
            38.520969
          ]
        ]
      },
      "id": "way/156374709"
    },
    {
      "type": "Feature",
      "properties": {
        "@id": "way/156381272",
        "man_made": "pier"
      },
      "geometry": {
        "type": "LineString",
        "coordinates": [
          [
            -8.8501204,
            38.5072058
          ],
          [
            -8.8500204,
            38.507112
          ]
        ]
      },
      "id": "way/156381272"
    },
    {
      "type": "Feature",
      "properties": {
        "@id": "way/156381273",
        "man_made": "pier"
      },
      "geometry": {
        "type": "LineString",
        "coordinates": [
          [
            -8.8406511,
            38.4988419
          ],
          [
            -8.8398494,
            38.4995219
          ]
        ]
      },
      "id": "way/156381273"
    },
    {
      "type": "Feature",
      "properties": {
        "@id": "way/156381275",
        "man_made": "pier"
      },
      "geometry": {
        "type": "LineString",
        "coordinates": [
          [
            -8.8408959,
            38.4989713
          ],
          [
            -8.8407406,
            38.4988314
          ]
        ]
      },
      "id": "way/156381275"
    },
    {
      "type": "Feature",
      "properties": {
        "@id": "way/156381276",
        "man_made": "pier"
      },
      "geometry": {
        "type": "LineString",
        "coordinates": [
          [
            -8.8341195,
            38.4952
          ],
          [
            -8.8340222,
            38.4952911
          ]
        ]
      },
      "id": "way/156381276"
    },
    {
      "type": "Feature",
      "properties": {
        "@id": "way/156381278",
        "man_made": "pier"
      },
      "geometry": {
        "type": "LineString",
        "coordinates": [
          [
            -8.8406711,
            38.4987615
          ],
          [
            -8.8405112,
            38.4986093
          ]
        ]
      },
      "id": "way/156381278"
    },
    {
      "type": "Feature",
      "properties": {
        "@id": "way/156381280",
        "man_made": "pier"
      },
      "geometry": {
        "type": "LineString",
        "coordinates": [
          [
            -8.8502404,
            38.5073731
          ],
          [
            -8.8501856,
            38.5072744
          ]
        ]
      },
      "id": "way/156381280"
    },
    {
      "type": "Feature",
      "properties": {
        "@id": "way/156381281",
        "man_made": "pier"
      },
      "geometry": {
        "type": "LineString",
        "coordinates": [
          [
            -8.8333786,
            38.4946815
          ],
          [
            -8.8332781,
            38.4947701
          ]
        ]
      },
      "id": "way/156381281"
    },
    {
      "type": "Feature",
      "properties": {
        "@id": "way/156381282",
        "man_made": "pier"
      },
      "geometry": {
        "type": "LineString",
        "coordinates": [
          [
            -8.8499296,
            38.507062
          ],
          [
            -8.8497968,
            38.507022
          ]
        ]
      },
      "id": "way/156381282"
    },
    {
      "type": "Feature",
      "properties": {
        "@id": "way/156381283",
        "man_made": "pier"
      },
      "geometry": {
        "type": "LineString",
        "coordinates": [
          [
            -8.8344828,
            38.4954542
          ],
          [
            -8.8341195,
            38.4952
          ],
          [
            -8.8333786,
            38.4946815
          ],
          [
            -8.8330322,
            38.494439
          ]
        ]
      },
      "id": "way/156381283"
    },
    {
      "type": "Feature",
      "properties": {
        "@id": "way/156392689",
        "floating": "yes",
        "man_made": "pier"
      },
      "geometry": {
        "type": "LineString",
        "coordinates": [
          [
            -8.901825,
            38.4936451
          ],
          [
            -8.9012622,
            38.493649
          ]
        ]
      },
      "id": "way/156392689"
    },
    {
      "type": "Feature",
      "properties": {
        "@id": "way/156392695",
        "floating": "yes",
        "man_made": "pier"
      },
      "geometry": {
        "type": "LineString",
        "coordinates": [
          [
            -8.9018273,
            38.4939763
          ],
          [
            -8.9029212,
            38.4941242
          ]
        ]
      },
      "id": "way/156392695"
    },
    {
      "type": "Feature",
      "properties": {
        "@id": "way/156392697",
        "floating": "yes",
        "man_made": "pier"
      },
      "geometry": {
        "type": "LineString",
        "coordinates": [
          [
            -8.9035076,
            38.4936868
          ],
          [
            -8.9035122,
            38.4940879
          ]
        ]
      },
      "id": "way/156392697"
    },
    {
      "type": "Feature",
      "properties": {
        "@id": "way/156392699",
        "floating": "yes",
        "man_made": "pier"
      },
      "geometry": {
        "type": "LineString",
        "coordinates": [
          [
            -8.9018255,
            38.4937108
          ],
          [
            -8.9029341,
            38.4937039
          ]
        ]
      },
      "id": "way/156392699"
    },
    {
      "type": "Feature",
      "properties": {
        "@id": "way/156392724",
        "floating": "yes",
        "man_made": "pier"
      },
      "geometry": {
        "type": "LineString",
        "coordinates": [
          [
            -8.9018231,
            38.4933784
          ],
          [
            -8.901825,
            38.4936451
          ],
          [
            -8.9018255,
            38.4937108
          ],
          [
            -8.9018273,
            38.4939763
          ],
          [
            -8.9018276,
            38.4940122
          ]
        ]
      },
      "id": "way/156392724"
    },
    {
      "type": "Feature",
      "properties": {
        "@id": "way/156392725",
        "floating": "yes",
        "man_made": "pier"
      },
      "geometry": {
        "type": "LineString",
        "coordinates": [
          [
            -8.9017938,
            38.493379
          ],
          [
            -8.9010511,
            38.4933841
          ],
          [
            -8.9010571,
            38.4936307
          ],
          [
            -8.901104,
            38.4942121
          ],
          [
            -8.9012059,
            38.4942498
          ],
          [
            -8.901208,
            38.4943025
          ]
        ]
      },
      "id": "way/156392725"
    },
    {
      "type": "Feature",
      "properties": {
        "@id": "way/198860829",
        "floating": "yes",
        "man_made": "pier"
      },
      "geometry": {
        "type": "LineString",
        "coordinates": [
          [
            -8.9013568,
            38.4939366
          ],
          [
            -8.9013578,
            38.4940163
          ],
          [
            -8.9013587,
            38.4940943
          ]
        ]
      },
      "id": "way/198860829"
    },
    {
      "type": "Feature",
      "properties": {
        "@id": "way/198860830",
        "man_made": "pier"
      },
      "geometry": {
        "type": "LineString",
        "coordinates": [
          [
            -8.9029342,
            38.4936471
          ],
          [
            -8.9029341,
            38.4937039
          ],
          [
            -8.902934,
            38.4937801
          ]
        ]
      },
      "id": "way/198860830"
    },
    {
      "type": "Feature",
      "properties": {
        "@id": "way/198860832",
        "floating": "yes",
        "man_made": "pier"
      },
      "geometry": {
        "type": "LineString",
        "coordinates": [
          [
            -8.9012622,
            38.493594
          ],
          [
            -8.9012622,
            38.493649
          ],
          [
            -8.9012622,
            38.4937095
          ]
        ]
      },
      "id": "way/198860832"
    },
    {
      "type": "Feature",
      "properties": {
        "@id": "way/198860833",
        "man_made": "pier"
      },
      "geometry": {
        "type": "LineString",
        "coordinates": [
          [
            -8.9029039,
            38.4942052
          ],
          [
            -8.9029212,
            38.4941242
          ],
          [
            -8.9029382,
            38.4940445
          ]
        ]
      },
      "id": "way/198860833"
    },
    {
      "type": "Feature",
      "properties": {
        "@id": "way/320513423",
        "man_made": "pier"
      },
      "geometry": {
        "type": "LineString",
        "coordinates": [
          [
            -8.8088437,
            38.5097189
          ],
          [
            -8.808951,
            38.509721
          ]
        ]
      },
      "id": "way/320513423"
    },
    {
      "type": "Feature",
      "properties": {
        "@id": "way/520814581",
        "floating": "yes",
        "man_made": "pier"
      },
      "geometry": {
        "type": "LineString",
        "coordinates": [
          [
            -8.9018276,
            38.4940122
          ],
          [
            -8.9013578,
            38.4940163
          ]
        ]
      },
      "id": "way/520814581"
    },
    {
      "type": "Feature",
      "properties": {
        "@id": "way/525056020",
        "man_made": "pier"
      },
      "geometry": {
        "type": "LineString",
        "coordinates": [
          [
            -8.9074337,
            38.5157395
          ],
          [
            -8.9072184,
            38.5155497
          ],
          [
            -8.9067872,
            38.5158373
          ]
        ]
      },
      "id": "way/525056020"
    },
    {
      "type": "Feature",
      "properties": {
        "@id": "way/699398333",
        "floating": "yes",
        "man_made": "pier",
        "@relations": [
          {
            "role": "outer",
            "rel": 9719052,
            "reltags": {
              "area": "yes",
              "man_made": "pier",
              "type": "multipolygon"
            }
          }
        ]
      },
      "geometry": {
        "type": "LineString",
        "coordinates": [
          [
            -8.9018541,
            38.4933779
          ],
          [
            -8.9018231,
            38.4933784
          ],
          [
            -8.9017938,
            38.493379
          ]
        ]
      },
      "id": "way/699398333"
    },
    {
      "type": "Feature",
      "properties": {
        "@id": "way/699398334",
        "floating": "yes",
        "man_made": "pier"
      },
      "geometry": {
        "type": "LineString",
        "coordinates": [
          [
            -8.9034728,
            38.4933665
          ],
          [
            -8.9018541,
            38.4933779
          ]
        ]
      },
      "id": "way/699398334"
    },
    {
      "type": "Feature",
      "properties": {
        "@id": "way/699398337",
        "floating": "yes",
        "man_made": "pier"
      },
      "geometry": {
        "type": "LineString",
        "coordinates": [
          [
            -8.9018229,
            38.4933425
          ],
          [
            -8.9018231,
            38.4933784
          ]
        ]
      },
      "id": "way/699398337"
    }
  ]
}