{
  "type": "FeatureCollection",
  "generator": "overpass-turbo",
  "copyright": "The data included in this document is from www.openstreetmap.org. The data is made available under ODbL.",
  "timestamp": "2026-07-31T14:18:51Z",
  "features": [
    {
      "type": "Feature",
      "properties": {
        "@id": "way/103072838",
        "man_made": "pier"
      },
      "geometry": {
        "type": "Polygon",
        "coordinates": [
          [
            [
              -8.8884093,
              37.9464768
            ],
            [
              -8.8883938,
              37.946288
            ],
            [
              -8.8882336,
              37.9462961
            ],
            [
              -8.8881563,
              37.9463001
            ],
            [
              -8.8881717,
              37.9464889
            ],
            [
              -8.8884093,
              37.9464768
            ]
          ]
        ]
      },
      "id": "way/103072838"
    },
    {
      "type": "Feature",
      "properties": {
        "@id": "way/103072878",
        "man_made": "pier"
      },
      "geometry": {
        "type": "Polygon",
        "coordinates": [
          [
            [
              -8.883676,
              37.9470994
            ],
            [
              -8.8836681,
              37.946958
            ],
            [
              -8.8835735,
              37.9469613
            ],
            [
              -8.8834793,
              37.9469646
            ],
            [
              -8.8834872,
              37.947106
            ],
            [
              -8.8835827,
              37.9471027
            ],
            [
              -8.883676,
              37.9470994
            ]
          ]
        ]
      },
      "id": "way/103072878"
    },
    {
      "type": "Feature",
      "properties": {
        "@id": "way/103072889",
        "man_made": "pier"
      },
      "geometry": {
        "type": "Polygon",
        "coordinates": [
          [
            [
              -8.8838952,
              37.9504816
            ],
            [
              -8.8837847,
              37.9483315
            ],
            [
              -8.8835709,
              37.9483383
            ],
            [
              -8.8836808,
              37.9504884
            ],
            [
              -8.8838952,
              37.9504816
            ]
          ]
        ]
      },
      "id": "way/103072889"
    },
    {
      "type": "Feature",
      "properties": {
        "@id": "way/103072937",
        "man_made": "pier"
      },
      "geometry": {
        "type": "Polygon",
        "coordinates": [
          [
            [
              -8.8863872,
              37.9514009
            ],
            [
              -8.8863275,
              37.9511283
            ],
            [
              -8.8861703,
              37.9511497
            ],
            [
              -8.8859776,
              37.951176
            ],
            [
              -8.8860373,
              37.9514486
            ],
            [
              -8.8861631,
              37.9514314
            ],
            [
              -8.8862245,
              37.9514231
            ],
            [
              -8.8862609,
              37.9514181
            ],
            [
              -8.8863872,
              37.9514009
            ]
          ]
        ]
      },
      "id": "way/103072937"
    },
    {
      "type": "Feature",
      "properties": {
        "@id": "way/103072941",
        "man_made": "pier"
      },
      "geometry": {
        "type": "Polygon",
        "coordinates": [
          [
            [
              -8.8789437,
              37.9489637
            ],
            [
              -8.8789902,
              37.948895
            ],
            [
              -8.8788596,
              37.94884
            ],
            [
              -8.8788131,
              37.9489087
            ],
            [
              -8.87885,
              37.9489243
            ],
            [
              -8.8789437,
              37.9489637
            ]
          ]
        ]
      },
      "id": "way/103072941"
    },
    {
      "type": "Feature",
      "properties": {
        "@id": "way/103072949",
        "man_made": "pier"
      },
      "geometry": {
        "type": "Polygon",
        "coordinates": [
          [
            [
              -8.8884283,
              37.9460538
            ],
            [
              -8.8884311,
              37.9460079
            ],
            [
              -8.8889196,
              37.9459967
            ],
            [
              -8.8889096,
              37.9457022
            ],
            [
              -8.88842,
              37.9457128
            ],
            [
              -8.8884167,
              37.9456182
            ],
            [
              -8.8882468,
              37.9456218
            ],
            [
              -8.8881359,
              37.9456242
            ],
            [
              -8.8881511,
              37.9460598
            ],
            [
              -8.8882191,
              37.9460584
            ],
            [
              -8.8884283,
              37.9460538
            ]
          ]
        ]
      },
      "id": "way/103072949"
    },
    {
      "type": "Feature",
      "properties": {
        "@id": "way/103072986",
        "man_made": "pier"
      },
      "geometry": {
        "type": "Polygon",
        "coordinates": [
          [
            [
              -8.883613,
              37.9461503
            ],
            [
              -8.8836042,
              37.9460068
            ],
            [
              -8.8834169,
              37.9460139
            ],
            [
              -8.8834257,
              37.9461574
            ],
            [
              -8.8835305,
              37.9461534
            ],
            [
              -8.883613,
              37.9461503
            ]
          ]
        ]
      },
      "id": "way/103072986"
    },
    {
      "type": "Feature",
      "properties": {
        "@id": "way/103072987",
        "man_made": "pier"
      },
      "geometry": {
        "type": "Polygon",
        "coordinates": [
          [
            [
              -8.8800236,
              37.9483266
            ],
            [
              -8.8800133,
              37.9481752
            ],
            [
              -8.8797876,
              37.9481848
            ],
            [
              -8.8797979,
              37.9483362
            ],
            [
              -8.8798943,
              37.9483321
            ],
            [
              -8.8799117,
              37.9483313
            ],
            [
              -8.8799246,
              37.9483308
            ],
            [
              -8.8800236,
              37.9483266
            ]
          ]
        ]
      },
      "id": "way/103072987"
    },
    {
      "type": "Feature",
      "properties": {
        "@id": "way/103073028",
        "man_made": "pier"
      },
      "geometry": {
        "type": "Polygon",
        "coordinates": [
          [
            [
              -8.8883378,
              37.945401
            ],
            [
              -8.8883317,
              37.9452093
            ],
            [
              -8.8881121,
              37.9452137
            ],
            [
              -8.8881182,
              37.9454053
            ],
            [
              -8.8882371,
              37.945403
            ],
            [
              -8.8883378,
              37.945401
            ]
          ]
        ]
      },
      "id": "way/103073028"
    },
    {
      "type": "Feature",
      "properties": {
        "@id": "way/103073041",
        "man_made": "pier"
      },
      "geometry": {
        "type": "Polygon",
        "coordinates": [
          [
            [
              -8.8787207,
              37.949486
            ],
            [
              -8.8787305,
              37.94947
            ],
            [
              -8.8787469,
              37.9494432
            ],
            [
              -8.8788444,
              37.949284
            ],
            [
              -8.8789448,
              37.9491201
            ],
            [
              -8.8789544,
              37.9491045
            ],
            [
              -8.8789804,
              37.949062
            ],
            [
              -8.8788051,
              37.9489953
            ],
            [
              -8.8787678,
              37.9489811
            ],
            [
              -8.8785081,
              37.9494051
            ],
            [
              -8.8787207,
              37.949486
            ]
          ]
        ]
      },
      "id": "way/103073041"
    },
    {
      "type": "Feature",
      "properties": {
        "@id": "way/103073048",
        "man_made": "pier"
      },
      "geometry": {
        "type": "Polygon",
        "coordinates": [
          [
            [
              -8.888709,
              37.9492963
            ],
            [
              -8.8887068,
              37.9492517
            ],
            [
              -8.8890512,
              37.9492411
            ],
            [
              -8.8890488,
              37.9491933
            ],
            [
              -8.888692,
              37.9492043
            ],
            [
              -8.888685,
              37.9490652
            ],
            [
              -8.8890445,
              37.9490541
            ],
            [
              -8.8890384,
              37.9489324
            ],
            [
              -8.8886881,
              37.9489432
            ],
            [
              -8.8886837,
              37.9488538
            ],
            [
              -8.8884783,
              37.9488602
            ],
            [
              -8.8884006,
              37.9488626
            ],
            [
              -8.8884227,
              37.9493052
            ],
            [
              -8.8885024,
              37.9493027
            ],
            [
              -8.888709,
              37.9492963
            ]
          ]
        ]
      },
      "id": "way/103073048"
    },
    {
      "type": "Feature",
      "properties": {
        "@id": "way/103073055",
        "man_made": "pier"
      },
      "geometry": {
        "type": "Polygon",
        "coordinates": [
          [
            [
              -8.8838712,
              37.9483321
            ],
            [
              -8.883831,
              37.9474216
            ],
            [
              -8.8836046,
              37.9474278
            ],
            [
              -8.8833886,
              37.9474337
            ],
            [
              -8.8834287,
              37.9483443
            ],
            [
              -8.8835709,
              37.9483383
            ],
            [
              -8.8837847,
              37.9483315
            ],
            [
              -8.8838712,
              37.9483321
            ]
          ]
        ]
      },
      "id": "way/103073055"
    },
    {
      "type": "Feature",
      "properties": {
        "@id": "way/103073064",
        "man_made": "pier"
      },
      "geometry": {
        "type": "Polygon",
        "coordinates": [
          [
            [
              -8.8810058,
              37.9497219
            ],
            [
              -8.8809857,
              37.9492479
            ],
            [
              -8.8809453,
              37.949249
            ],
            [
              -8.8808965,
              37.9492502
            ],
            [
              -8.8807381,
              37.9492544
            ],
            [
              -8.8807398,
              37.9492945
            ],
            [
              -8.8807411,
              37.9493254
            ],
            [
              -8.8807486,
              37.9495016
            ],
            [
              -8.8807561,
              37.949678
            ],
            [
              -8.8807569,
              37.9496972
            ],
            [
              -8.8807582,
              37.9497285
            ],
            [
              -8.8810058,
              37.9497219
            ]
          ]
        ]
      },
      "id": "way/103073064"
    },
    {
      "type": "Feature",
      "properties": {
        "@id": "way/103073090",
        "man_made": "pier"
      },
      "geometry": {
        "type": "Polygon",
        "coordinates": [
          [
            [
              -8.8836408,
              37.9466284
            ],
            [
              -8.8836342,
              37.9464844
            ],
            [
              -8.8835477,
              37.9464869
            ],
            [
              -8.8834501,
              37.9464897
            ],
            [
              -8.8834567,
              37.9466337
            ],
            [
              -8.8835534,
              37.9466309
            ],
            [
              -8.8836408,
              37.9466284
            ]
          ]
        ]
      },
      "id": "way/103073090"
    },
    {
      "type": "Feature",
      "properties": {
        "@id": "way/103073098",
        "man_made": "pier"
      },
      "geometry": {
        "type": "Polygon",
        "coordinates": [
          [
            [
              -8.8886332,
              37.9495578
            ],
            [
              -8.888622,
              37.9494132
            ],
            [
              -8.8885082,
              37.9494186
            ],
            [
              -8.8884244,
              37.9494227
            ],
            [
              -8.8884356,
              37.9495673
            ],
            [
              -8.8886332,
              37.9495578
            ]
          ]
        ]
      },
      "id": "way/103073098"
    },
    {
      "type": "Feature",
      "properties": {
        "@id": "way/103073106",
        "man_made": "pier"
      },
      "geometry": {
        "type": "Polygon",
        "coordinates": [
          [
            [
              -8.8809802,
              37.9491689
            ],
            [
              -8.8809785,
              37.9490972
            ],
            [
              -8.8808204,
              37.9490994
            ],
            [
              -8.8808221,
              37.9491712
            ],
            [
              -8.8808922,
              37.9491702
            ],
            [
              -8.8809421,
              37.9491695
            ],
            [
              -8.8809802,
              37.9491689
            ]
          ]
        ]
      },
      "id": "way/103073106"
    },
    {
      "type": "Feature",
      "properties": {
        "@id": "way/103073115",
        "man_made": "pier"
      },
      "geometry": {
        "type": "Polygon",
        "coordinates": [
          [
            [
              -8.8885917,
              37.9487415
            ],
            [
              -8.8885867,
              37.9485987
            ],
            [
              -8.8883907,
              37.9486029
            ],
            [
              -8.8883957,
              37.9487458
            ],
            [
              -8.8884699,
              37.9487442
            ],
            [
              -8.8885917,
              37.9487415
            ]
          ]
        ]
      },
      "id": "way/103073115"
    },
    {
      "type": "Feature",
      "properties": {
        "@id": "way/249576573",
        "man_made": "pier"
      },
      "geometry": {
        "type": "Polygon",
        "coordinates": [
          [
            [
              -8.8512962,
              37.9367181
            ],
            [
              -8.8513568,
              37.936654
            ],
            [
              -8.8509464,
              37.9364195
            ],
            [
              -8.8511824,
              37.9361889
            ],
            [
              -8.8515786,
              37.9364192
            ],
            [
              -8.8516302,
              37.9363646
            ],
            [
              -8.8512359,
              37.9361229
            ],
            [
              -8.8518662,
              37.9354735
            ],
            [
              -8.8518986,
              37.9354675
            ],
            [
              -8.8519442,
              37.9354231
            ],
            [
              -8.8519145,
              37.9354063
            ],
            [
              -8.8518396,
              37.9353639
            ],
            [
              -8.8517831,
              37.9354206
            ],
            [
              -8.8507989,
              37.9364258
            ],
            [
              -8.8512962,
              37.9367181
            ]
          ]
        ]
      },
      "id": "way/249576573"
    },
    {
      "type": "Feature",
      "properties": {
        "@id": "way/992666765",
        "man_made": "pier"
      },
      "geometry": {
        "type": "Polygon",
        "coordinates": [
          [
            [
              -8.8869331,
              37.9519645
            ],
            [
              -8.8869945,
              37.9519639
            ],
            [
              -8.8869939,
              37.9519204
            ],
            [
              -8.8868195,
              37.9519221
            ],
            [
              -8.8868201,
              37.9519655
            ],
            [
              -8.8868704,
              37.951965
            ],
            [
              -8.8869023,
              37.9522046
            ],
            [
              -8.8869338,
              37.952202
            ],
            [
              -8.8869645,
              37.9521995
            ],
            [
              -8.8869331,
              37.9519645
            ]
          ]
        ]
      },
      "id": "way/992666765"
    },
    {
      "type": "Feature",
      "properties": {
        "@id": "way/1065969151",
        "area": "yes",
        "man_made": "pier"
      },
      "geometry": {
        "type": "Polygon",
        "coordinates": [
          [
            [
              -8.8601096,
              37.9358027
            ],
            [
              -8.8601939,
              37.9357139
            ],
            [
              -8.8601013,
              37.9356592
            ],
            [
              -8.8600515,
              37.9357116
            ],
            [
              -8.860017,
              37.9357479
            ],
            [
              -8.8601096,
              37.9358027
            ]
          ]
        ]
      },
      "id": "way/1065969151"
    },
    {
      "type": "Feature",
      "properties": {
        "@id": "way/1065969152",
        "area": "yes",
        "man_made": "pier"
      },
      "geometry": {
        "type": "Polygon",
        "coordinates": [
          [
            [
              -8.8595711,
              37.9354715
            ],
            [
              -8.8596014,
              37.93544
            ],
            [
              -8.8596569,
              37.9353825
            ],
            [
              -8.8595933,
              37.9353444
            ],
            [
              -8.8595636,
              37.9353266
            ],
            [
              -8.8594998,
              37.9353928
            ],
            [
              -8.8594778,
              37.9354156
            ],
            [
              -8.8595711,
              37.9354715
            ]
          ]
        ]
      },
      "id": "way/1065969152"
    },
    {
      "type": "Feature",
      "properties": {
        "@id": "way/1065969153",
        "area": "yes",
        "man_made": "pier"
      },
      "geometry": {
        "type": "Polygon",
        "coordinates": [
          [
            [
              -8.8590158,
              37.9354878
            ],
            [
              -8.8591271,
              37.9353739
            ],
            [
              -8.8590838,
              37.9353476
            ],
            [
              -8.8589947,
              37.9352935
            ],
            [
              -8.858918,
              37.9353721
            ],
            [
              -8.8588834,
              37.9354074
            ],
            [
              -8.8590158,
              37.9354878
            ]
          ]
        ]
      },
      "id": "way/1065969153"
    },
    {
      "type": "Feature",
      "properties": {
        "@id": "way/1065969154",
        "area": "yes",
        "man_made": "pier"
      },
      "geometry": {
        "type": "Polygon",
        "coordinates": [
          [
            [
              -8.8588293,
              37.9353747
            ],
            [
              -8.8588649,
              37.9353379
            ],
            [
              -8.8589413,
              37.9352587
            ],
            [
              -8.8588062,
              37.9351776
            ],
            [
              -8.8587297,
              37.9352568
            ],
            [
              -8.8586942,
              37.9352936
            ],
            [
              -8.8588293,
              37.9353747
            ]
          ]
        ]
      },
      "id": "way/1065969154"
    },
    {
      "type": "Feature",
      "properties": {
        "@id": "way/1065969155",
        "area": "yes",
        "man_made": "pier"
      },
      "geometry": {
        "type": "Polygon",
        "coordinates": [
          [
            [
              -8.8581639,
              37.9349616
            ],
            [
              -8.8581925,
              37.934932
            ],
            [
              -8.858276,
              37.9348456
            ],
            [
              -8.8581409,
              37.9347644
            ],
            [
              -8.8580611,
              37.9348471
            ],
            [
              -8.8580288,
              37.9348804
            ],
            [
              -8.8581639,
              37.9349616
            ]
          ]
        ]
      },
      "id": "way/1065969155"
    },
    {
      "type": "Feature",
      "properties": {
        "@id": "way/1065969156",
        "area": "yes",
        "man_made": "pier"
      },
      "geometry": {
        "type": "Polygon",
        "coordinates": [
          [
            [
              -8.8579392,
              37.934822
            ],
            [
              -8.8579689,
              37.9347912
            ],
            [
              -8.8580512,
              37.934706
            ],
            [
              -8.8579423,
              37.9346406
            ],
            [
              -8.8579161,
              37.9346249
            ],
            [
              -8.8578041,
              37.9347409
            ],
            [
              -8.8579392,
              37.934822
            ]
          ]
        ]
      },
      "id": "way/1065969156"
    },
    {
      "type": "Feature",
      "properties": {
        "@id": "way/1065969157",
        "area": "yes",
        "man_made": "pier"
      },
      "geometry": {
        "type": "Polygon",
        "coordinates": [
          [
            [
              -8.8588,
              37.9348607
            ],
            [
              -8.8585369,
              37.9346962
            ],
            [
              -8.8584208,
              37.9348117
            ],
            [
              -8.8586839,
              37.9349763
            ],
            [
              -8.8588,
              37.9348607
            ]
          ]
        ]
      },
      "id": "way/1065969157"
    },
    {
      "type": "Feature",
      "properties": {
        "@id": "way/1065969158",
        "area": "yes",
        "man_made": "pier",
        "name": "Terminal GNL"
      },
      "geometry": {
        "type": "Polygon",
        "coordinates": [
          [
            [
              -8.8584744,
              37.9349239
            ],
            [
              -8.8583653,
              37.9350341
            ],
            [
              -8.8583278,
              37.935072
            ],
            [
              -8.8583915,
              37.9351112
            ],
            [
              -8.8584053,
              37.9350973
            ],
            [
              -8.858585,
              37.935208
            ],
            [
              -8.8585737,
              37.9352174
            ],
            [
              -8.8586311,
              37.9352531
            ],
            [
              -8.8586417,
              37.9352424
            ],
            [
              -8.8586546,
              37.9352503
            ],
            [
              -8.8586782,
              37.9352264
            ],
            [
              -8.8587871,
              37.9351165
            ],
            [
              -8.8585232,
              37.934954
            ],
            [
              -8.8584744,
              37.9349239
            ]
          ]
        ]
      },
      "id": "way/1065969158"
    },
    {
      "type": "Feature",
      "properties": {
        "@id": "way/1065969164",
        "area": "yes",
        "bridge": "yes",
        "man_made": "pier"
      },
      "geometry": {
        "type": "Polygon",
        "coordinates": [
          [
            [
              -8.8577851,
              37.9343478
            ],
            [
              -8.8578472,
              37.9342778
            ],
            [
              -8.8577524,
              37.9342255
            ],
            [
              -8.8576942,
              37.9342912
            ],
            [
              -8.8576716,
              37.9343166
            ],
            [
              -8.8577664,
              37.9343689
            ],
            [
              -8.8577851,
              37.9343478
            ]
          ]
        ]
      },
      "id": "way/1065969164"
    },
    {
      "type": "Feature",
      "properties": {
        "@id": "way/1065969168",
        "area": "yes",
        "man_made": "pier"
      },
      "geometry": {
        "type": "Polygon",
        "coordinates": [
          [
            [
              -8.8573165,
              37.9340957
            ],
            [
              -8.857332,
              37.9340799
            ],
            [
              -8.8574048,
              37.9340053
            ],
            [
              -8.8570963,
              37.9338179
            ],
            [
              -8.8569267,
              37.9339916
            ],
            [
              -8.8571435,
              37.9341232
            ],
            [
              -8.8572248,
              37.93404
            ],
            [
              -8.8573165,
              37.9340957
            ]
          ]
        ]
      },
      "id": "way/1065969168"
    },
    {
      "type": "Feature",
      "properties": {
        "@id": "way/1463812337",
        "area": "yes",
        "man_made": "pier"
      },
      "geometry": {
        "type": "Polygon",
        "coordinates": [
          [
            [
              -8.8521847,
              37.9352078
            ],
            [
              -8.8522342,
              37.935157
            ],
            [
              -8.8522819,
              37.935108
            ],
            [
              -8.852165,
              37.9350372
            ],
            [
              -8.8520678,
              37.9351371
            ],
            [
              -8.852148,
              37.9351856
            ],
            [
              -8.8521847,
              37.9352078
            ]
          ]
        ]
      },
      "id": "way/1463812337"
    },
    {
      "type": "Feature",
      "properties": {
        "@id": "way/1463812338",
        "area": "yes",
        "man_made": "pier"
      },
      "geometry": {
        "type": "Polygon",
        "coordinates": [
          [
            [
              -8.8527026,
              37.9346666
            ],
            [
              -8.8527467,
              37.9346213
            ],
            [
              -8.8527999,
              37.9345667
            ],
            [
              -8.8527751,
              37.9345517
            ],
            [
              -8.852683,
              37.9344959
            ],
            [
              -8.8525857,
              37.9345958
            ],
            [
              -8.8526267,
              37.9346238
            ],
            [
              -8.8527026,
              37.9346666
            ]
          ]
        ]
      },
      "id": "way/1463812338"
    },
    {
      "type": "Feature",
      "properties": {
        "@id": "way/1463812339",
        "area": "yes",
        "man_made": "pier"
      },
      "geometry": {
        "type": "Polygon",
        "coordinates": [
          [
            [
              -8.8529214,
              37.9344405
            ],
            [
              -8.8530186,
              37.9343406
            ],
            [
              -8.8529017,
              37.9342698
            ],
            [
              -8.8528045,
              37.9343697
            ],
            [
              -8.8529024,
              37.934429
            ],
            [
              -8.8529214,
              37.9344405
            ]
          ]
        ]
      },
      "id": "way/1463812339"
    },
    {
      "type": "Feature",
      "properties": {
        "@id": "way/1463812340",
        "area": "yes",
        "man_made": "pier"
      },
      "geometry": {
        "type": "Polygon",
        "coordinates": [
          [
            [
              -8.8523719,
              37.9351211
            ],
            [
              -8.8524198,
              37.9350698
            ],
            [
              -8.8524014,
              37.9350578
            ],
            [
              -8.8524307,
              37.9350308
            ],
            [
              -8.8524704,
              37.9349942
            ],
            [
              -8.8524227,
              37.9349582
            ],
            [
              -8.8525382,
              37.9348434
            ],
            [
              -8.8526009,
              37.93488
            ],
            [
              -8.8526453,
              37.9348362
            ],
            [
              -8.8525,
              37.934749
            ],
            [
              -8.8524573,
              37.9347235
            ],
            [
              -8.8524112,
              37.9347706
            ],
            [
              -8.8523692,
              37.9347465
            ],
            [
              -8.8521705,
              37.9349492
            ],
            [
              -8.8522228,
              37.9349747
            ],
            [
              -8.8521934,
              37.9350124
            ],
            [
              -8.8523719,
              37.9351211
            ]
          ]
        ]
      },
      "id": "way/1463812340"
    },
    {
      "type": "Feature",
      "properties": {
        "@id": "way/103072834",
        "man_made": "pier"
      },
      "geometry": {
        "type": "LineString",
        "coordinates": [
          [
            -8.8661689,
            37.9502725
          ],
          [
            -8.8661004,
            37.9502213
          ],
          [
            -8.8660486,
            37.9501753
          ]
        ]
      },
      "id": "way/103072834"
    },
    {
      "type": "Feature",
      "properties": {
        "@id": "way/103072870",
        "man_made": "pier"
      },
      "geometry": {
        "type": "LineString",
        "coordinates": [
          [
            -8.8658428,
            37.9500207
          ],
          [
            -8.8657926,
            37.9499771
          ],
          [
            -8.8657384,
            37.9499314
          ]
        ]
      },
      "id": "way/103072870"
    },
    {
      "type": "Feature",
      "properties": {
        "@id": "way/103072873",
        "man_made": "pier"
      },
      "geometry": {
        "type": "LineString",
        "coordinates": [
          [
            -8.8885024,
            37.9493027
          ],
          [
            -8.8885082,
            37.9494186
          ]
        ]
      },
      "id": "way/103072873"
    },
    {
      "type": "Feature",
      "properties": {
        "@id": "way/103072883",
        "man_made": "pier"
      },
      "geometry": {
        "type": "LineString",
        "coordinates": [
          [
            -8.8864067,
            37.9523448
          ],
          [
            -8.8862245,
            37.9514231
          ]
        ]
      },
      "id": "way/103072883"
    },
    {
      "type": "Feature",
      "properties": {
        "@id": "way/103072884",
        "man_made": "pier"
      },
      "geometry": {
        "type": "LineString",
        "coordinates": [
          [
            -8.8649182,
            37.9506655
          ],
          [
            -8.8650923,
            37.9505297
          ],
          [
            -8.8657926,
            37.9499771
          ]
        ]
      },
      "id": "way/103072884"
    },
    {
      "type": "Feature",
      "properties": {
        "@id": "way/103072890",
        "man_made": "pier"
      },
      "geometry": {
        "type": "LineString",
        "coordinates": [
          [
            -8.8650923,
            37.9505297
          ],
          [
            -8.8653971,
            37.9507736
          ],
          [
            -8.865543,
            37.9506634
          ],
          [
            -8.8661004,
            37.9502213
          ]
        ]
      },
      "id": "way/103072890"
    },
    {
      "type": "Feature",
      "properties": {
        "@id": "way/103072909",
        "man_made": "pier"
      },
      "geometry": {
        "type": "LineString",
        "coordinates": [
          [
            -8.8884699,
            37.9487442
          ],
          [
            -8.8884783,
            37.9488602
          ]
        ]
      },
      "id": "way/103072909"
    },
    {
      "type": "Feature",
      "properties": {
        "@id": "way/103072924",
        "man_made": "pier"
      },
      "geometry": {
        "type": "LineString",
        "coordinates": [
          [
            -8.8809453,
            37.949249
          ],
          [
            -8.8809421,
            37.9491695
          ]
        ]
      },
      "id": "way/103072924"
    },
    {
      "type": "Feature",
      "properties": {
        "@id": "way/103072943",
        "man_made": "pier"
      },
      "geometry": {
        "type": "LineString",
        "coordinates": [
          [
            -8.8882468,
            37.9456218
          ],
          [
            -8.8882371,
            37.945403
          ]
        ]
      },
      "id": "way/103072943"
    },
    {
      "type": "Feature",
      "properties": {
        "@id": "way/103072960",
        "man_made": "pier"
      },
      "geometry": {
        "type": "LineString",
        "coordinates": [
          [
            -8.8807561,
            37.949678
          ],
          [
            -8.8804558,
            37.9496899
          ]
        ]
      },
      "id": "way/103072960"
    },
    {
      "type": "Feature",
      "properties": {
        "@id": "way/103072967",
        "man_made": "pier"
      },
      "geometry": {
        "type": "LineString",
        "coordinates": [
          [
            -8.8647502,
            37.9498691
          ],
          [
            -8.8647836,
            37.9498502
          ],
          [
            -8.8653981,
            37.9495025
          ],
          [
            -8.8656442,
            37.9495626
          ],
          [
            -8.8667256,
            37.950396
          ]
        ]
      },
      "id": "way/103072967"
    },
    {
      "type": "Feature",
      "properties": {
        "@id": "way/103072969",
        "man_made": "pier"
      },
      "geometry": {
        "type": "LineString",
        "coordinates": [
          [
            -8.8799117,
            37.9483313
          ],
          [
            -8.8799606,
            37.9491195
          ]
        ]
      },
      "id": "way/103072969"
    },
    {
      "type": "Feature",
      "properties": {
        "@id": "way/103072982",
        "man_made": "pier"
      },
      "geometry": {
        "type": "LineString",
        "coordinates": [
          [
            -8.8807486,
            37.9495016
          ],
          [
            -8.8804528,
            37.9495111
          ]
        ]
      },
      "id": "way/103072982"
    },
    {
      "type": "Feature",
      "properties": {
        "@id": "way/103072989",
        "man_made": "pier"
      },
      "geometry": {
        "type": "LineString",
        "coordinates": [
          [
            -8.8882336,
            37.9462961
          ],
          [
            -8.8882191,
            37.9460584
          ]
        ]
      },
      "id": "way/103072989"
    },
    {
      "type": "Feature",
      "properties": {
        "@id": "way/103073007",
        "man_made": "pier"
      },
      "geometry": {
        "type": "LineString",
        "coordinates": [
          [
            -8.8646686,
            37.9497134
          ],
          [
            -8.8647836,
            37.9498502
          ]
        ]
      },
      "id": "way/103073007"
    },
    {
      "type": "Feature",
      "properties": {
        "@id": "way/103073009",
        "man_made": "pier"
      },
      "geometry": {
        "type": "LineString",
        "coordinates": [
          [
            -8.8658917,
            37.9509512
          ],
          [
            -8.8664626,
            37.9505018
          ]
        ]
      },
      "id": "way/103073009"
    },
    {
      "type": "Feature",
      "properties": {
        "@id": "way/103073020",
        "man_made": "pier"
      },
      "geometry": {
        "type": "LineString",
        "coordinates": [
          [
            -8.8787469,
            37.9494432
          ],
          [
            -8.8790001,
            37.9495394
          ]
        ]
      },
      "id": "way/103073020"
    },
    {
      "type": "Feature",
      "properties": {
        "@id": "way/103073031",
        "man_made": "pier"
      },
      "geometry": {
        "type": "LineString",
        "coordinates": [
          [
            -8.8861703,
            37.9511497
          ],
          [
            -8.8861115,
            37.9508736
          ],
          [
            -8.8860811,
            37.9507309
          ],
          [
            -8.8860073,
            37.9507407
          ],
          [
            -8.8859933,
            37.9506748
          ],
          [
            -8.8861445,
            37.9506547
          ],
          [
            -8.8861585,
            37.9507207
          ],
          [
            -8.8860811,
            37.9507309
          ]
        ]
      },
      "id": "way/103073031"
    },
    {
      "type": "Feature",
      "properties": {
        "@id": "way/103073039",
        "man_made": "pier"
      },
      "geometry": {
        "type": "LineString",
        "coordinates": [
          [
            -8.8788444,
            37.949284
          ],
          [
            -8.8791164,
            37.9493912
          ]
        ]
      },
      "id": "way/103073039"
    },
    {
      "type": "Feature",
      "properties": {
        "@id": "way/103073056",
        "man_made": "pier"
      },
      "geometry": {
        "type": "LineString",
        "coordinates": [
          [
            -8.865543,
            37.9506634
          ],
          [
            -8.8658917,
            37.9509512
          ],
          [
            -8.8659745,
            37.9510152
          ]
        ]
      },
      "id": "way/103073056"
    },
    {
      "type": "Feature",
      "properties": {
        "@id": "way/103073059",
        "man_made": "pier"
      },
      "geometry": {
        "type": "LineString",
        "coordinates": [
          [
            -8.8807411,
            37.9493254
          ],
          [
            -8.8803902,
            37.9493347
          ]
        ]
      },
      "id": "way/103073059"
    },
    {
      "type": "Feature",
      "properties": {
        "@id": "way/103073062",
        "man_made": "pier"
      },
      "geometry": {
        "type": "LineString",
        "coordinates": [
          [
            -8.8835534,
            37.9466309
          ],
          [
            -8.8835735,
            37.9469613
          ]
        ]
      },
      "id": "way/103073062"
    },
    {
      "type": "Feature",
      "properties": {
        "@id": "way/103073070",
        "man_made": "pier"
      },
      "geometry": {
        "type": "LineString",
        "coordinates": [
          [
            -8.8835827,
            37.9471027
          ],
          [
            -8.8835882,
            37.9471819
          ],
          [
            -8.8836046,
            37.9474278
          ]
        ]
      },
      "id": "way/103073070"
    },
    {
      "type": "Feature",
      "properties": {
        "@id": "way/103073085",
        "man_made": "pier"
      },
      "geometry": {
        "type": "LineString",
        "coordinates": [
          [
            -8.8555702,
            37.9326915
          ],
          [
            -8.8552556,
            37.9326972
          ]
        ]
      },
      "id": "way/103073085"
    },
    {
      "type": "Feature",
      "properties": {
        "@id": "way/103073091",
        "man_made": "pier"
      },
      "geometry": {
        "type": "LineString",
        "coordinates": [
          [
            -8.8835305,
            37.9461534
          ],
          [
            -8.8835477,
            37.9464869
          ]
        ]
      },
      "id": "way/103073091"
    },
    {
      "type": "Feature",
      "properties": {
        "@id": "way/103073096",
        "man_made": "pier"
      },
      "geometry": {
        "type": "LineString",
        "coordinates": [
          [
            -8.8649949,
            37.9508565
          ],
          [
            -8.8652162,
            37.950853
          ]
        ]
      },
      "id": "way/103073096"
    },
    {
      "type": "Feature",
      "properties": {
        "@id": "way/103073108",
        "man_made": "pier"
      },
      "geometry": {
        "type": "LineString",
        "coordinates": [
          [
            -8.8646673,
            37.9504727
          ],
          [
            -8.865529,
            37.9497725
          ]
        ]
      },
      "id": "way/103073108"
    },
    {
      "type": "Feature",
      "properties": {
        "@id": "way/103073110",
        "man_made": "pier"
      },
      "geometry": {
        "type": "LineString",
        "coordinates": [
          [
            -8.8789448,
            37.9491201
          ],
          [
            -8.8792148,
            37.9492265
          ]
        ]
      },
      "id": "way/103073110"
    },
    {
      "type": "Feature",
      "properties": {
        "@id": "way/103073138",
        "man_made": "pier"
      },
      "geometry": {
        "type": "LineString",
        "coordinates": [
          [
            -8.8788051,
            37.9489953
          ],
          [
            -8.87885,
            37.9489243
          ]
        ]
      },
      "id": "way/103073138"
    },
    {
      "type": "Feature",
      "properties": {
        "@id": "way/103073148",
        "man_made": "pier"
      },
      "geometry": {
        "type": "LineString",
        "coordinates": [
          [
            -8.865586,
            37.9498164
          ],
          [
            -8.865529,
            37.9497725
          ],
          [
            -8.8654871,
            37.9497366
          ]
        ]
      },
      "id": "way/103073148"
    },
    {
      "type": "Feature",
      "properties": {
        "@id": "way/103073163",
        "bridge": "yes",
        "man_made": "pier"
      },
      "geometry": {
        "type": "LineString",
        "coordinates": [
          [
            -8.8595933,
            37.9353444
          ],
          [
            -8.8598287,
            37.9350862
          ]
        ]
      },
      "id": "way/103073163"
    },
    {
      "type": "Feature",
      "properties": {
        "@id": "way/156523356",
        "man_made": "pier"
      },
      "geometry": {
        "type": "LineString",
        "coordinates": [
          [
            -8.8478779,
            37.9370742
          ],
          [
            -8.8487505,
            37.9366911
          ]
        ]
      },
      "id": "way/156523356"
    },
    {
      "type": "Feature",
      "properties": {
        "@id": "way/156523357",
        "man_made": "pier"
      },
      "geometry": {
        "type": "LineString",
        "coordinates": [
          [
            -8.8488087,
            37.9367737
          ],
          [
            -8.8487505,
            37.9366911
          ],
          [
            -8.8486894,
            37.9365959
          ]
        ]
      },
      "id": "way/156523357"
    },
    {
      "type": "Feature",
      "properties": {
        "@id": "way/163062189",
        "man_made": "pier"
      },
      "geometry": {
        "type": "LineString",
        "coordinates": [
          [
            -8.8663906,
            37.9504435
          ],
          [
            -8.8664626,
            37.9505018
          ],
          [
            -8.866543,
            37.950562
          ]
        ]
      },
      "id": "way/163062189"
    },
    {
      "type": "Feature",
      "properties": {
        "@id": "way/303862982",
        "man_made": "pier"
      },
      "geometry": {
        "type": "LineString",
        "coordinates": [
          [
            -8.8652184,
            37.9508029
          ],
          [
            -8.8652162,
            37.950853
          ],
          [
            -8.8652211,
            37.9509023
          ]
        ]
      },
      "id": "way/303862982"
    },
    {
      "type": "Feature",
      "properties": {
        "@id": "way/1065969159",
        "bridge": "yes",
        "man_made": "pier"
      },
      "geometry": {
        "type": "LineString",
        "coordinates": [
          [
            -8.8600515,
            37.9357116
          ],
          [
            -8.8596014,
            37.93544
          ]
        ]
      },
      "id": "way/1065969159"
    },
    {
      "type": "Feature",
      "properties": {
        "@id": "way/1065969160",
        "bridge": "yes",
        "man_made": "pier"
      },
      "geometry": {
        "type": "LineString",
        "coordinates": [
          [
            -8.8594998,
            37.9353928
          ],
          [
            -8.8590838,
            37.9353476
          ]
        ]
      },
      "id": "way/1065969160"
    },
    {
      "type": "Feature",
      "properties": {
        "@id": "way/1065969161",
        "bridge": "yes",
        "man_made": "pier"
      },
      "geometry": {
        "type": "LineString",
        "coordinates": [
          [
            -8.858918,
            37.9353721
          ],
          [
            -8.8588649,
            37.9353379
          ]
        ]
      },
      "id": "way/1065969161"
    },
    {
      "type": "Feature",
      "properties": {
        "@id": "way/1065969162",
        "bridge": "yes",
        "man_made": "pier"
      },
      "geometry": {
        "type": "LineString",
        "coordinates": [
          [
            -8.8587297,
            37.9352568
          ],
          [
            -8.8586782,
            37.9352264
          ]
        ]
      },
      "id": "way/1065969162"
    },
    {
      "type": "Feature",
      "properties": {
        "@id": "way/1065969163",
        "bridge": "yes",
        "man_made": "pier"
      },
      "geometry": {
        "type": "LineString",
        "coordinates": [
          [
            -8.8579423,
            37.9346406
          ],
          [
            -8.8577851,
            37.9343478
          ]
        ]
      },
      "id": "way/1065969163"
    },
    {
      "type": "Feature",
      "properties": {
        "@id": "way/1065969165",
        "bridge": "yes",
        "man_made": "pier"
      },
      "geometry": {
        "type": "LineString",
        "coordinates": [
          [
            -8.8583653,
            37.9350341
          ],
          [
            -8.8581925,
            37.934932
          ]
        ]
      },
      "id": "way/1065969165"
    },
    {
      "type": "Feature",
      "properties": {
        "@id": "way/1065969166",
        "bridge": "yes",
        "man_made": "pier"
      },
      "geometry": {
        "type": "LineString",
        "coordinates": [
          [
            -8.8580611,
            37.9348471
          ],
          [
            -8.8579689,
            37.9347912
          ]
        ]
      },
      "id": "way/1065969166"
    },
    {
      "type": "Feature",
      "properties": {
        "@id": "way/1065969167",
        "bridge": "yes",
        "man_made": "pier"
      },
      "geometry": {
        "type": "LineString",
        "coordinates": [
          [
            -8.8576942,
            37.9342912
          ],
          [
            -8.857332,
            37.9340799
          ]
        ]
      },
      "id": "way/1065969167"
    },
    {
      "type": "Feature",
      "properties": {
        "@id": "way/1065969169",
        "bridge": "yes",
        "man_made": "pier"
      },
      "geometry": {
        "type": "LineString",
        "coordinates": [
          [
            -8.8575427,
            37.9336991
          ],
          [
            -8.8572728,
            37.9340016
          ]
        ]
      },
      "id": "way/1065969169"
    },
    {
      "type": "Feature",
      "properties": {
        "@id": "way/1065969171",
        "bridge": "yes",
        "man_made": "pier"
      },
      "geometry": {
        "type": "LineString",
        "coordinates": [
          [
            -8.8589343,
            37.9345408
          ],
          [
            -8.8585232,
            37.934954
          ]
        ]
      },
      "id": "way/1065969171"
    },
    {
      "type": "Feature",
      "properties": {
        "@id": "way/1065969173",
        "man_made": "pier"
      },
      "geometry": {
        "type": "LineString",
        "coordinates": [
          [
            -8.8552635,
            37.932744
          ],
          [
            -8.8552556,
            37.9326972
          ],
          [
            -8.855247,
            37.9326464
          ]
        ]
      },
      "id": "way/1065969173"
    },
    {
      "type": "Feature",
      "properties": {
        "@id": "way/1463812343",
        "bridge": "yes",
        "man_made": "pier"
      },
      "geometry": {
        "type": "LineString",
        "coordinates": [
          [
            -8.8531263,
            37.934846
          ],
          [
            -8.8527467,
            37.9346213
          ]
        ]
      },
      "id": "way/1463812343"
    },
    {
      "type": "Feature",
      "properties": {
        "@id": "way/1463812344",
        "bridge": "yes",
        "man_made": "pier"
      },
      "geometry": {
        "type": "LineString",
        "coordinates": [
          [
            -8.8526267,
            37.9346238
          ],
          [
            -8.8525,
            37.934749
          ]
        ]
      },
      "id": "way/1463812344"
    },
    {
      "type": "Feature",
      "properties": {
        "@id": "way/1463812345",
        "bridge": "yes",
        "man_made": "pier"
      },
      "geometry": {
        "type": "LineString",
        "coordinates": [
          [
            -8.8529024,
            37.934429
          ],
          [
            -8.8527751,
            37.9345517
          ]
        ]
      },
      "id": "way/1463812345"
    },
    {
      "type": "Feature",
      "properties": {
        "@id": "way/1463812346",
        "bridge": "yes",
        "man_made": "pier"
      },
      "geometry": {
        "type": "LineString",
        "coordinates": [
          [
            -8.8526163,
            37.9353868
          ],
          [
            -8.8522342,
            37.935157
          ]
        ]
      },
      "id": "way/1463812346"
    },
    {
      "type": "Feature",
      "properties": {
        "@id": "way/1463812347",
        "bridge": "yes",
        "man_made": "pier"
      },
      "geometry": {
        "type": "LineString",
        "coordinates": [
          [
            -8.852148,
            37.9351856
          ],
          [
            -8.8519145,
            37.9354063
          ]
        ]
      },
      "id": "way/1463812347"
    }
  ]
}